<?xml version="1.0" encoding="UTF-8"?>
<kml xmlns="http://www.opengis.net/kml/2.2">
  <Document xmlns="">
    <Folder>
      <name>Patrimonio IGEA</name>
      <Placemark xmlns="http://www.opengis.net/kml/2.2">
        <styleUrl>#Parti singole_style_map</styleUrl>
        <name>F00321</name>
        <Polygon>
          <outerBoundaryIs>
            <LinearRing>
              <coordinates>8.29245854074252,39.1310579799505 8.29262808797812,39.1312177354759 8.29270874792324,39.1312954030421 8.2927866175453,39.1312033524904 8.29282280214007,39.1311633477618 8.29291030633542,39.1311120125137 8.29302680016897,39.131041335649 8.29306638615686,39.1309735530456 8.29317958152743,39.1307872829836 8.29324586887745,39.1306871512049 8.29329642370339,39.1306550819431 8.29327021189107,39.1306141578958 8.29310937247328,39.1306745458875 8.29298068250379,39.1307235228102 8.29298252050366,39.1305664029435 8.29298606758659,39.1303413697326 8.29294696440943,39.1303736435267 8.292886979843,39.1304266056062 8.292796701035,39.1305055692588 8.29272782591636,39.1305856269443 8.29268905137607,39.1306382130772 8.29266740628528,39.1306762425647 8.29259614012222,39.1308044305659 8.29254672386757,39.1308960770931 8.29248919653591,39.1310005147838 8.29245854074252,39.1310579799505</coordinates>
            </LinearRing>
          </outerBoundaryIs>
        </Polygon>
      </Placemark>
      <Placemark xmlns="http://www.opengis.net/kml/2.2">
        <styleUrl>#Parti singole_style_map</styleUrl>
        <name>T00499</name>
        <Polygon>
          <outerBoundaryIs>
            <LinearRing>
              <coordinates>8.2916302211796,39.1375113981641 8.29175427513437,39.1375799589263 8.29183880729216,39.1376263109109 8.29189905992601,39.1376558181894 8.29196602717779,39.1376872675324 8.2920274996217,39.1377162955736 8.29212618589571,39.137756569962 8.29222852583261,39.1377982721546 8.29225644634681,39.1378189774643 8.29234242668704,39.1378987049793 8.2924484061606,39.1379952599776 8.29249442705169,39.1380375299479 8.29255649140961,39.1380698953113 8.29268183084625,39.138132750027 8.29272954155032,39.1381888617854 8.29282726769484,39.138310137094 8.292904004823,39.1383435735228 8.29306126075823,39.1383470599828 8.2930943108362,39.1383477741604 8.29313898380122,39.13834904544 8.29328943250125,39.1383586897362 8.29337196004468,39.1383661917791 8.29337922920048,39.138267576316 8.29338621571512,39.1381937479249 8.29345635536429,39.1381094084895 8.29350106040378,39.1380553893809 8.29355760400538,39.1379838168662 8.29346049794077,39.1379578084029 8.29336523629322,39.137834160696 8.29328444100791,39.1377287304597 8.29328097671336,39.1376586412371 8.29327161752249,39.1375694403259 8.29314336145165,39.1374407984997 8.29307955877606,39.1373786691391 8.2930556699543,39.1373851921853 8.29294507829776,39.1374153830945 8.29284681771748,39.1374447116263 8.2927485740788,39.1374711837449 8.2926810390387,39.1374883448255 8.29254677438463,39.1375069298418 8.29246280781577,39.1375172959614 8.29240763678534,39.1375245299567 8.29224260354843,39.1375052534513 8.29213378716459,39.1374944731246 8.29202907363239,39.1374980178162 8.29184539647919,39.1375033891991 8.29172171068704,39.1375077554083 8.2916302211796,39.1375113981641</coordinates>
            </LinearRing>
          </outerBoundaryIs>
        </Polygon>
      </Placemark>
      <Placemark xmlns="http://www.opengis.net/kml/2.2">
        <styleUrl>#Parti singole_style_map</styleUrl>
        <name>T00504</name>
        <Polygon>
          <outerBoundaryIs>
            <LinearRing>
              <coordinates>8.28710698909272,39.1353314881969 8.28717391476158,39.1354182395019 8.28723355856827,39.1354996929007 8.28726058625702,39.1355375595762 8.28727958875123,39.1355348374238 8.28735664713579,39.1354934174939 8.28750686359579,39.1354186994157 8.28765523057674,39.1353449249807 8.28781346085517,39.1352659753614 8.28796487383454,39.1351941294458 8.28807443358467,39.1351410494307 8.28823999782386,39.1350621530563 8.28836084032031,39.1350053931979 8.28830909983667,39.1349811894055 8.28820622724965,39.134933272054 8.28810821494893,39.1348887273309 8.28803370906948,39.1348732869989 8.28794329810149,39.1349034072853 8.28776251781999,39.1349629360457 8.28744804400513,39.135061591871 8.28733923229747,39.1350966812444 8.28707432207757,39.1350911316383 8.28708315424957,39.1351400243897 8.28710698909272,39.1353314881969</coordinates>
            </LinearRing>
          </outerBoundaryIs>
        </Polygon>
      </Placemark>
      <Placemark xmlns="http://www.opengis.net/kml/2.2">
        <styleUrl>#Parti singole_style_map</styleUrl>
        <name>T00506</name>
        <Polygon>
          <outerBoundaryIs>
            <LinearRing>
              <coordinates>8.28706424144118,39.1350295169637 8.28727041681253,39.1350367076674 8.28736440727541,39.1350073486899 8.2874111335662,39.1349929468633 8.28765003401882,39.134919302663 8.28784720778948,39.1348587479392 8.28791111431859,39.1348387110351 8.28797177719575,39.1347800338476 8.28802133281164,39.1347293894824 8.28808570803519,39.1346674099254 8.28811916955601,39.1346328506177 8.28810930561038,39.1344302088219 8.28810100640542,39.1342514102316 8.28809974733932,39.1342018249388 8.28800919921275,39.1341641199104 8.28800706283492,39.1342417982487 8.28800533314389,39.1344410171725 8.28800365232093,39.1345320433331 8.28800130160458,39.1345758756729 8.28793635162831,39.1346340400894 8.2878510767859,39.1347044611055 8.28781827640542,39.1347342486365 8.2876792141238,39.1347976005891 8.28753954314487,39.1348604800883 8.28726389201223,39.1349838732911 8.28714279013627,39.1349768067092 8.28708837226297,39.1349726080584 8.28707788910145,39.1349956116314 8.28706424144118,39.1350295169637</coordinates>
            </LinearRing>
          </outerBoundaryIs>
        </Polygon>
      </Placemark>
      <Placemark xmlns="http://www.opengis.net/kml/2.2">
        <styleUrl>#Parti singole_style_map</styleUrl>
        <name>T00505</name>
        <Polygon>
          <outerBoundaryIs>
            <LinearRing>
              <coordinates>8.28744804400513,39.135061591871 8.28776251781999,39.1349629360457 8.28794329810149,39.1349034072853 8.28803370906948,39.1348732869989 8.28810821494893,39.1348887273309 8.28812478937369,39.1347801669995 8.28813355608923,39.134711594078 8.28814756328685,39.1346120829491 8.28816489869765,39.1344911373627 8.28818483753047,39.1343563850623 8.28819965092913,39.1342411459337 8.28809974733932,39.1342018249388 8.28810100640542,39.1342514102316 8.28810930561038,39.1344302088219 8.28811916955601,39.1346328506177 8.28808570803519,39.1346674099254 8.28802133281164,39.1347293894824 8.28797177719575,39.1347800338476 8.28791111431859,39.1348387110351 8.28784720778948,39.1348587479392 8.28765003401882,39.134919302663 8.2874111335662,39.1349929468633 8.28744804400513,39.135061591871</coordinates>
            </LinearRing>
          </outerBoundaryIs>
        </Polygon>
      </Placemark>
      <Placemark xmlns="http://www.opengis.net/kml/2.2">
        <styleUrl>#Parti singole_style_map</styleUrl>
        <name>T00515</name>
        <Polygon>
          <outerBoundaryIs>
            <LinearRing>
              <coordinates>8.29089304567421,39.1313073339561 8.29094942927946,39.1312491157043 8.29101016228179,39.1311851930011 8.29111981639448,39.1310711072601 8.29120159912761,39.1309858937743 8.29125983401943,39.1309252987588 8.29132438390462,39.1308475764807 8.29139577277697,39.1307627681901 8.29142050151021,39.1307414998357 8.29150523526643,39.1306653599718 8.29159799201205,39.130584042544 8.29168269955045,39.130509326101 8.29173763468522,39.1304696790001 8.29183740690393,39.1304155717092 8.2919809199843,39.1303374639817 8.29210719750101,39.1302682982304 8.29218884070006,39.1302464744448 8.29226496295176,39.1302260407749 8.29227484465611,39.1302189552097 8.29228472617803,39.1302118876643 8.29226228144816,39.1302015240108 8.29222180342171,39.130186220985 8.29219119216983,39.1301734108194 8.29217971147838,39.1301749630175 8.29214566014862,39.1301821900688 8.2921441251632,39.1302083842648 8.29205020704673,39.1302325122889 8.29190964133158,39.130268205974 8.29182678123475,39.1302890760282 8.29175758191504,39.1303448289354 8.29167599198235,39.1304132568035 8.29164079443724,39.1304401744323 8.29153815340954,39.1305300010965 8.29141813403803,39.1306406901918 8.29132347073405,39.1307286638978 8.29119845085993,39.1308464589265 8.29116195279955,39.1308795769626 8.29109556346647,39.1309572699349 8.29098382491378,39.131092320201 8.29087335534516,39.1312230799101 8.29089304567421,39.1313073339561</coordinates>
            </LinearRing>
          </outerBoundaryIs>
        </Polygon>
      </Placemark>
      <Placemark xmlns="http://www.opengis.net/kml/2.2">
        <styleUrl>#Parti singole_style_map</styleUrl>
        <name>T00513</name>
        <Polygon>
          <outerBoundaryIs>
            <LinearRing>
              <coordinates>8.29183408197934,39.1311168290521 8.29195012726909,39.1310332920738 8.29208035635375,39.1309393615628 8.29225131992335,39.1308166454554 8.29232274860451,39.1307265925263 8.29240973174497,39.13061519724 8.292509809857,39.1304819670491 8.29259243839605,39.1303767446325 8.29263748733273,39.1303179881576 8.29264719346595,39.1303053237849 8.29244950813582,39.1302534103185 8.29238913006186,39.1302358779511 8.29235366028003,39.1302518910272 8.29234238706139,39.1302569857617 8.29230361806672,39.1302743484296 8.29218489313401,39.1303264216644 8.29206428374628,39.1303818083257 8.29194247103568,39.1304371875476 8.29200741411646,39.1305164180739 8.29190006327856,39.1305890688071 8.29167678055793,39.1307385799258 8.29155093407268,39.1308234807469 8.29151207379194,39.130849898486 8.29161873812149,39.1309393038765 8.29167256413407,39.1309838022882 8.29176239689235,39.1310580480961 8.29183408197934,39.1311168290521</coordinates>
            </LinearRing>
          </outerBoundaryIs>
        </Polygon>
      </Placemark>
      <Placemark xmlns="http://www.opengis.net/kml/2.2">
        <styleUrl>#Parti singole_style_map</styleUrl>
        <name>T00514</name>
        <Polygon>
          <outerBoundaryIs>
            <LinearRing>
              <coordinates>8.29142623122268,39.1307781367125 8.29151207379194,39.130849898486 8.29155093407268,39.1308234807469 8.29167678055793,39.1307385799258 8.29190006327856,39.1305890688071 8.29200741411646,39.1305164180739 8.29194247103568,39.1304371875476 8.29191601502464,39.1304484344736 8.29181572720772,39.1304939603782 8.29176697593008,39.1305284098118 8.29166574193659,39.1306025212266 8.29160340330911,39.1306478361461 8.2915342771742,39.1306973899035 8.29142623122268,39.1307781367125</coordinates>
            </LinearRing>
          </outerBoundaryIs>
        </Polygon>
      </Placemark>
      <Placemark xmlns="http://www.opengis.net/kml/2.2">
        <styleUrl>#Parti singole_style_map</styleUrl>
        <name>T00516</name>
        <Polygon>
          <outerBoundaryIs>
            <LinearRing>
              <coordinates>8.2895883652514,39.132100755043 8.28966233862949,39.1321608578474 8.28964412991235,39.1321998087936 8.28960561579371,39.1322791125924 8.28966287751159,39.1322499692895 8.28980879943897,39.1321756905516 8.28992760288844,39.1321174388139 8.29001195643978,39.1320737097244 8.29009765979657,39.13201998677 8.29019688663737,39.1319606242675 8.29035156077146,39.1318706922797 8.29038239573529,39.1318508940707 8.29044869868412,39.1317808151526 8.29052183685007,39.1317017399528 8.29059435889261,39.1316240936768 8.29065074110685,39.1315649114062 8.29074803048954,39.1314621674688 8.29081496682566,39.1313911550644 8.29087074040673,39.1313314823935 8.29089304567421,39.1313073339561 8.29087335534516,39.1312230799101 8.29098382491378,39.131092320201 8.29109556346647,39.1309572699349 8.29116195279955,39.1308795769626 8.29119845085993,39.1308464589265 8.29132347073405,39.1307286638978 8.29141813403803,39.1306406901918 8.29153815340954,39.1305300010965 8.29164079443724,39.1304401744323 8.29167599198235,39.1304132568035 8.29175758191504,39.1303448289354 8.29182678123475,39.1302890760282 8.29190964133158,39.130268205974 8.29205020704673,39.1302325122889 8.2921441251632,39.1302083842648 8.29214566014862,39.1301821900688 8.29210807740459,39.1301885396222 8.29204919030211,39.1302000400541 8.29190567275661,39.1302266689138 8.29174134350715,39.1302531440409 8.29163282812877,39.1302700103546 8.29150781479993,39.1302834242035 8.29140670743866,39.130294144911 8.29117042555062,39.1305285301916 8.29095593803843,39.1307410792025 8.29059792749384,39.1310911153538 8.29023617742621,39.1314537247412 8.29003074093572,39.1316607404223 8.2895883652514,39.132100755043</coordinates>
            </LinearRing>
          </outerBoundaryIs>
        </Polygon>
      </Placemark>
      <Placemark xmlns="http://www.opengis.net/kml/2.2">
        <styleUrl>#Parti singole_style_map</styleUrl>
        <name>T00512</name>
        <Polygon>
          <outerBoundaryIs>
            <LinearRing>
              <coordinates>8.29105541175146,39.1314087839666 8.29133361803158,39.1312177438276 8.29167256413407,39.1309838022882 8.29161873812149,39.1309393038765 8.29151207379194,39.130849898486 8.29142623122268,39.1307781367125 8.29141388460714,39.1307875770627 8.29138344244246,39.1308259673001 8.29133498038466,39.1308880635617 8.2912834498302,39.1309515648478 8.2912375854734,39.1310003408292 8.29111867252912,39.1311205517798 8.29104309725699,39.1311981978333 8.29097435733849,39.1312668205343 8.29092044059871,39.1313236301005 8.29105541175146,39.1314087839666</coordinates>
            </LinearRing>
          </outerBoundaryIs>
        </Polygon>
      </Placemark>
    </Folder>
  </Document>
</kml>

