<?xml version="1.0" encoding="UTF-8"?>
<kml xmlns="http://www.opengis.net/kml/2.2">
  <Document xmlns="">
    <Folder>
      <name>Patrimonio IGEA</name>
      <Placemark xmlns="http://www.opengis.net/kml/2.2">
        <styleUrl>#Parti singole_style_map</styleUrl>
        <name>F01406</name>
        <Polygon>
          <outerBoundaryIs>
            <LinearRing>
              <coordinates>9.48256959726629,40.470638503961 9.48290339152967,40.4706449822827 9.48291996399724,40.4704128524781 9.48257250223572,40.4704747969691 9.48256959726629,40.470638503961</coordinates>
            </LinearRing>
          </outerBoundaryIs>
        </Polygon>
      </Placemark>
      <Placemark xmlns="http://www.opengis.net/kml/2.2">
        <styleUrl>#Parti singole_style_map</styleUrl>
        <name>F01407</name>
        <Polygon>
          <outerBoundaryIs>
            <LinearRing>
              <coordinates>9.48256959726629,40.470638503961 9.48290339152967,40.4706449822827 9.48291996399724,40.4704128524781 9.48257250223572,40.4704747969691 9.48256959726629,40.470638503961</coordinates>
            </LinearRing>
          </outerBoundaryIs>
        </Polygon>
      </Placemark>
      <Placemark xmlns="http://www.opengis.net/kml/2.2">
        <styleUrl>#Parti singole_style_map</styleUrl>
        <name>F01408</name>
        <Polygon>
          <outerBoundaryIs>
            <LinearRing>
              <coordinates>9.48256121961039,40.4711106161364 9.48287140256232,40.4711286186294 9.48290339152967,40.4706449822827 9.48256959726629,40.470638503961 9.48256121961039,40.4711106161364</coordinates>
            </LinearRing>
          </outerBoundaryIs>
        </Polygon>
      </Placemark>
      <Placemark xmlns="http://www.opengis.net/kml/2.2">
        <styleUrl>#Parti singole_style_map</styleUrl>
        <name>F01409</name>
        <Polygon>
          <outerBoundaryIs>
            <LinearRing>
              <coordinates>9.48256121961039,40.4711106161364 9.48287140256232,40.4711286186294 9.48290339152967,40.4706449822827 9.48256959726629,40.470638503961 9.48256121961039,40.4711106161364</coordinates>
            </LinearRing>
          </outerBoundaryIs>
        </Polygon>
      </Placemark>
      <Placemark xmlns="http://www.opengis.net/kml/2.2">
        <styleUrl>#Parti singole_style_map</styleUrl>
        <name>F01411</name>
        <Polygon>
          <outerBoundaryIs>
            <LinearRing>
              <coordinates>9.44873696769168,40.4421861723546 9.448823637036,40.4422062323065 9.44884550813328,40.4422113005472 9.44885742178358,40.4421818132595 9.44887599421567,40.442135867912 9.44876711057053,40.4421105338741 9.44873696769168,40.4421861723546</coordinates>
            </LinearRing>
          </outerBoundaryIs>
        </Polygon>
      </Placemark>
      <Placemark xmlns="http://www.opengis.net/kml/2.2">
        <styleUrl>#Parti singole_style_map</styleUrl>
        <name>F01412</name>
        <Polygon>
          <outerBoundaryIs>
            <LinearRing>
              <coordinates>9.44851302193716,40.4422278510205 9.4485541359916,40.4422310879823 9.44856086474663,40.4421736662262 9.44852015431145,40.4421708331023 9.44851302193716,40.4422278510205</coordinates>
            </LinearRing>
          </outerBoundaryIs>
        </Polygon>
      </Placemark>
      <Placemark xmlns="http://www.opengis.net/kml/2.2">
        <styleUrl>#Parti singole_style_map</styleUrl>
        <name>F01413</name>
        <Polygon>
          <outerBoundaryIs>
            <LinearRing>
              <coordinates>9.44843129818242,40.442302662355 9.44841711760237,40.4423139694265 9.44845802522447,40.4423464861299 9.4484930384764,40.442320593978 9.44850508888152,40.4423116735032 9.44845056490267,40.4422635611453 9.44841577108653,40.4422887587492 9.44843129818242,40.442302662355</coordinates>
            </LinearRing>
          </outerBoundaryIs>
        </Polygon>
      </Placemark>
      <Placemark xmlns="http://www.opengis.net/kml/2.2">
        <styleUrl>#Parti singole_style_map</styleUrl>
        <name>F01414</name>
        <Polygon>
          <outerBoundaryIs>
            <LinearRing>
              <coordinates>9.44790641850569,40.4421653459744 9.44786456404603,40.4422655968238 9.44796251152348,40.4422900911836 9.4480464218782,40.4420897958229 9.44812627423988,40.4421096574754 9.44815506931748,40.4420387089984 9.44817289034347,40.4420429372096 9.44818121087322,40.4420245538589 9.44819375002714,40.4419915597549 9.44819783365241,40.4419814809995 9.44800019838802,40.4419330939179 9.44799433528647,40.4419468822128 9.44792806194004,40.4419298687613 9.44783525795806,40.4421475135636 9.44790641850569,40.4421653459744</coordinates>
            </LinearRing>
          </outerBoundaryIs>
        </Polygon>
      </Placemark>
      <Placemark xmlns="http://www.opengis.net/kml/2.2">
        <styleUrl>#Parti singole_style_map</styleUrl>
        <name>F01415</name>
        <Polygon>
          <outerBoundaryIs>
            <LinearRing>
              <coordinates>9.44818121087322,40.4420245538589 9.44832614048162,40.4420588477605 9.44834026206651,40.4420262258826 9.44819375002714,40.4419915597549 9.44818121087322,40.4420245538589</coordinates>
            </LinearRing>
          </outerBoundaryIs>
        </Polygon>
      </Placemark>
      <Placemark xmlns="http://www.opengis.net/kml/2.2">
        <styleUrl>#Parti singole_style_map</styleUrl>
        <name>F01416</name>
        <Polygon>
          <outerBoundaryIs>
            <LinearRing>
              <coordinates>9.44832185750152,40.4420690894529 9.44842309913274,40.4420942643435 9.44844883013034,40.4420324897158 9.44834805351193,40.4420080788014 9.44834026206651,40.4420262258826 9.44832614048162,40.4420588477605 9.44832185750152,40.4420690894529</coordinates>
            </LinearRing>
          </outerBoundaryIs>
        </Polygon>
      </Placemark>
      <Placemark xmlns="http://www.opengis.net/kml/2.2">
        <styleUrl>#Parti singole_style_map</styleUrl>
        <name>F01417</name>
        <Polygon>
          <outerBoundaryIs>
            <LinearRing>
              <coordinates>9.44841720055184,40.4421080257701 9.44851815672118,40.4421328143011 9.44855597365287,40.4420444075471 9.44845372999901,40.4420192636832 9.44844883013034,40.4420324897158 9.44842309913274,40.4420942643435 9.44841720055184,40.4421080257701</coordinates>
            </LinearRing>
          </outerBoundaryIs>
        </Polygon>
      </Placemark>
      <Placemark xmlns="http://www.opengis.net/kml/2.2">
        <styleUrl>#Parti singole_style_map</styleUrl>
        <name>F01418</name>
        <Polygon>
          <outerBoundaryIs>
            <LinearRing>
              <coordinates>9.44854183804892,40.4421228397361 9.44861384979817,40.4421392089704 9.44866174468033,40.4421337079998 9.44869661989675,40.4421420861569 9.44871024191005,40.442112385054 9.4486753666475,40.4421039978922 9.44864022470868,40.4420785398981 9.44856822498848,40.44206219766 9.44854183804892,40.4421228397361</coordinates>
            </LinearRing>
          </outerBoundaryIs>
        </Polygon>
      </Placemark>
      <Placemark xmlns="http://www.opengis.net/kml/2.2">
        <styleUrl>#Parti singole_style_map</styleUrl>
        <name>F01419</name>
        <Polygon>
          <outerBoundaryIs>
            <LinearRing>
              <coordinates>9.44800860811122,40.4419281515056 9.44804288521195,40.4419370456836 9.44805945146033,40.4418978829229 9.44802513900469,40.4418889888866 9.44800860811122,40.4419281515056</coordinates>
            </LinearRing>
          </outerBoundaryIs>
        </Polygon>
      </Placemark>
      <Placemark xmlns="http://www.opengis.net/kml/2.2">
        <styleUrl>#Parti singole_style_map</styleUrl>
        <name>F01420</name>
        <Polygon>
          <outerBoundaryIs>
            <LinearRing>
              <coordinates>9.44804466226018,40.441867210854 9.44807416389317,40.4418832135168 9.44811599950469,40.4418832767094 9.44814698100035,40.4418575264006 9.44814233331107,40.4418199142469 9.44810396186662,40.4417999279879 9.44807649912497,40.4418033225971 9.44804551279657,40.4418212351669 9.44803863049314,40.4418466849219 9.44804466226018,40.441867210854</coordinates>
            </LinearRing>
          </outerBoundaryIs>
        </Polygon>
      </Placemark>
      <Placemark xmlns="http://www.opengis.net/kml/2.2">
        <styleUrl>#Parti singole_style_map</styleUrl>
        <name>F01421</name>
        <Polygon>
          <outerBoundaryIs>
            <LinearRing>
              <coordinates>9.44805348461245,40.4417929433899 9.44811999508666,40.4417852894958 9.44807199900116,40.4415533431701 9.44800492255003,40.4415609631926 9.44805348461245,40.4417929433899</coordinates>
            </LinearRing>
          </outerBoundaryIs>
        </Polygon>
      </Placemark>
      <Placemark xmlns="http://www.opengis.net/kml/2.2">
        <styleUrl>#Parti singole_style_map</styleUrl>
        <name>F01422</name>
        <Polygon>
          <outerBoundaryIs>
            <LinearRing>
              <coordinates>9.44800116850959,40.4415442932538 9.44804523482369,40.4415393839329 9.44803572804593,40.4414927006139 9.44799145108019,40.4414978449781 9.44800116850959,40.4415442932538</coordinates>
            </LinearRing>
          </outerBoundaryIs>
        </Polygon>
      </Placemark>
      <Placemark xmlns="http://www.opengis.net/kml/2.2">
        <styleUrl>#Parti singole_style_map</styleUrl>
        <name>F01423</name>
        <Polygon>
          <outerBoundaryIs>
            <LinearRing>
              <coordinates>9.4478783612326,40.441310987868 9.44790339416158,40.4413323861862 9.44795670586842,40.4413401166236 9.44799966460396,40.4413193469421 9.44800844453107,40.4412653496556 9.44799275075759,40.4412475998366 9.44795469570446,40.4412325942201 9.4479011424962,40.441241774415 9.44787225380316,40.4412754804233 9.4478783612326,40.441310987868</coordinates>
            </LinearRing>
          </outerBoundaryIs>
        </Polygon>
      </Placemark>
      <Placemark xmlns="http://www.opengis.net/kml/2.2">
        <styleUrl>#Parti singole_style_map</styleUrl>
        <name>F01424</name>
        <Polygon>
          <outerBoundaryIs>
            <LinearRing>
              <coordinates>9.4486429901112,40.4418629282967 9.44862641773316,40.4418656141476 9.44864733929916,40.4419638380845 9.44874025894062,40.4419521445341 9.4486768991668,40.4416548985208 9.44860080375119,40.4416644907771 9.4486429901112,40.4418629282967</coordinates>
            </LinearRing>
          </outerBoundaryIs>
        </Polygon>
      </Placemark>
      <Placemark xmlns="http://www.opengis.net/kml/2.2">
        <styleUrl>#Parti singole_style_map</styleUrl>
        <name>F01425</name>
        <Polygon>
          <outerBoundaryIs>
            <LinearRing>
              <coordinates>9.44862055553409,40.441625675939 9.44871749862823,40.4416144532861 9.44868484001821,40.4414427262482 9.44858756827823,40.4414541393347 9.44862055553409,40.441625675939</coordinates>
            </LinearRing>
          </outerBoundaryIs>
        </Polygon>
      </Placemark>
      <Placemark xmlns="http://www.opengis.net/kml/2.2">
        <styleUrl>#Parti singole_style_map</styleUrl>
        <name>F01426</name>
        <Polygon>
          <outerBoundaryIs>
            <LinearRing>
              <coordinates>9.44857331363153,40.4413779252894 9.4488637765015,40.4413460694155 9.44881180524107,40.4410716348315 9.44861448411327,40.4410932827322 9.44852134352539,40.4411034905701 9.44857331363153,40.4413779252894</coordinates>
            </LinearRing>
          </outerBoundaryIs>
        </Polygon>
      </Placemark>
      <Placemark xmlns="http://www.opengis.net/kml/2.2">
        <styleUrl>#Parti singole_style_map</styleUrl>
        <name>F01427</name>
        <Polygon>
          <outerBoundaryIs>
            <LinearRing>
              <coordinates>9.44861448411327,40.4410932827322 9.44881180524107,40.4410716348315 9.44880151627254,40.4410173240712 9.44860423174923,40.4410391339726 9.44861448411327,40.4410932827322</coordinates>
            </LinearRing>
          </outerBoundaryIs>
        </Polygon>
      </Placemark>
      <Placemark xmlns="http://www.opengis.net/kml/2.2">
        <styleUrl>#Parti singole_style_map</styleUrl>
        <name>F01428</name>
        <Polygon>
          <outerBoundaryIs>
            <LinearRing>
              <coordinates>9.44853341647242,40.4410447327878 9.44857755381899,40.4410416968393 9.44856432841357,40.4409429025016 9.44852283039096,40.4409491984427 9.44853341647242,40.4410447327878</coordinates>
            </LinearRing>
          </outerBoundaryIs>
        </Polygon>
      </Placemark>
      <Placemark xmlns="http://www.opengis.net/kml/2.2">
        <styleUrl>#Parti singole_style_map</styleUrl>
        <name>F01431</name>
        <Polygon>
          <outerBoundaryIs>
            <LinearRing>
              <coordinates>9.44890581745458,40.4420086186758 9.44893026572406,40.4420093796583 9.44893095996072,40.4420854390644 9.44899094140559,40.4420853504484 9.44954998218069,40.4420845309244 9.44954978927891,40.4420077218367 9.44931323598978,40.4420080641765 9.44931323273758,40.4420058029566 9.44910063896043,40.4420061058642 9.44896269481802,40.4420063169213 9.44896343798568,40.4419850800719 9.44890667728163,40.4419836426826 9.44890581745458,40.4420086186758</coordinates>
            </LinearRing>
          </outerBoundaryIs>
        </Polygon>
      </Placemark>
      <Placemark xmlns="http://www.opengis.net/kml/2.2">
        <styleUrl>#Parti singole_style_map</styleUrl>
        <name>F01516</name>
        <Polygon>
          <outerBoundaryIs>
            <LinearRing>
              <coordinates>9.44791909547873,40.4427629199302 9.44792760900626,40.442807390906 9.44798253231186,40.4428019260677 9.44798509607664,40.4428115736749 9.44801539466393,40.4428072311811 9.44803922214806,40.4428050218204 9.44807924960968,40.4428008308207 9.44808391240394,40.4428140558362 9.44819527760642,40.4427920932159 9.44815810936702,40.4426230051208 9.4481410999276,40.4425456395607 9.44809185537648,40.4425521455302 9.4480662928921,40.4425434248233 9.44806070182248,40.4425093568198 9.44803215213366,40.4425035845734 9.44795067458361,40.4425143143469 9.44790723373498,40.4425354011848 9.44788590875684,40.442589573142 9.44791909547873,40.4427629199302</coordinates>
            </LinearRing>
          </outerBoundaryIs>
        </Polygon>
      </Placemark>
      <Placemark xmlns="http://www.opengis.net/kml/2.2">
        <styleUrl>#Parti singole_style_map</styleUrl>
        <name>F01517</name>
        <Polygon>
          <outerBoundaryIs>
            <LinearRing>
              <coordinates>9.44791909547873,40.4427629199302 9.44792760900626,40.442807390906 9.44798253231186,40.4428019260677 9.44798509607664,40.4428115736749 9.44801539466393,40.4428072311811 9.44803922214806,40.4428050218204 9.44807924960968,40.4428008308207 9.44808391240394,40.4428140558362 9.44819527760642,40.4427920932159 9.44815810936702,40.4426230051208 9.4481410999276,40.4425456395607 9.44809185537648,40.4425521455302 9.4480662928921,40.4425434248233 9.44806070182248,40.4425093568198 9.44803215213366,40.4425035845734 9.44795067458361,40.4425143143469 9.44790723373498,40.4425354011848 9.44788590875684,40.442589573142 9.44791909547873,40.4427629199302</coordinates>
            </LinearRing>
          </outerBoundaryIs>
        </Polygon>
      </Placemark>
      <Placemark xmlns="http://www.opengis.net/kml/2.2">
        <styleUrl>#Parti singole_style_map</styleUrl>
        <name>F01518</name>
        <Polygon>
          <outerBoundaryIs>
            <LinearRing>
              <coordinates>9.44791909547873,40.4427629199302 9.44792760900626,40.442807390906 9.44798253231186,40.4428019260677 9.44798509607664,40.4428115736749 9.44801539466393,40.4428072311811 9.44803922214806,40.4428050218204 9.44807924960968,40.4428008308207 9.44808391240394,40.4428140558362 9.44819527760642,40.4427920932159 9.44815810936702,40.4426230051208 9.4481410999276,40.4425456395607 9.44809185537648,40.4425521455302 9.4480662928921,40.4425434248233 9.44806070182248,40.4425093568198 9.44803215213366,40.4425035845734 9.44795067458361,40.4425143143469 9.44790723373498,40.4425354011848 9.44788590875684,40.442589573142 9.44791909547873,40.4427629199302</coordinates>
            </LinearRing>
          </outerBoundaryIs>
        </Polygon>
      </Placemark>
      <Placemark xmlns="http://www.opengis.net/kml/2.2">
        <styleUrl>#Parti singole_style_map</styleUrl>
        <name>F02204</name>
        <Polygon>
          <outerBoundaryIs>
            <LinearRing>
              <coordinates>9.45621518674976,40.4442752331188 9.45626018692288,40.4442525535045 9.45627755722066,40.4442254836975 9.45633374744439,40.4441965641805 9.45639602769206,40.4441645347159 9.45673917905706,40.4439880276659 9.4566461106829,40.4438776072463 9.45662403106791,40.4438514671465 9.4566018810115,40.4438603469622 9.45656746160046,40.4438204868046 9.45654815152685,40.4438301666392 9.45647512277443,40.4437457563045 9.45645205268188,40.4437576861061 9.45644240284693,40.4437465160619 9.45602674124661,40.4439561124986 9.4561737087273,40.4441266631705 9.45620817813655,40.4441666533281 9.45616246796105,40.4441896629364 9.45614770790439,40.4441970928099 9.45621518674976,40.4442752331188</coordinates>
            </LinearRing>
          </outerBoundaryIs>
        </Polygon>
      </Placemark>
      <Placemark xmlns="http://www.opengis.net/kml/2.2">
        <styleUrl>#Parti singole_style_map</styleUrl>
        <name>F02205</name>
        <Polygon>
          <outerBoundaryIs>
            <LinearRing>
              <coordinates>9.45621518674976,40.4442752331188 9.45626018692288,40.4442525535045 9.45627755722066,40.4442254836975 9.45633374744439,40.4441965641805 9.45639602769206,40.4441645347159 9.45673917905706,40.4439880276659 9.4566461106829,40.4438776072463 9.45662403106791,40.4438514671465 9.4566018810115,40.4438603469622 9.45656746160046,40.4438204868046 9.45654815152685,40.4438301666392 9.45647512277443,40.4437457563045 9.45645205268188,40.4437576861061 9.45644240284693,40.4437465160619 9.45602674124661,40.4439561124986 9.4561737087273,40.4441266631705 9.45620817813655,40.4441666533281 9.45616246796105,40.4441896629364 9.45614770790439,40.4441970928099 9.45621518674976,40.4442752331188</coordinates>
            </LinearRing>
          </outerBoundaryIs>
        </Polygon>
      </Placemark>
      <Placemark xmlns="http://www.opengis.net/kml/2.2">
        <styleUrl>#Parti singole_style_map</styleUrl>
        <name>F02206</name>
        <Polygon>
          <outerBoundaryIs>
            <LinearRing>
              <coordinates>9.45669349483584,40.4443318665034 9.45689299557485,40.444233578208 9.45690391567179,40.444223718312 9.45694777584638,40.4442011486891 9.45691421642235,40.4441621485358 9.4568694962595,40.4441839581542 9.45683897679001,40.4441479580161 9.45662661600118,40.4442527562012 9.45663265589435,40.4442600262282 9.45664161573771,40.4442706662685 9.45669349483584,40.4443318665034</coordinates>
            </LinearRing>
          </outerBoundaryIs>
        </Polygon>
      </Placemark>
      <Placemark xmlns="http://www.opengis.net/kml/2.2">
        <styleUrl>#Parti singole_style_map</styleUrl>
        <name>F02045</name>
        <Polygon>
          <outerBoundaryIs>
            <LinearRing>
              <coordinates>9.45655465458248,40.4443795753667 9.45666284495043,40.4443288762849 9.45663968537749,40.4442996161848 9.45653150500927,40.4443503352666 9.45655465458248,40.4443795753667</coordinates>
            </LinearRing>
          </outerBoundaryIs>
        </Polygon>
      </Placemark>
      <Placemark xmlns="http://www.opengis.net/kml/2.2">
        <styleUrl>#Parti singole_style_map</styleUrl>
        <name>T03588</name>
        <Polygon>
          <outerBoundaryIs>
            <LinearRing>
              <coordinates>9.48255981383331,40.4711894944204 9.4826584517069,40.4711956773512 9.48286707385382,40.4711979147006 9.48286732683493,40.4711887606603 9.48288084572617,40.4711904519406 9.48288989388455,40.4711674326099 9.48286887405491,40.4711659528205 9.48285108806079,40.4711647027668 9.48279342396175,40.4711477005371 9.4826987131063,40.4711396995652 9.48256077826822,40.4711346715882 9.48256034388504,40.4711596999659 9.48255981383331,40.4711894944204</coordinates>
            </LinearRing>
          </outerBoundaryIs>
        </Polygon>
      </Placemark>
      <Placemark xmlns="http://www.opengis.net/kml/2.2">
        <styleUrl>#Parti singole_style_map</styleUrl>
        <name>T03589</name>
        <Polygon>
          <outerBoundaryIs>
            <LinearRing>
              <coordinates>9.48256077826822,40.4711346715882 9.4826987131063,40.4711396995652 9.48279342396175,40.4711477005371 9.48285108806079,40.4711647027668 9.48286887405491,40.4711659528205 9.48287140256232,40.4711286186294 9.48256121961039,40.4711106161364 9.48256077826822,40.4711346715882</coordinates>
            </LinearRing>
          </outerBoundaryIs>
        </Polygon>
      </Placemark>
      <Placemark xmlns="http://www.opengis.net/kml/2.2">
        <styleUrl>#Parti singole_style_map</styleUrl>
        <name>T02117</name>
        <Polygon>
          <outerBoundaryIs>
            <LinearRing>
              <coordinates>9.44148696421944,40.4470587406809 9.441708922178,40.4471210818301 9.44170585100317,40.4471022559696 9.44171546164694,40.4470806339803 9.44173061649499,40.4470611079109 9.44174828959095,40.4470425812199 9.44175214551526,40.4470209361555 9.44173870575239,40.4469781682233 9.44172512665458,40.4469086894659 9.44178917047665,40.4468998324303 9.44179620161124,40.4468516350526 9.44183436354386,40.4467655535286 9.44184730562153,40.4467466755246 9.4418672650237,40.4467297616829 9.44194067390676,40.4466924367417 9.4420232842982,40.4466719052038 9.44185552019449,40.4466865188266 9.44169357637231,40.4467472535158 9.44155818248682,40.4468504266249 9.44152290336904,40.4469644696553 9.44148696421944,40.4470587406809</coordinates>
            </LinearRing>
          </outerBoundaryIs>
        </Polygon>
      </Placemark>
      <Placemark xmlns="http://www.opengis.net/kml/2.2">
        <styleUrl>#Parti singole_style_map</styleUrl>
        <name>T02121</name>
        <Polygon>
          <outerBoundaryIs>
            <LinearRing>
              <coordinates>9.44216635912055,40.4466379895601 9.44221653753108,40.4466258880247 9.44228042540785,40.4465896713166 9.44230832389787,40.446625456077 9.44240074709371,40.4465404371608 9.44246085601056,40.4464494157113 9.44251593235665,40.4463642152031 9.44254516932935,40.4463109419154 9.44259422471889,40.446210305144 9.44265575973717,40.4460724859591 9.44281843857603,40.4459156222483 9.44293786988514,40.4457057173792 9.44307082210199,40.445495265112 9.44294765955046,40.4454256385334 9.4429596600373,40.4455095824772 9.44287954352595,40.4456565989726 9.44274537279201,40.4458917670642 9.4425941262471,40.4460117676056 9.4424767935352,40.4462578527947 9.44238119304725,40.4464571977226 9.44220012897284,40.4466105905852 9.44216635912055,40.4466379895601</coordinates>
            </LinearRing>
          </outerBoundaryIs>
        </Polygon>
      </Placemark>
      <Placemark xmlns="http://www.opengis.net/kml/2.2">
        <styleUrl>#Parti singole_style_map</styleUrl>
        <name>T02119</name>
        <Polygon>
          <outerBoundaryIs>
            <LinearRing>
              <coordinates>9.44205653593133,40.4467922990755 9.44222780800029,40.4466920963159 9.44230832389787,40.446625456077 9.44228042540785,40.4465896713166 9.44221653753108,40.4466258880247 9.44216635912055,40.4466379895601 9.44213302335306,40.4466650535372 9.44202669081593,40.4466716939933 9.4420232842982,40.4466719052038 9.44194067390676,40.4466924367417 9.4418672650237,40.4467297616829 9.44184730562153,40.4467466755246 9.44183436354386,40.4467655535286 9.44179620161124,40.4468516350526 9.44178917047665,40.4468998324303 9.44172512665458,40.4469086894659 9.44173870575239,40.4469781682233 9.44175214551526,40.4470209361555 9.44174828959095,40.4470425812199 9.44173061649499,40.4470611079109 9.44171546164694,40.4470806339803 9.44170585100317,40.4471022559696 9.441708922178,40.4471210818301 9.44179461963765,40.447145141677 9.44182117257328,40.4469933035688 9.44193517143892,40.4469021216325 9.44193602333709,40.4468971544807 9.44187928509551,40.4468907496644 9.44189846049085,40.4467918669321 9.44190191690496,40.4467740521657 9.44202096086663,40.4467871377713 9.44201573584539,40.4468139862049 9.44205653593133,40.4467922990755</coordinates>
            </LinearRing>
          </outerBoundaryIs>
        </Polygon>
      </Placemark>
      <Placemark xmlns="http://www.opengis.net/kml/2.2">
        <styleUrl>#Parti singole_style_map</styleUrl>
        <name>T02123</name>
        <Polygon>
          <outerBoundaryIs>
            <LinearRing>
              <coordinates>9.44510624657737,40.4408096561501 9.4452334425302,40.4410091462455 9.44542094923508,40.4410957837988 9.44550404330429,40.4408083503108 9.44542506550851,40.4406489897002 9.44563043279778,40.4405047862313 9.44569154354789,40.440386579317 9.44567597584277,40.4400197068519 9.44552924356978,40.4398185086781 9.4452558280028,40.4397884534871 9.44549952108394,40.4400065487605 9.44555563687192,40.4401106737367 9.44555938782163,40.4401734513147 9.44548252756498,40.44027426857 9.44513341627518,40.440593662395 9.44508037373901,40.4407053695857 9.44510624657737,40.4408096561501</coordinates>
            </LinearRing>
          </outerBoundaryIs>
        </Polygon>
      </Placemark>
      <Placemark xmlns="http://www.opengis.net/kml/2.2">
        <styleUrl>#Parti singole_style_map</styleUrl>
        <name>T02122</name>
        <Polygon>
          <outerBoundaryIs>
            <LinearRing>
              <coordinates>9.44671485652528,40.4413885662529 9.44681236050848,40.4413997481569 9.44700453165642,40.441454897043 9.44717410927127,40.4415453577193 9.44726185713582,40.441578910004 9.44730771353698,40.4416163899085 9.44734232445814,40.4416294361055 9.44755874877683,40.441565014312 9.44756673847987,40.4414842366696 9.44750778688896,40.4413175749023 9.44732491878329,40.4412161211908 9.44727484758938,40.441215179651 9.44708706354052,40.4411458342552 9.44679704215628,40.4410964867743 9.44674755778919,40.4412448561942 9.44664754519643,40.4413695831237 9.44671485652528,40.4413885662529</coordinates>
            </LinearRing>
          </outerBoundaryIs>
        </Polygon>
      </Placemark>
      <Placemark xmlns="http://www.opengis.net/kml/2.2">
        <styleUrl>#Parti singole_style_map</styleUrl>
        <name>T02133</name>
        <Polygon>
          <outerBoundaryIs>
            <LinearRing>
              <coordinates>9.44701046732266,40.4428487483864 9.44729101620394,40.443077922421 9.44733817104067,40.4431029920358 9.44743549054008,40.4429079605428 9.4473932267332,40.4427490179056 9.44752454601744,40.4424516939823 9.4475530341722,40.4422791535391 9.44750858578355,40.4423510452832 9.44740881004865,40.442429682427 9.4473859201671,40.4424523742585 9.44705407620398,40.4427265003639 9.44701046732266,40.4428487483864</coordinates>
            </LinearRing>
          </outerBoundaryIs>
        </Polygon>
      </Placemark>
      <Placemark xmlns="http://www.opengis.net/kml/2.2">
        <styleUrl>#Parti singole_style_map</styleUrl>
        <name>T02136</name>
        <Polygon>
          <outerBoundaryIs>
            <LinearRing>
              <coordinates>9.44905452779445,40.4413683289213 9.4491256431421,40.4413989443835 9.44917072604315,40.441341256575 9.44910115681855,40.4413090856084 9.44905452779445,40.4413683289213</coordinates>
            </LinearRing>
          </outerBoundaryIs>
        </Polygon>
      </Placemark>
      <Placemark xmlns="http://www.opengis.net/kml/2.2">
        <styleUrl>#Parti singole_style_map</styleUrl>
        <name>T02128</name>
        <Polygon>
          <outerBoundaryIs>
            <LinearRing>
              <coordinates>9.44494504971135,40.4390660452301 9.44500130921658,40.4391779175961 9.44518532901561,40.4393481445428 9.44522853763682,40.4396604879961 9.44554986736266,40.4397186557007 9.44573015623462,40.4398501668711 9.44583150834552,40.4400070537225 9.4458158741037,40.4402857952327 9.44580950905946,40.4404718895411 9.44578068561237,40.4405066578308 9.44576627374304,40.4405168753952 9.44559497703161,40.4407084788361 9.44603580017566,40.4409198947046 9.44640148100706,40.4410955452245 9.44670656843804,40.4410446565964 9.44707806604453,40.4409711324605 9.44754200477103,40.4411449852399 9.44772747117211,40.4413359950017 9.44781015241061,40.4415870412287 9.44773306137292,40.4419462539882 9.4477162198603,40.4420328586096 9.4475530341722,40.4422791535391 9.4479268322142,40.4423062561476 9.44808606269988,40.4422850902778 9.44841711760237,40.4423139694265 9.44843129818242,40.442302662355 9.44841577108653,40.4422887587492 9.44845056490267,40.4422635611453 9.44850508888152,40.4423116735032 9.4484930384764,40.442320593978 9.44849656613217,40.4423209046233 9.44851546670419,40.4423225520526 9.44868999064963,40.442290785656 9.44870896322035,40.4422890724569 9.448823637036,40.4422062323065 9.44873696769168,40.4421861723546 9.44876711057053,40.4421105338741 9.44887599421567,40.442135867912 9.44885742178358,40.4421818132595 9.44899094140559,40.4420853504484 9.44893095996072,40.4420854390644 9.44893026572406,40.4420093796583 9.44890581745458,40.4420086186758 9.44890667728163,40.4419836426826 9.44896343798568,40.4419850800719 9.44896269481802,40.4420063169213 9.44910063896043,40.4420061058642 9.44920153507959,40.4419332105834 9.4503447205961,40.4411132902068 9.45074689620994,40.4408208808495 9.45090064563018,40.4407140938869 9.45086563961968,40.4405129535371 9.45086982213064,40.4405053967913 9.45086266331341,40.4404892447099 9.45056669000544,40.4401627621398 9.45032739365487,40.4398391392438 9.44950722245359,40.4398356080314 9.44905302556229,40.4393636028032 9.44898891817965,40.4392304207958 9.44879901962792,40.4388458199126 9.4486219504948,40.4384024939736 9.44782336805476,40.4381189154752 9.44729170077971,40.4384025993726 9.4467410105453,40.4387023000252 9.44605298250286,40.4390759861762 9.44599652084033,40.4391337436833 9.44586598836941,40.4391109227438 9.4458012253011,40.4390828483191 9.44570438021568,40.4390762845801 9.44502678934175,40.4390312267664 9.44492611854985,40.4390005332371 9.44494504971135,40.4390660452301</coordinates>
            </LinearRing>
          </outerBoundaryIs>
          <innerBoundaryIs>
            <LinearRing>
              <coordinates>9.44802513900469,40.4418889888866 9.44805945146033,40.4418978829229 9.44804288521195,40.4419370456836 9.44800860811122,40.4419281515056 9.44802513900469,40.4418889888866</coordinates>
            </LinearRing>
          </innerBoundaryIs>
          <innerBoundaryIs>
            <LinearRing>
              <coordinates>9.44799145108019,40.4414978449781 9.44803572804593,40.4414927006139 9.44804523482369,40.4415393839329 9.44800116850959,40.4415442932538 9.44799145108019,40.4414978449781</coordinates>
            </LinearRing>
          </innerBoundaryIs>
          <innerBoundaryIs>
            <LinearRing>
              <coordinates>9.44852015431145,40.4421708331023 9.44856086474663,40.4421736662262 9.4485541359916,40.4422310879823 9.44851302193716,40.4422278510205 9.44852015431145,40.4421708331023</coordinates>
            </LinearRing>
          </innerBoundaryIs>
          <innerBoundaryIs>
            <LinearRing>
              <coordinates>9.44852283039096,40.4409491984427 9.44856432841357,40.4409429025016 9.44857755381899,40.4410416968393 9.44853341647242,40.4410447327878 9.44852283039096,40.4409491984427</coordinates>
            </LinearRing>
          </innerBoundaryIs>
          <innerBoundaryIs>
            <LinearRing>
              <coordinates>9.44910115681855,40.4413090856084 9.44917072604315,40.441341256575 9.4491256431421,40.4413989443835 9.44905452779445,40.4413683289213 9.44910115681855,40.4413090856084</coordinates>
            </LinearRing>
          </innerBoundaryIs>
          <innerBoundaryIs>
            <LinearRing>
              <coordinates>9.44803863049314,40.4418466849219 9.44804551279657,40.4418212351669 9.44807649912497,40.4418033225971 9.44810396186662,40.4417999279879 9.44814233331107,40.4418199142469 9.44814698100035,40.4418575264006 9.44811599950469,40.4418832767094 9.44807416389317,40.4418832135168 9.44804466226018,40.441867210854 9.44803863049314,40.4418466849219</coordinates>
            </LinearRing>
          </innerBoundaryIs>
          <innerBoundaryIs>
            <LinearRing>
              <coordinates>9.44856822498848,40.44206219766 9.44864022470868,40.4420785398981 9.4486753666475,40.4421039978922 9.44871024191005,40.442112385054 9.44869661989675,40.4421420861569 9.44866174468033,40.4421337079998 9.44861384979817,40.4421392089704 9.44854183804892,40.4421228397361 9.44856822498848,40.44206219766</coordinates>
            </LinearRing>
          </innerBoundaryIs>
          <innerBoundaryIs>
            <LinearRing>
              <coordinates>9.44787225380316,40.4412754804233 9.4479011424962,40.441241774415 9.44795469570446,40.4412325942201 9.44799275075759,40.4412475998366 9.44800844453107,40.4412653496556 9.44799966460396,40.4413193469421 9.44795670586842,40.4413401166236 9.44790339416158,40.4413323861862 9.4478783612326,40.441310987868 9.44787225380316,40.4412754804233</coordinates>
            </LinearRing>
          </innerBoundaryIs>
          <innerBoundaryIs>
            <LinearRing>
              <coordinates>9.44800492255003,40.4415609631926 9.44807199900116,40.4415533431701 9.44811999508666,40.4417852894958 9.44805348461245,40.4417929433899 9.44800492255003,40.4415609631926</coordinates>
            </LinearRing>
          </innerBoundaryIs>
          <innerBoundaryIs>
            <LinearRing>
              <coordinates>9.44858756827823,40.4414541393347 9.44868484001821,40.4414427262482 9.44871749862823,40.4416144532861 9.44862055553409,40.441625675939 9.44858756827823,40.4414541393347</coordinates>
            </LinearRing>
          </innerBoundaryIs>
          <innerBoundaryIs>
            <LinearRing>
              <coordinates>9.44860080375119,40.4416644907771 9.4486768991668,40.4416548985208 9.44874025894062,40.4419521445341 9.44864733929916,40.4419638380845 9.44862641773316,40.4418656141476 9.4486429901112,40.4418629282967 9.44860080375119,40.4416644907771</coordinates>
            </LinearRing>
          </innerBoundaryIs>
          <innerBoundaryIs>
            <LinearRing>
              <coordinates>9.44783525795806,40.4421475135636 9.44792806194004,40.4419298687613 9.44799433528647,40.4419468822128 9.44800019838802,40.4419330939179 9.44819783365241,40.4419814809995 9.44819375002714,40.4419915597549 9.44834026206651,40.4420262258826 9.44834805351193,40.4420080788014 9.44844883013034,40.4420324897158 9.44845372999901,40.4420192636832 9.44855597365287,40.4420444075471 9.44851815672118,40.4421328143011 9.44841720055184,40.4421080257701 9.44842309913274,40.4420942643435 9.44832185750152,40.4420690894529 9.44832614048162,40.4420588477605 9.44818121087322,40.4420245538589 9.44817289034347,40.4420429372096 9.44815506931748,40.4420387089984 9.44812627423988,40.4421096574754 9.4480464218782,40.4420897958229 9.44796251152348,40.4422900911836 9.44786456404603,40.4422655968238 9.44790641850569,40.4421653459744 9.44783525795806,40.4421475135636</coordinates>
            </LinearRing>
          </innerBoundaryIs>
          <innerBoundaryIs>
            <LinearRing>
              <coordinates>9.44852134352539,40.4411034905701 9.44861448411327,40.4410932827322 9.44860423174923,40.4410391339726 9.44880151627254,40.4410173240712 9.44881180524107,40.4410716348315 9.4488637765015,40.4413460694155 9.44857331363153,40.4413779252894 9.44852134352539,40.4411034905701</coordinates>
            </LinearRing>
          </innerBoundaryIs>
        </Polygon>
      </Placemark>
      <Placemark xmlns="http://www.opengis.net/kml/2.2">
        <styleUrl>#Parti singole_style_map</styleUrl>
        <name>T02137</name>
        <Polygon>
          <outerBoundaryIs>
            <LinearRing>
              <coordinates>9.44873696769168,40.4421861723546 9.448823637036,40.4422062323065 9.44884550813328,40.4422113005472 9.44885742178358,40.4421818132595 9.44887599421567,40.442135867912 9.44876711057053,40.4421105338741 9.44873696769168,40.4421861723546</coordinates>
            </LinearRing>
          </outerBoundaryIs>
        </Polygon>
      </Placemark>
      <Placemark xmlns="http://www.opengis.net/kml/2.2">
        <styleUrl>#Parti singole_style_map</styleUrl>
        <name>T02138</name>
        <Polygon>
          <outerBoundaryIs>
            <LinearRing>
              <coordinates>9.44843129818242,40.442302662355 9.44841711760237,40.4423139694265 9.44845802522447,40.4423464861299 9.4484930384764,40.442320593978 9.44850508888152,40.4423116735032 9.44845056490267,40.4422635611453 9.44841577108653,40.4422887587492 9.44843129818242,40.442302662355</coordinates>
            </LinearRing>
          </outerBoundaryIs>
        </Polygon>
      </Placemark>
      <Placemark xmlns="http://www.opengis.net/kml/2.2">
        <styleUrl>#Parti singole_style_map</styleUrl>
        <name>T02124</name>
        <Polygon>
          <outerBoundaryIs>
            <LinearRing>
              <coordinates>9.45465913683348,40.4412997467818 9.45467826709825,40.4413197704471 9.45508281882711,40.4416940940147 9.45523983035335,40.4418375825804 9.45561677229331,40.442157590148 9.45600822802705,40.442489097668 9.45600848990375,40.4424859705501 9.45615163304573,40.4421956802652 9.45633131735497,40.4419754069319 9.45603076536686,40.4417073972404 9.4557543247909,40.4414615347334 9.45541216892901,40.4409525461869 9.45535721831033,40.4409798792503 9.45509817182851,40.4409995379235 9.45497476776115,40.4410101943195 9.45466967250667,40.4410869873469 9.45456505362777,40.441213604051 9.45465913683348,40.4412997467818</coordinates>
            </LinearRing>
          </outerBoundaryIs>
        </Polygon>
      </Placemark>
      <Placemark xmlns="http://www.opengis.net/kml/2.2">
        <styleUrl>#Parti singole_style_map</styleUrl>
        <name>T02134</name>
        <Polygon>
          <outerBoundaryIs>
            <LinearRing>
              <coordinates>9.44880594735597,40.4422803360254 9.44896170879394,40.442290785609 9.44901158782689,40.4423159070354 9.44916135087371,40.4422984790829 9.44929257507167,40.4423001136808 9.44937058438598,40.4423246572456 9.4495403684272,40.4423071510378 9.44980501613275,40.4423272663149 9.44989062155106,40.442364545599 9.45020489477757,40.4423733950468 9.45050160065757,40.4423983929219 9.45067298042594,40.4425246157406 9.4506941507596,40.4423627965998 9.45071334690965,40.4422161381018 9.45075770731413,40.4418771857993 9.45082126583823,40.4413602059423 9.45087852378306,40.4408904301502 9.45090064563018,40.4407140938869 9.45074689620994,40.4408208808495 9.4503447205961,40.4411132902068 9.44920153507959,40.4419332105834 9.44910063896043,40.4420061058642 9.44931323273758,40.4420058029566 9.44931323598978,40.4420080641765 9.44954978927891,40.4420077218367 9.44954998218069,40.4420845309244 9.44899094140559,40.4420853504484 9.44885742178358,40.4421818132595 9.44884550813328,40.4422113005472 9.448823637036,40.4422062323065 9.44870896322035,40.4422890724569 9.44880594735597,40.4422803360254</coordinates>
            </LinearRing>
          </outerBoundaryIs>
        </Polygon>
      </Placemark>
      <Placemark xmlns="http://www.opengis.net/kml/2.2">
        <styleUrl>#Parti singole_style_map</styleUrl>
        <name>T02140</name>
        <Polygon>
          <outerBoundaryIs>
            <LinearRing>
              <coordinates>9.44890581745458,40.4420086186758 9.44893026572406,40.4420093796583 9.44893095996072,40.4420854390644 9.44899094140559,40.4420853504484 9.44954998218069,40.4420845309244 9.44954978927891,40.4420077218367 9.44931323598978,40.4420080641765 9.44931323273758,40.4420058029566 9.44910063896043,40.4420061058642 9.44896269481802,40.4420063169213 9.44896343798568,40.4419850800719 9.44890667728163,40.4419836426826 9.44890581745458,40.4420086186758</coordinates>
            </LinearRing>
          </outerBoundaryIs>
        </Polygon>
      </Placemark>
      <Placemark xmlns="http://www.opengis.net/kml/2.2">
        <styleUrl>#Parti singole_style_map</styleUrl>
        <name>T02126</name>
        <Polygon>
          <outerBoundaryIs>
            <LinearRing>
              <coordinates>9.44937444777757,40.442580990325 9.44972771479104,40.4425648881212 9.45018776178638,40.4425219463067 9.45068826627495,40.442535862358 9.45067298042594,40.4425246157406 9.45050160065757,40.4423983929219 9.45020489477757,40.4423733950468 9.44989062155106,40.442364545599 9.44980501613275,40.4423272663149 9.4495403684272,40.4423071510378 9.44937058438598,40.4423246572456 9.44929257507167,40.4423001136808 9.44916135087371,40.4422984790829 9.44901158782689,40.4423159070354 9.44896170879394,40.442290785609 9.44880594735597,40.4422803360254 9.44870896322035,40.4422890724569 9.44868999064963,40.442290785656 9.44851546670419,40.4423225520526 9.44849656613217,40.4423209046233 9.44828994295358,40.4425458196798 9.44815810936702,40.4426230051208 9.44819527760642,40.4427920932159 9.44808391240394,40.4428140558362 9.44807924960968,40.4428008308207 9.44803922214806,40.4428050218204 9.44801539466393,40.4428072311811 9.44798509607664,40.4428115736749 9.44798253231186,40.4428019260677 9.44792760900626,40.442807390906 9.44791909547873,40.4427629199302 9.44733817104067,40.4431029920358 9.44756633718142,40.4432243152485 9.44779765276574,40.4432674376331 9.44808333860546,40.4432305211914 9.4484239187608,40.4430807801261 9.44856470039084,40.4428310573993 9.44867451177189,40.4427225428895 9.44937444777757,40.442580990325</coordinates>
            </LinearRing>
          </outerBoundaryIs>
        </Polygon>
      </Placemark>
      <Placemark xmlns="http://www.opengis.net/kml/2.2">
        <styleUrl>#Parti singole_style_map</styleUrl>
        <name>T02127</name>
        <Polygon>
          <outerBoundaryIs>
            <LinearRing>
              <coordinates>9.44791909547873,40.4427629199302 9.44792760900626,40.442807390906 9.44798253231186,40.4428019260677 9.44798509607664,40.4428115736749 9.44801539466393,40.4428072311811 9.44803922214806,40.4428050218204 9.44807924960968,40.4428008308207 9.44808391240394,40.4428140558362 9.44819527760642,40.4427920932159 9.44815810936702,40.4426230051208 9.4481410999276,40.4425456395607 9.44809185537648,40.4425521455302 9.4480662928921,40.4425434248233 9.44806070182248,40.4425093568198 9.44803215213366,40.4425035845734 9.44795067458361,40.4425143143469 9.44790723373498,40.4425354011848 9.44788590875684,40.442589573142 9.44791909547873,40.4427629199302</coordinates>
            </LinearRing>
          </outerBoundaryIs>
        </Polygon>
      </Placemark>
      <Placemark xmlns="http://www.opengis.net/kml/2.2">
        <styleUrl>#Parti singole_style_map</styleUrl>
        <name>T02130</name>
        <Polygon>
          <outerBoundaryIs>
            <LinearRing>
              <coordinates>9.44828994295358,40.4425458196798 9.44849656613217,40.4423209046233 9.4484930384764,40.442320593978 9.44845802522447,40.4423464861299 9.44841711760237,40.4423139694265 9.44808606269988,40.4422850902778 9.4479268322142,40.4423062561476 9.4475530341722,40.4422791535391 9.44752454601744,40.4424516939823 9.4473932267332,40.4427490179056 9.44743549054008,40.4429079605428 9.44733817104067,40.4431029920358 9.44791909547873,40.4427629199302 9.44788590875684,40.442589573142 9.44790723373498,40.4425354011848 9.44795067458361,40.4425143143469 9.44803215213366,40.4425035845734 9.44806070182248,40.4425093568198 9.4480662928921,40.4425434248233 9.44809185537648,40.4425521455302 9.4481410999276,40.4425456395607 9.44815810936702,40.4426230051208 9.44828994295358,40.4425458196798</coordinates>
            </LinearRing>
          </outerBoundaryIs>
        </Polygon>
      </Placemark>
      <Placemark xmlns="http://www.opengis.net/kml/2.2">
        <styleUrl>#Parti singole_style_map</styleUrl>
        <name>T02150</name>
        <Polygon>
          <outerBoundaryIs>
            <LinearRing>
              <coordinates>9.45547856779775,40.4444037445981 9.45553914244651,40.4444708566954 9.45561517623173,40.4445112324276 9.45574461451125,40.4445620822916 9.45589972098181,40.4446317765598 9.45603112615184,40.444696185738 9.45608655080689,40.4447316514667 9.45611385145206,40.44475651648 9.45616535980663,40.4448807802128 9.45621034364333,40.4450079615014 9.45626567944335,40.4451715879432 9.4562978400836,40.445222856814 9.45634403675365,40.4453008537372 9.45628440241397,40.4453317912379 9.45610777885336,40.4454845487192 9.45607097665974,40.4455090087916 9.45619306930416,40.4456503903867 9.45643674071495,40.4457853734138 9.45692695467038,40.4460644615853 9.45700095945677,40.4461165289309 9.45713388967755,40.446072932272 9.45718203814699,40.4460471027206 9.45717120363774,40.4459046159307 9.45710994540187,40.4458193636421 9.45705040107833,40.4457468881601 9.45695869236525,40.4456366212844 9.45645125015248,40.4453046919944 9.45671118006079,40.4450750296005 9.45713644372118,40.4446734814975 9.45746530639192,40.4440549428498 9.45731839468169,40.4442197913723 9.45702275720892,40.4443385296934 9.45676847326192,40.4444417667911 9.45613589618183,40.444336042389 9.45548031698025,40.4444031374023 9.45547856779775,40.4444037445981</coordinates>
            </LinearRing>
          </outerBoundaryIs>
        </Polygon>
      </Placemark>
      <Placemark xmlns="http://www.opengis.net/kml/2.2">
        <styleUrl>#Parti singole_style_map</styleUrl>
        <name>T03876</name>
        <Polygon>
          <outerBoundaryIs>
            <LinearRing>
              <coordinates>9.45621518674976,40.4442752331188 9.45626018692288,40.4442525535045 9.45627755722066,40.4442254836975 9.45633374744439,40.4441965641805 9.45639602769206,40.4441645347159 9.45673917905706,40.4439880276659 9.4566461106829,40.4438776072463 9.45662403106791,40.4438514671465 9.4566018810115,40.4438603469622 9.45656746160046,40.4438204868046 9.45654815152685,40.4438301666392 9.45647512277443,40.4437457563045 9.45645205268188,40.4437576861061 9.45644240284693,40.4437465160619 9.45602674124661,40.4439561124986 9.4561737087273,40.4441266631705 9.45620817813655,40.4441666533281 9.45616246796105,40.4441896629364 9.45614770790439,40.4441970928099 9.45621518674976,40.4442752331188</coordinates>
            </LinearRing>
          </outerBoundaryIs>
        </Polygon>
      </Placemark>
      <Placemark xmlns="http://www.opengis.net/kml/2.2">
        <styleUrl>#Parti singole_style_map</styleUrl>
        <name>T03580</name>
        <Polygon>
          <outerBoundaryIs>
            <LinearRing>
              <coordinates>9.45692992906864,40.4436390407098 9.45657188358047,40.4431268123083 9.45649758328283,40.4430235122536 9.45631478293251,40.44288241541 9.45616804827282,40.442752824574 9.45621203673025,40.4429423333511 9.45624269176327,40.4429698787741 9.45627260751846,40.4430049315113 9.45630260942413,40.443057965649 9.4563592461208,40.4431543175781 9.45640146304584,40.4432298797878 9.45644940166329,40.4432936357772 9.45653855260821,40.4433976700392 9.45665155438834,40.4435377897984 9.45673271830265,40.4436428554173 9.45680672761137,40.4437430754165 9.45692992906864,40.4436390407098</coordinates>
            </LinearRing>
          </outerBoundaryIs>
        </Polygon>
      </Placemark>
      <Placemark xmlns="http://www.opengis.net/kml/2.2">
        <styleUrl>#Parti singole_style_map</styleUrl>
        <name>T03582</name>
        <Polygon>
          <outerBoundaryIs>
            <LinearRing>
              <coordinates>9.45695017842887,40.4436726449765 9.45692992906864,40.4436390407098 9.45680672761137,40.4437430754165 9.45684856518144,40.4437955491652 9.45689595660811,40.4438480189828 9.4569501682262,40.4438994258208 9.45699826672129,40.443948325282 9.45703625838806,40.4439726073165 9.45707467316022,40.4439879688653 9.45710540757139,40.4439887933712 9.45713451610206,40.4439776244512 9.45716013067714,40.443957208191 9.45717377551805,40.4439331185535 9.45717224028704,40.4439066474913 9.45715671642303,40.4438813488075 9.45712098091008,40.443843715731 9.45706052588129,40.4437810274805 9.45695017842887,40.4436726449765</coordinates>
            </LinearRing>
          </outerBoundaryIs>
        </Polygon>
      </Placemark>
      <Placemark xmlns="http://www.opengis.net/kml/2.2">
        <styleUrl>#Parti singole_style_map</styleUrl>
        <name>T03585</name>
        <Polygon>
          <outerBoundaryIs>
            <LinearRing>
              <coordinates>9.45727666180633,40.443348728615 9.4571941180051,40.4432663351973 9.45714416238641,40.4432008397623 9.45710712527484,40.443139833746 9.45708790891922,40.443082883384 9.4570760112562,40.4430079493829 9.45706670227725,40.442928725929 9.45706196111296,40.4428885019391 9.45705443291183,40.4428406764453 9.45703676790912,40.4427968909433 9.45699786789767,40.442760252291 9.45696475799018,40.442748085934 9.45691715753717,40.4427465262095 9.45688355254219,40.4427570371663 9.45685956263234,40.442773537094 9.456853764104,40.4427966137466 9.45685606740023,40.4428285772096 9.45687059133077,40.44286996076 9.45688970738753,40.442929551162 9.45691556117148,40.4430020517195 9.4569231172698,40.4430540121923 9.45693772488323,40.4431373768373 9.45695603973433,40.4432231772552 9.45697144200588,40.4432950163826 9.45699879278321,40.4433952854154 9.45701293031276,40.4434753726662 9.45702942371504,40.443530703184 9.4570353972171,40.4435509045468 9.45727666180633,40.443348728615</coordinates>
            </LinearRing>
          </outerBoundaryIs>
        </Polygon>
      </Placemark>
      <Placemark xmlns="http://www.opengis.net/kml/2.2">
        <styleUrl>#Parti singole_style_map</styleUrl>
        <name>T03587</name>
        <Polygon>
          <outerBoundaryIs>
            <LinearRing>
              <coordinates>9.4570353972171,40.4435509045468 9.45704725962087,40.4435910013032 9.45706248259236,40.4436398053881 9.45708443828708,40.4436850874214 9.45711865204566,40.443734834472 9.45717512917937,40.4437864574763 9.45722610564685,40.4438319851548 9.45725215228627,40.443859719686 9.45727161472192,40.4438885252663 9.45735685919831,40.4439464758319 9.45749133134813,40.4440197539991 9.45777305348637,40.4437063194194 9.45764870045698,40.4436698298931 9.45760030249984,40.443634201981 9.45756115575839,40.4436030328974 9.45750160336883,40.4435517735879 9.45740076288018,40.4434630383423 9.45730054766656,40.4433725708284 9.45727666180633,40.443348728615 9.4570353972171,40.4435509045468</coordinates>
            </LinearRing>
          </outerBoundaryIs>
        </Polygon>
      </Placemark>
      <Placemark xmlns="http://www.opengis.net/kml/2.2">
        <styleUrl>#Parti singole_style_map</styleUrl>
        <name>T03838</name>
        <Polygon>
          <outerBoundaryIs>
            <LinearRing>
              <coordinates>9.45849974750823,40.4421745049831 9.45838234878216,40.4420968243057 9.4583224593244,40.4420657339396 9.45824547989362,40.4420359034447 9.45809593122023,40.4419604425254 9.45809272116449,40.4419655024896 9.45759876043087,40.4421219584778 9.45734799005856,40.4422013764411 9.45723569957994,40.4422616754697 9.45702119871543,40.4423729136235 9.45663599712401,40.4425757603007 9.45601522983538,40.4424842359515 9.45596622592231,40.4428043148215 9.45597912589171,40.4428041749167 9.4559970158491,40.4428039950489 9.45603412573784,40.4428054353186 9.45606709551567,40.4428164955347 9.45610639508898,40.4428425157614 9.4561512744222,40.442886465986 9.45612285605895,40.4427623160753 9.45614223734391,40.4426565564722 9.45636616420376,40.4428610376289 9.45654852201627,40.4429982386414 9.45678163721951,40.4433322695544 9.45696825329003,40.4436067702683 9.45693821432423,40.44353073023 9.45691774538131,40.443450970271 9.45690164621523,40.4433880403037 9.45687711762421,40.44328118038 9.45684339939116,40.4431477604525 9.45680466128518,40.4430052605098 9.45678744237483,40.4429222705825 9.4567677430841,40.4428699405634 9.45675223415395,40.4427881806457 9.45675615435141,40.442771740714 9.45676779467174,40.4427440208664 9.45679290498778,40.4427139611234 9.4568220951656,40.4426940513861 9.45684544541696,40.4426694716171 9.45688468540956,40.4426622519233 9.45694349525547,40.4426627723549 9.45699955500148,40.4426717627459 9.45704276479901,40.442679223046 9.45707560453808,40.4426933832537 9.4571065541321,40.4427194234189 9.45712851370857,40.4427486435103 9.45714509316702,40.4427882935371 9.45715268276138,40.4428189535192 9.45715945234771,40.4428504134934 9.45715946158457,40.442910933348 9.45716897055676,40.4429905532267 9.45718213966617,40.4430585631602 9.45719601902207,40.4431068831462 9.45722248841838,40.4431494932386 9.45726234757267,40.4432086333899 9.45732487671297,40.4432643737161 9.45735040635361,40.4432877938477 9.45752448774933,40.4431424754783 9.45836139445972,40.4424438033175 9.45830421559081,40.4423654730849 9.45851800732549,40.4421853650914 9.45849974750823,40.4421745049831</coordinates>
            </LinearRing>
          </outerBoundaryIs>
          <innerBoundaryIs>
            <LinearRing>
              <coordinates>9.45721988861467,40.4431344432556 9.45720257915603,40.4430949532231 9.45724828913834,40.4430872635781 9.45726741857539,40.4431281036207 9.45721988861467,40.4431344432556</coordinates>
            </LinearRing>
          </innerBoundaryIs>
        </Polygon>
      </Placemark>
      <Placemark xmlns="http://www.opengis.net/kml/2.2">
        <styleUrl>#Parti singole_style_map</styleUrl>
        <name>T03839</name>
        <Polygon>
          <outerBoundaryIs>
            <LinearRing>
              <coordinates>9.45851800732549,40.4421853650914 9.45830421559081,40.4423654730849 9.45836139445972,40.4424438033175 9.45860729643135,40.4422385156208 9.45851800732549,40.4421853650914</coordinates>
            </LinearRing>
          </outerBoundaryIs>
        </Polygon>
      </Placemark>
      <Placemark xmlns="http://www.opengis.net/kml/2.2">
        <styleUrl>#Parti singole_style_map</styleUrl>
        <name>T03840</name>
        <Polygon>
          <outerBoundaryIs>
            <LinearRing>
              <coordinates>9.45752448774933,40.4431424754783 9.45735040635361,40.4432877938477 9.45737731597112,40.4433127739858 9.45747558464235,40.4433986045028 9.4575781231943,40.4434930450306 9.45765427215479,40.4435603354293 9.45772364130063,40.4436142758103 9.4578462907534,40.4436332766674 9.45813729404613,40.443314259576 9.45860402966026,40.4427761743045 9.45836139445972,40.4424438033175 9.45752448774933,40.4431424754783</coordinates>
            </LinearRing>
          </outerBoundaryIs>
        </Polygon>
      </Placemark>
      <Placemark xmlns="http://www.opengis.net/kml/2.2">
        <styleUrl>#Parti singole_style_map</styleUrl>
        <name>T03841</name>
        <Polygon>
          <outerBoundaryIs>
            <LinearRing>
              <coordinates>9.4588862130434,40.4424517271613 9.458748705306,40.4422996365147 9.45869666561292,40.4422856461653 9.45860729643135,40.4422385156208 9.45836139445972,40.4424438033175 9.45860402966026,40.4427761743045 9.45872690113836,40.4426345055494 9.4588862130434,40.4424517271613</coordinates>
            </LinearRing>
          </outerBoundaryIs>
        </Polygon>
      </Placemark>
      <Placemark xmlns="http://www.opengis.net/kml/2.2">
        <styleUrl>#Parti singole_style_map</styleUrl>
        <name>T03842</name>
        <Polygon>
          <outerBoundaryIs>
            <LinearRing>
              <coordinates>9.45868872790408,40.4436916727277 9.45948639823209,40.4435069990426 9.45955392860844,40.4434637196437 9.45956026458299,40.4429886308321 9.45860440965274,40.4427766943061 9.45860402966026,40.4427761743045 9.45813729404613,40.443314259576 9.4578462907534,40.4436332766674 9.45793792012334,40.4436650172655 9.45868872790408,40.4436916727277</coordinates>
            </LinearRing>
          </outerBoundaryIs>
        </Polygon>
      </Placemark>
      <Placemark xmlns="http://www.opengis.net/kml/2.2">
        <styleUrl>#Parti singole_style_map</styleUrl>
        <name>T03843</name>
        <Polygon>
          <outerBoundaryIs>
            <LinearRing>
              <coordinates>9.45956547949241,40.4425982318087 9.4595640794944,40.4425983517981 9.4590019724218,40.4424779979501 9.4588862130434,40.4424517271613 9.45872690113836,40.4426345055494 9.45860402966026,40.4427761743045 9.45860440965274,40.4427766943061 9.45956026458299,40.4429886308321 9.45956547949241,40.4425982318087</coordinates>
            </LinearRing>
          </outerBoundaryIs>
        </Polygon>
      </Placemark>
      <Placemark xmlns="http://www.opengis.net/kml/2.2">
        <styleUrl>#Parti singole_style_map</styleUrl>
        <name>T03845</name>
        <Polygon>
          <outerBoundaryIs>
            <LinearRing>
              <coordinates>9.45605143773164,40.4442299420223 9.45605801801954,40.4442058021288 9.45602882884684,40.4441460020577 9.45597909837439,40.4441933615778 9.45603947783566,40.4442240719484 9.45605143773164,40.4442299420223</coordinates>
            </LinearRing>
          </outerBoundaryIs>
        </Polygon>
      </Placemark>
      <Placemark xmlns="http://www.opengis.net/kml/2.2">
        <styleUrl>#Parti singole_style_map</styleUrl>
        <name>T03846</name>
        <Polygon>
          <outerBoundaryIs>
            <LinearRing>
              <coordinates>9.45557419711881,40.4435804600704 9.45527563450915,40.4438468072327 9.45506906253209,40.4440446852366 9.4548534823549,40.4441016235129 9.45455095990767,40.4443558706751 9.45432220927347,40.4444516687611 9.45405463698378,40.4446864662272 9.45406555598019,40.4447638761215 9.45408357595466,40.444762316258 9.45444294544641,40.4447311289782 9.45425295743595,40.444611157868 9.45446947860551,40.4444753397882 9.45463072984916,40.4443446412892 9.45477124082352,40.4442394225764 9.45484377984974,40.4443022129594 9.45492515884053,40.444366053405 9.45498895764592,40.4444480936774 9.4550870188177,40.4443356646695 9.45534509071529,40.4441338470541 9.45555007234806,40.4439635889721 9.45575502455793,40.4437475709998 9.45580304547588,40.4436652215512 9.45561767766582,40.4435284305155 9.45557419711881,40.4435804600704</coordinates>
            </LinearRing>
          </outerBoundaryIs>
        </Polygon>
      </Placemark>
      <Placemark xmlns="http://www.opengis.net/kml/2.2">
        <styleUrl>#Parti singole_style_map</styleUrl>
        <name>T03847</name>
        <Polygon>
          <outerBoundaryIs>
            <LinearRing>
              <coordinates>9.4556989986885,40.4434311513479 9.45561767766582,40.4435284305155 9.45580304547588,40.4436652215512 9.45584159621243,40.4435991419938 9.45587025923132,40.4433540327938 9.45597667074813,40.4432125739171 9.45601575953638,40.4433008939925 9.45613830830138,40.4433744547178 9.45617818815644,40.4433780150027 9.45627998885611,40.4433022759341 9.45619439194016,40.443074725851 9.45618603242101,40.4430382558771 9.45615936294299,40.4430021657675 9.45612368343613,40.4429701555819 9.45608241389715,40.4429418053462 9.45604956419947,40.4429243651463 9.45599411446997,40.4429139447633 9.45593992458158,40.4429158743597 9.45584307149802,40.4431796830128 9.4556989986885,40.4434311513479</coordinates>
            </LinearRing>
          </outerBoundaryIs>
        </Polygon>
      </Placemark>
      <Placemark xmlns="http://www.opengis.net/kml/2.2">
        <styleUrl>#Parti singole_style_map</styleUrl>
        <name>T03848</name>
        <Polygon>
          <outerBoundaryIs>
            <LinearRing>
              <coordinates>9.45558212195304,40.443988539148 9.45541302057577,40.44413139756 9.45512344841193,40.4443605948777 9.45498759673345,40.4445207234929 9.45488368863902,40.4443902830415 9.45476809016206,40.4442925024256 9.45468070958468,40.4443556716306 9.45449842815091,40.4445056299285 9.45432722728026,40.4446087284205 9.45452649517099,40.4447363495806 9.45472590556974,40.4446650612198 9.45547524697077,40.4444048973607 9.45548031698025,40.4444031374023 9.45591981644507,40.4443581507454 9.45603691709696,40.4442831617876 9.45605143773164,40.4442299420223 9.45603947783566,40.4442240719484 9.45597909837439,40.4441933615778 9.45602882884684,40.4441460020577 9.45598888997904,40.4440641619603 9.45589997156348,40.4439562015653 9.45579071415579,40.4437723612029 9.45558212195304,40.443988539148</coordinates>
            </LinearRing>
          </outerBoundaryIs>
        </Polygon>
      </Placemark>
      <Placemark xmlns="http://www.opengis.net/kml/2.2">
        <styleUrl>#Parti singole_style_map</styleUrl>
        <name>T03850</name>
        <Polygon>
          <outerBoundaryIs>
            <LinearRing>
              <coordinates>9.45675632157701,40.4437847782806 9.45665519330213,40.4436680878166 9.45658118458861,40.4435807874817 9.45653123548133,40.4435199272603 9.45643594718827,40.4434035168387 9.45635828857835,40.4433087264949 9.45630183972331,40.4432291562707 9.45633112862871,40.4433101362916 9.45619365766759,40.4434137050308 9.45612382787493,40.443411154523 9.45598275932435,40.4433242736934 9.45596729974899,40.4432936736532 9.45591314898741,40.4433648430836 9.45588946600156,40.4436063423288 9.45579071415579,40.4437723612029 9.45589997156348,40.4439562015653 9.45598888997905,40.4440641619603 9.45602882884685,40.4441460020577 9.45607829931644,40.4440989225349 9.4561737087273,40.4441266631705 9.45602674124661,40.4439561124986 9.45644240284693,40.4437465160619 9.45645205268188,40.4437576861061 9.45647512277443,40.4437457563045 9.45654815152685,40.4438301666392 9.45656746160046,40.4438204868046 9.4566018810115,40.4438603469622 9.45662403106791,40.4438514671465 9.4566461106829,40.4438776072463 9.45675632157701,40.4437847782806</coordinates>
            </LinearRing>
          </outerBoundaryIs>
        </Polygon>
      </Placemark>
      <Placemark xmlns="http://www.opengis.net/kml/2.2">
        <styleUrl>#Parti singole_style_map</styleUrl>
        <name>T03879</name>
        <Polygon>
          <outerBoundaryIs>
            <LinearRing>
              <coordinates>9.45675632157701,40.4437847782806 9.4566461106829,40.4438776072463 9.45673917905706,40.4439880276659 9.45639602769206,40.4441645347159 9.45640501762928,40.4441677247744 9.45664161573771,40.4442706662685 9.45662661600118,40.4442527562012 9.45683897679001,40.4441479580161 9.4568694962595,40.4441839581542 9.45691421642235,40.4441621485358 9.45694777584638,40.4442011486891 9.45690391567179,40.444223718312 9.45689299557485,40.444233578208 9.45669349483584,40.4443318665034 9.45665325553461,40.4442844563211 9.45673973376755,40.4444073866622 9.45676847326192,40.4444417667911 9.45731839468169,40.4442197913723 9.45746530639192,40.4440549428498 9.4574686164628,40.4440486628893 9.4573091580104,40.4439576519343 9.45729326818833,40.4439467018436 9.45727933766593,40.4439909016349 9.45726140726389,40.4440263514177 9.45721202628905,40.4441134808449 9.45715178656411,40.4441036504251 9.45709187690921,40.4440882000212 9.45706124710243,40.444078969818 9.4570324473497,40.4440650896393 9.45700997760983,40.4440489295128 9.45695882823623,40.4440094292312 9.45692334874942,40.4439757890509 9.45687363957976,40.4439198288195 9.45675632157701,40.4437847782806</coordinates>
            </LinearRing>
          </outerBoundaryIs>
        </Polygon>
      </Placemark>
      <Placemark xmlns="http://www.opengis.net/kml/2.2">
        <styleUrl>#Parti singole_style_map</styleUrl>
        <name>T03880</name>
        <Polygon>
          <outerBoundaryIs>
            <LinearRing>
              <coordinates>9.45602882884685,40.4441460020577 9.45605801801954,40.4442058021288 9.45605143773164,40.4442299420223 9.45614962687034,40.4442787126279 9.45626628616131,40.4443117334072 9.45629224661573,40.4442705336973 9.45631980727041,40.4442131340381 9.45633374744439,40.4441965641805 9.45627755722066,40.4442254836975 9.45626018692288,40.4442525535045 9.45621518674976,40.4442752331188 9.45614770790439,40.4441970928099 9.45620817813655,40.4441666533281 9.4561737087273,40.4441266631705 9.45607829931644,40.4440989225349 9.45602882884685,40.4441460020577</coordinates>
            </LinearRing>
          </outerBoundaryIs>
        </Polygon>
      </Placemark>
      <Placemark xmlns="http://www.opengis.net/kml/2.2">
        <styleUrl>#Parti singole_style_map</styleUrl>
        <name>T03881</name>
        <Polygon>
          <outerBoundaryIs>
            <LinearRing>
              <coordinates>9.45675632157701,40.4437847782806 9.45665519330213,40.4436680878166 9.45658118458861,40.4435807874817 9.45653123548133,40.4435199272603 9.45643594718827,40.4434035168387 9.45635828857835,40.4433087264949 9.45630183972331,40.4432291562707 9.45633112862871,40.4433101362916 9.45619365766759,40.4434137050308 9.45612382787493,40.443411154523 9.45598275932435,40.4433242736934 9.45596729974899,40.4432936736532 9.45591314898741,40.4433648430836 9.45588946600156,40.4436063423288 9.45579071415579,40.4437723612029 9.45589997156348,40.4439562015653 9.45598888997905,40.4440641619603 9.45602882884685,40.4441460020577 9.45607829931644,40.4440989225349 9.4561737087273,40.4441266631705 9.45602674124661,40.4439561124986 9.45644240284693,40.4437465160619 9.45645205268188,40.4437576861061 9.45647512277443,40.4437457563045 9.45654815152685,40.4438301666392 9.45656746160046,40.4438204868046 9.4566018810115,40.4438603469622 9.45662403106791,40.4438514671465 9.4566461106829,40.4438776072463 9.45675632157701,40.4437847782806</coordinates>
            </LinearRing>
          </outerBoundaryIs>
        </Polygon>
      </Placemark>
      <Placemark xmlns="http://www.opengis.net/kml/2.2">
        <styleUrl>#Parti singole_style_map</styleUrl>
        <name>T03882</name>
        <Polygon>
          <outerBoundaryIs>
            <LinearRing>
              <coordinates>9.45605143773164,40.4442299420223 9.45603691709696,40.4442831617875 9.45591981644507,40.4443581507454 9.45613589618183,40.444336042389 9.45676847326192,40.4444417667911 9.45673973376755,40.4444073866622 9.45665325553461,40.4442844563211 9.45664161573771,40.4442706662685 9.45640501762928,40.4441677247744 9.45639602769206,40.4441645347159 9.45633374744439,40.4441965641805 9.45631980727041,40.4442131340381 9.45629224661573,40.4442705336973 9.45626628616131,40.4443117334072 9.45614962687034,40.4442787126279 9.45605143773164,40.4442299420223</coordinates>
            </LinearRing>
          </outerBoundaryIs>
          <innerBoundaryIs>
            <LinearRing>
              <coordinates>9.45655465458248,40.4443795753667 9.45653150500927,40.4443503352666 9.45663968537749,40.4442996161848 9.45666284495043,40.4443288762849 9.45655465458248,40.4443795753667</coordinates>
            </LinearRing>
          </innerBoundaryIs>
        </Polygon>
      </Placemark>
      <Placemark xmlns="http://www.opengis.net/kml/2.2">
        <styleUrl>#Parti singole_style_map</styleUrl>
        <name>T02147</name>
        <Polygon>
          <outerBoundaryIs>
            <LinearRing>
              <coordinates>9.45601522983538,40.4424842359515 9.45663599712401,40.4425757603007 9.45702119871543,40.4423729136235 9.45723569957994,40.4422616754697 9.45734799005856,40.4422013764411 9.45759876043087,40.4421219584778 9.45760520260683,40.441720955149 9.45757834403042,40.4414967038856 9.45753646404235,40.4414065103068 9.45758485193294,40.4413730220652 9.45751916750942,40.441302228685 9.4574701846661,40.4413349174604 9.45736464854116,40.4412713895802 9.45727629673372,40.4411945956537 9.45720609939471,40.4410980544907 9.45685321377937,40.4413469318338 9.45638680235893,40.4419189095129 9.45626746813342,40.4420592162398 9.45615598378187,40.4421956450937 9.45601522983538,40.4424842359515</coordinates>
            </LinearRing>
          </outerBoundaryIs>
        </Polygon>
      </Placemark>
      <Placemark xmlns="http://www.opengis.net/kml/2.2">
        <styleUrl>#Parti singole_style_map</styleUrl>
        <name>T02149</name>
        <Polygon>
          <outerBoundaryIs>
            <LinearRing>
              <coordinates>9.45760880944413,40.4440613158632 9.45790012442364,40.4440392896425 9.45824449580512,40.4439782242352 9.45874506085101,40.4439731954803 9.45909026391571,40.4439288267385 9.45944946904609,40.4438610683359 9.45953533334614,40.4438140252271 9.45953894102742,40.4435401586505 9.45947397923848,40.4435761909675 9.45916168381933,40.4436545829596 9.45866864743347,40.4437729425359 9.45789870984936,40.443745452267 9.45777305348637,40.4437063194194 9.45749133134813,40.4440197539991 9.45760880944413,40.4440613158632</coordinates>
            </LinearRing>
          </outerBoundaryIs>
        </Polygon>
      </Placemark>
      <Placemark xmlns="http://www.opengis.net/kml/2.2">
        <styleUrl>#Parti singole_style_map</styleUrl>
        <name>T02151</name>
        <Polygon>
          <outerBoundaryIs>
            <LinearRing>
              <coordinates>9.45953533334614,40.4438140252271 9.45962045731629,40.4437673723777 9.45997406442975,40.4434855833505 9.46014626936617,40.4433214953111 9.4604025456264,40.4431417393476 9.46085357113748,40.4428900009355 9.46010621338428,40.4432210523351 9.45996924976379,40.4433015238303 9.45953894102742,40.4435401586505 9.45953533334614,40.4438140252271</coordinates>
            </LinearRing>
          </outerBoundaryIs>
        </Polygon>
      </Placemark>
      <Placemark xmlns="http://www.opengis.net/kml/2.2">
        <styleUrl>#Parti singole_style_map</styleUrl>
        <name>T02152</name>
        <Polygon>
          <outerBoundaryIs>
            <LinearRing>
              <coordinates>9.46222834042886,40.4425955382977 9.46244219224103,40.4425806748739 9.46267925597809,40.4425685109844 9.46292313450149,40.4425201486422 9.46290205457147,40.4424896117654 9.4628687836345,40.4424953754387 9.46266690991819,40.4424789308971 9.46256819270165,40.4425081360681 9.46246894732868,40.4424998302418 9.4623389460649,40.4425511960154 9.46233727229873,40.4425512837841 9.46222834042886,40.4425955382977</coordinates>
            </LinearRing>
          </outerBoundaryIs>
        </Polygon>
      </Placemark>
      <Placemark xmlns="http://www.opengis.net/kml/2.2">
        <styleUrl>#Parti singole_style_map</styleUrl>
        <name>T02153</name>
        <Polygon>
          <outerBoundaryIs>
            <LinearRing>
              <coordinates>9.46292313450149,40.4425201486422 9.46305853864554,40.4424932917988 9.46325186103944,40.4425058960739 9.46338928116971,40.4424807334515 9.46350932862107,40.4424824777557 9.4637617996398,40.4425127448585 9.46389530203126,40.4425523982935 9.46399509890995,40.4425877363649 9.46434285493043,40.4427412850551 9.46474156578841,40.4429157899 9.46504376990336,40.4430480512574 9.46517701254356,40.4430497317782 9.46537810966246,40.4431259670578 9.46555879882294,40.4431905995815 9.46574973389674,40.4433131898058 9.46630147445863,40.4437376913614 9.46650488294718,40.4438151856038 9.46673065976738,40.4438311576381 9.46697020722036,40.443773516074 9.46728651352507,40.4437715992916 9.46737552277558,40.4437896178751 9.4674488537438,40.4438133843474 9.46766217624476,40.443893674292 9.46804976059105,40.4440190060983 9.4689661523998,40.4441290862986 9.46893468621123,40.444106115058 9.46879631710789,40.4440525053898 9.4681039353334,40.443966886708 9.46767079281888,40.443842153664 9.46746136663344,40.4437574696711 9.46739113248216,40.443738177122 9.46733714249085,40.4437233323659 9.46693345656916,40.4437143408743 9.46672842750113,40.4437675008277 9.46654618279479,40.443759713495 9.46637478377288,40.4437037476616 9.46605608907122,40.4434706026272 9.4660441502316,40.4434663354633 9.46577904565185,40.4432855766687 9.46558638228476,40.4431756869733 9.46544326974745,40.443119227538 9.46517044387109,40.443032488147 9.46504660889408,40.4430442290851 9.46498386916074,40.4430017520956 9.46478396059556,40.442904493611 9.46457636138596,40.4427930496318 9.46438170449381,40.4426962738554 9.46421208730903,40.4426552884404 9.46407432752758,40.4425400858719 9.4637645861806,40.4424343112898 9.46348659299268,40.442408308549 9.46313376150113,40.4424494777516 9.46290205457147,40.4424896117654 9.46292313450149,40.4425201486422</coordinates>
            </LinearRing>
          </outerBoundaryIs>
        </Polygon>
      </Placemark>
    </Folder>
  </Document>
</kml>

