<?xml version="1.0" encoding="UTF-8"?>
<kml xmlns="http://www.opengis.net/kml/2.2">
  <Document xmlns="">
    <Folder>
      <name>Patrimonio IGEA</name>
      <Placemark xmlns="http://www.opengis.net/kml/2.2">
        <styleUrl>#Parti singole_style_map</styleUrl>
        <name>F00372</name>
        <Polygon>
          <outerBoundaryIs>
            <LinearRing>
              <coordinates>8.59196177116545,39.3746220431594 8.59210413399443,39.3746862888773 8.5921715947584,39.3746042125431 8.59202923924345,39.3745387291432 8.59196177116545,39.3746220431594</coordinates>
            </LinearRing>
          </outerBoundaryIs>
        </Polygon>
      </Placemark>
      <Placemark xmlns="http://www.opengis.net/kml/2.2">
        <styleUrl>#Parti singole_style_map</styleUrl>
        <name>F01653</name>
        <Polygon>
          <outerBoundaryIs>
            <LinearRing>
              <coordinates>8.5858315632332,39.3755348441003 8.58587707680346,39.3755951606897 8.58600877407681,39.3755448101938 8.58614741581735,39.3755255526605 8.58622755490872,39.3755025185868 8.58627329091165,39.375476109226 8.58624942613059,39.3754477671992 8.58668941946656,39.3750709609857 8.58682704195831,39.3749901028585 8.58679144402248,39.3749570968272 8.58662228295539,39.3749309055067 8.58648186410075,39.3749426605071 8.58642543274537,39.374953894174 8.58606836482006,39.3749873591295 8.58619236710537,39.3750385840437 8.5862962713608,39.3750390168952 8.58628393283117,39.3753530178653 8.58617928585505,39.3753583491135 8.58599790252716,39.3753511977363 8.58580001956117,39.3754896789528 8.5858315632332,39.3755348441003</coordinates>
            </LinearRing>
          </outerBoundaryIs>
          <innerBoundaryIs>
            <LinearRing>
              <coordinates>8.58603100721834,39.3754543963616 8.5862212094657,39.3753994783318 8.58624722884308,39.3754482819916 8.58605480709364,39.3754995969496 8.58603967903558,39.3754800442456 8.58603100721834,39.3754543963616</coordinates>
            </LinearRing>
          </innerBoundaryIs>
        </Polygon>
      </Placemark>
      <Placemark xmlns="http://www.opengis.net/kml/2.2">
        <styleUrl>#Parti singole_style_map</styleUrl>
        <name>F01654</name>
        <Polygon>
          <outerBoundaryIs>
            <LinearRing>
              <coordinates>8.59227254138397,39.3763586584806 8.59240546033032,39.3763751363144 8.59243197184114,39.3762025419766 8.59241352994944,39.376199476809 8.59243356755735,39.3761657484644 8.59236942260221,39.3761538368861 8.59234774604823,39.3761918845392 8.59233784859171,39.376234767107 8.59229633448423,39.3762342701191 8.59227254138397,39.3763586584806</coordinates>
            </LinearRing>
          </outerBoundaryIs>
        </Polygon>
      </Placemark>
      <Placemark xmlns="http://www.opengis.net/kml/2.2">
        <styleUrl>#Parti singole_style_map</styleUrl>
        <name>F01655</name>
        <Polygon>
          <outerBoundaryIs>
            <LinearRing>
              <coordinates>8.59089704334612,39.3751545215001 8.59095350712834,39.3751555311239 8.59145456912269,39.3751737732704 8.5914539801514,39.375141396272 8.59095377200679,39.37512012057 8.59095492963095,39.3751067800091 8.59089210136993,39.375106180497 8.59089704334612,39.3751545215001</coordinates>
            </LinearRing>
          </outerBoundaryIs>
        </Polygon>
      </Placemark>
      <Placemark xmlns="http://www.opengis.net/kml/2.2">
        <styleUrl>#Parti singole_style_map</styleUrl>
        <name>F01656</name>
        <Polygon>
          <outerBoundaryIs>
            <LinearRing>
              <coordinates>8.59149944650895,39.3755728282758 8.59155076317021,39.3755845330755 8.59160707074619,39.3755984539602 8.5916158223854,39.3755012698167 8.59153758281518,39.3753920122868 8.5914776215112,39.3755686067321 8.59149944650895,39.3755728282758</coordinates>
            </LinearRing>
          </outerBoundaryIs>
        </Polygon>
      </Placemark>
      <Placemark xmlns="http://www.opengis.net/kml/2.2">
        <styleUrl>#Parti singole_style_map</styleUrl>
        <name>F01657</name>
        <Polygon>
          <outerBoundaryIs>
            <LinearRing>
              <coordinates>8.59180033093803,39.3752273751577 8.59203056148466,39.3755445979759 8.59199280014821,39.3755456818859 8.59196332262481,39.3756373869849 8.5920018023762,39.3756724199127 8.59201983388279,39.3756741591538 8.59207042441729,39.3756790041435 8.59210977620072,39.3756819354857 8.59212018087437,39.3756416767845 8.5921185151612,39.3755728573265 8.59189402197217,39.3752850652783 8.59189246307302,39.3751959634259 8.5917525294269,39.3751942466978 8.59180033093803,39.3752273751577</coordinates>
            </LinearRing>
          </outerBoundaryIs>
        </Polygon>
      </Placemark>
      <Placemark xmlns="http://www.opengis.net/kml/2.2">
        <styleUrl>#Parti singole_style_map</styleUrl>
        <name>F01658</name>
        <Polygon>
          <outerBoundaryIs>
            <LinearRing>
              <coordinates>8.59239736137066,39.3760471958072 8.5924228879939,39.3760457985586 8.59239786595353,39.376086168227 8.59248464240056,39.3761173606132 8.59252058854151,39.3760491865995 8.59274645406822,39.3760659267028 8.59271150941276,39.3760457828337 8.59275225143537,39.3758176791789 8.59275989903356,39.375784303838 8.59265984241426,39.3756331526511 8.5925987266073,39.3756314697824 8.59246695314586,39.3757695091938 8.59241871273522,39.3757737732766 8.59242550239499,39.3758200122187 8.59238444300576,39.3759867707849 8.59239736137066,39.3760471958072</coordinates>
            </LinearRing>
          </outerBoundaryIs>
        </Polygon>
      </Placemark>
      <Placemark xmlns="http://www.opengis.net/kml/2.2">
        <styleUrl>#Parti singole_style_map</styleUrl>
        <name>F01659</name>
        <Polygon>
          <outerBoundaryIs>
            <LinearRing>
              <coordinates>8.59264404138616,39.3754715019776 8.59270672975233,39.3754842372733 8.5927562713315,39.3753080922582 8.59269301406576,39.3752973823712 8.59264404138616,39.3754715019776</coordinates>
            </LinearRing>
          </outerBoundaryIs>
        </Polygon>
      </Placemark>
      <Placemark xmlns="http://www.opengis.net/kml/2.2">
        <styleUrl>#Parti singole_style_map</styleUrl>
        <name>F01660</name>
        <Polygon>
          <outerBoundaryIs>
            <LinearRing>
              <coordinates>8.59154563817189,39.3748628416027 8.59160936592698,39.3748644440931 8.59164221785597,39.3749068460309 8.59175008859021,39.3747426470491 8.59174393955663,39.3745806336607 8.59160987969939,39.3745852177474 8.59161027975626,39.3746778747116 8.59155337308717,39.3746772242734 8.59154563817189,39.3748628416027</coordinates>
            </LinearRing>
          </outerBoundaryIs>
        </Polygon>
      </Placemark>
      <Placemark xmlns="http://www.opengis.net/kml/2.2">
        <styleUrl>#Parti singole_style_map</styleUrl>
        <name>F01661</name>
        <Polygon>
          <outerBoundaryIs>
            <LinearRing>
              <coordinates>8.5919356569963,39.3745514187107 8.59194515282532,39.3751971305212 8.59224549622686,39.3751911920995 8.59226968374726,39.3752063786215 8.59228777986031,39.3751890246786 8.59241193248513,39.375169384483 8.59253172398218,39.3751370510169 8.59252050425794,39.375111926304 8.59251241837888,39.3750789553686 8.59256503377312,39.3750669484886 8.59257636477524,39.3750968942352 8.592587745058,39.3751223619066 8.59262250934197,39.3751135542649 8.59316398292088,39.3745326024475 8.593498550589,39.3741782882032 8.59362287745227,39.3736060567824 8.59351184743259,39.3732415158884 8.59349313014171,39.3731800164488 8.59346859096518,39.3730994843669 8.5933809816138,39.3730983400083 8.59316483908607,39.373152142799 8.5930150953236,39.3731891116416 8.59292070872134,39.3732673893155 8.59256769427502,39.3735679614121 8.59243349497401,39.3738462146532 8.59236882798901,39.3739223614313 8.59196175231026,39.3742650196225 8.59192712701446,39.3743616084095 8.5919356569963,39.3745514187107</coordinates>
            </LinearRing>
          </outerBoundaryIs>
          <innerBoundaryIs>
            <LinearRing>
              <coordinates>8.59196177116545,39.3746220431594 8.59202923924345,39.3745387291432 8.5921715947584,39.3746042125431 8.59210413399443,39.3746862888773 8.59196177116545,39.3746220431594</coordinates>
            </LinearRing>
          </innerBoundaryIs>
        </Polygon>
      </Placemark>
      <Placemark xmlns="http://www.opengis.net/kml/2.2">
        <styleUrl>#Parti singole_style_map</styleUrl>
        <name>F02020</name>
        <Polygon>
          <outerBoundaryIs>
            <LinearRing>
              <coordinates>8.59309662270864,39.3730341811044 8.59331056475255,39.3729574208449 8.59328721611667,39.3729198191955 8.59307558975826,39.3729976597744 8.59309662270864,39.3730341811044</coordinates>
            </LinearRing>
          </outerBoundaryIs>
        </Polygon>
      </Placemark>
      <Placemark xmlns="http://www.opengis.net/kml/2.2">
        <styleUrl>#Parti singole_style_map</styleUrl>
        <name>F01662</name>
        <Polygon>
          <outerBoundaryIs>
            <LinearRing>
              <coordinates>8.59354096055485,39.3727859896942 8.59365219612274,39.372730828423 8.59361336912331,39.3726877483802 8.59350074343132,39.3727444005074 8.59354096055485,39.3727859896942</coordinates>
            </LinearRing>
          </outerBoundaryIs>
        </Polygon>
      </Placemark>
      <Placemark xmlns="http://www.opengis.net/kml/2.2">
        <styleUrl>#Parti singole_style_map</styleUrl>
        <name>T02231</name>
        <Polygon>
          <outerBoundaryIs>
            <LinearRing>
              <coordinates>8.58599790252716,39.3753511977363 8.58617928585505,39.3753583491135 8.58628393283117,39.3753530178653 8.5862962713608,39.3750390168952 8.58619236710537,39.3750385840437 8.58606836482006,39.3749873591295 8.58592236178878,39.3753367911541 8.58599790252716,39.3753511977363</coordinates>
            </LinearRing>
          </outerBoundaryIs>
        </Polygon>
      </Placemark>
      <Placemark xmlns="http://www.opengis.net/kml/2.2">
        <styleUrl>#Parti singole_style_map</styleUrl>
        <name>T00525</name>
        <Polygon>
          <outerBoundaryIs>
            <LinearRing>
              <coordinates>8.58002542583984,39.3706683632786 8.5800754749673,39.3706949990598 8.58100612859423,39.3712505958413 8.58114815456666,39.3714834538771 8.58133226963037,39.3716241951724 8.58199252720452,39.3716903746329 8.58208647827862,39.371680935919 8.58265744151935,39.3714506315273 8.58262997799257,39.3714169055317 8.58208670001125,39.3716340457639 8.58199489769474,39.3716510971159 8.58138574147718,39.3715892014752 8.58120246459964,39.3714558339207 8.5810460335132,39.3712168419152 8.58010742966771,39.3706570718803 8.58005873824027,39.3706285938517 8.58002542583984,39.3706683632786</coordinates>
            </LinearRing>
          </outerBoundaryIs>
        </Polygon>
      </Placemark>
      <Placemark xmlns="http://www.opengis.net/kml/2.2">
        <styleUrl>#Parti singole_style_map</styleUrl>
        <name>T00517</name>
        <Polygon>
          <outerBoundaryIs>
            <LinearRing>
              <coordinates>8.65385858243405,39.3217176340141 8.65391440050691,39.3217281443811 8.65393075478854,39.321679364332 8.65387517659054,39.321667268812 8.65385858243405,39.3217176340141</coordinates>
            </LinearRing>
          </outerBoundaryIs>
        </Polygon>
      </Placemark>
      <Placemark xmlns="http://www.opengis.net/kml/2.2">
        <styleUrl>#Parti singole_style_map</styleUrl>
        <name>T00520</name>
        <Polygon>
          <outerBoundaryIs>
            <LinearRing>
              <coordinates>8.66043742393041,39.3087890149901 8.66004268326418,39.3086285620307 8.66008533603245,39.3087019344702 8.66007615833542,39.3087528629995 8.66002493430867,39.3087919817725 8.65998059911189,39.3088288679964 8.65996868554322,39.3088387809453 8.660105041232,39.3088602284911 8.6601984736631,39.3088281982719 8.66029810858986,39.3088087199417 8.660391728197,39.3088002980767 8.66045022735264,39.3087941434043 8.66043742393041,39.3087890149901</coordinates>
            </LinearRing>
          </outerBoundaryIs>
        </Polygon>
      </Placemark>
      <Placemark xmlns="http://www.opengis.net/kml/2.2">
        <styleUrl>#Parti singole_style_map</styleUrl>
        <name>T00518</name>
        <Polygon>
          <outerBoundaryIs>
            <LinearRing>
              <coordinates>8.66042364950958,39.3091547810452 8.66045912839708,39.3091072271929 8.66062577286968,39.3089312396064 8.66067391702154,39.3088837586893 8.66045022735264,39.3087941434043 8.660391728197,39.3088002980767 8.66029810858986,39.3088087199417 8.6601984736631,39.3088281982719 8.660105041232,39.3088602284911 8.65996868554322,39.3088387809453 8.65987685745986,39.3089561827842 8.65980799116232,39.3090240659905 8.65963235085993,39.3092105415257 8.65956442622433,39.3092826623561 8.65946084099809,39.3095041387382 8.65951856682594,39.3095427653089 8.65956181787441,39.3095717080592 8.6599039306184,39.3097577071653 8.65999814793793,39.309645331252 8.66019013167141,39.3094156336901 8.66029195074474,39.3093069290656 8.66036962726945,39.3092256363944 8.66042364950958,39.3091547810452</coordinates>
            </LinearRing>
          </outerBoundaryIs>
        </Polygon>
      </Placemark>
      <Placemark xmlns="http://www.opengis.net/kml/2.2">
        <styleUrl>#Parti singole_style_map</styleUrl>
        <name>T00519</name>
        <Polygon>
          <outerBoundaryIs>
            <LinearRing>
              <coordinates>8.65955137998941,39.3092965005985 8.65950194619093,39.3093489962147 8.65939773353008,39.3094678661834 8.65941527772388,39.3094736573642 8.65946084099809,39.3095041387382 8.65956442622433,39.3092826623561 8.65955137998941,39.3092965005985</coordinates>
            </LinearRing>
          </outerBoundaryIs>
        </Polygon>
      </Placemark>
    </Folder>
  </Document>
</kml>

