<?xml version="1.0" encoding="UTF-8"?>
<kml xmlns="http://www.opengis.net/kml/2.2">
  <Document xmlns="">
    <Folder>
      <name>Patrimonio IGEA</name>
      <Placemark xmlns="http://www.opengis.net/kml/2.2">
        <styleUrl>#Parti singole_style_map</styleUrl>
        <name>F00319</name>
        <Polygon>
          <outerBoundaryIs>
            <LinearRing>
              <coordinates>8.53055711749431,39.2514047319115 8.53062914558861,39.2514306669929 8.53066309181081,39.2513748923093 8.53056434147219,39.2513398927885 8.53053928608955,39.2513814843747 8.53056570280871,39.25139118737 8.53055711749431,39.2514047319115</coordinates>
            </LinearRing>
          </outerBoundaryIs>
        </Polygon>
      </Placemark>
      <Placemark xmlns="http://www.opengis.net/kml/2.2">
        <styleUrl>#Parti singole_style_map</styleUrl>
        <name>F00320</name>
        <Polygon>
          <outerBoundaryIs>
            <LinearRing>
              <coordinates>8.53416746481161,39.2535818310844 8.5345753566891,39.2536288563287 8.53457866886109,39.2535731771313 8.53420359043003,39.2535350567137 8.53420194682674,39.2535609890814 8.53417155392733,39.253557052872 8.53416746481161,39.2535818310844</coordinates>
            </LinearRing>
          </outerBoundaryIs>
        </Polygon>
      </Placemark>
      <Placemark xmlns="http://www.opengis.net/kml/2.2">
        <styleUrl>#Parti singole_style_map</styleUrl>
        <name>F00318</name>
        <Polygon>
          <outerBoundaryIs>
            <LinearRing>
              <coordinates>8.51071698271455,39.2004203615922 8.51082180647638,39.2004487754316 8.51081306249696,39.2004714386285 8.51093263143295,39.2005043237444 8.51094694064192,39.2004691181347 8.51083158663114,39.2004363443638 8.51083913730611,39.2004148919648 8.51072627288436,39.2003864875924 8.51071698271455,39.2004203615922</coordinates>
            </LinearRing>
          </outerBoundaryIs>
        </Polygon>
      </Placemark>
      <Placemark xmlns="http://www.opengis.net/kml/2.2">
        <styleUrl>#Parti singole_style_map</styleUrl>
        <name>T03579</name>
        <Polygon>
          <outerBoundaryIs>
            <LinearRing>
              <coordinates>8.50313380667567,39.1630264184475 8.50315593712748,39.162835761947 8.50315967042661,39.1628036361322 8.50319460256818,39.1625027773283 8.50320705482049,39.1624389434399 8.50324491537931,39.1622449118588 8.50307443453726,39.1630403211667 8.50313380667567,39.1630264184475</coordinates>
            </LinearRing>
          </outerBoundaryIs>
        </Polygon>
      </Placemark>
      <Placemark xmlns="http://www.opengis.net/kml/2.2">
        <styleUrl>#Parti singole_style_map</styleUrl>
        <name>T00498</name>
        <Polygon>
          <outerBoundaryIs>
            <LinearRing>
              <coordinates>8.49261406322359,39.2570127099359 8.49333339241209,39.2572561686948 8.49326293226599,39.2570474711315 8.49313853610423,39.2566854015289 8.49305551276712,39.2564382003842 8.49302266302385,39.2563968693046 8.49299353897277,39.2562888841682 8.49297066688441,39.2562911723594 8.4929484803382,39.2562192602956 8.4929256895848,39.2562134842425 8.49291886823924,39.2561886480216 8.49288793890712,39.256204101786 8.49286007449837,39.2563619111609 8.49282380090113,39.2564707556968 8.49274114520101,39.2567191992879 8.49269981380751,39.2568945027788 8.49268587206789,39.2569746824095 8.49265923886328,39.2570018597555 8.49261406322359,39.2570127099359</coordinates>
            </LinearRing>
          </outerBoundaryIs>
        </Polygon>
      </Placemark>
      <Placemark xmlns="http://www.opengis.net/kml/2.2">
        <styleUrl>#Parti singole_style_map</styleUrl>
        <name>T00496</name>
        <Polygon>
          <outerBoundaryIs>
            <LinearRing>
              <coordinates>8.49201683253965,39.2561734236597 8.49213634855957,39.2562248558302 8.49234775476932,39.2562885738911 8.49249798895326,39.2563924558945 8.49260632224561,39.2565337297023 8.49262331864119,39.2566984926302 8.49261981090784,39.2569405501677 8.49268665487964,39.2566765212966 8.49275316539872,39.2564763408442 8.49279921910401,39.25633241519 8.49275313517395,39.2562780238929 8.49260491995468,39.2563650069694 8.49228030280124,39.2561100386819 8.49195776037636,39.2560671997852 8.49201683253965,39.2561734236597</coordinates>
            </LinearRing>
          </outerBoundaryIs>
        </Polygon>
      </Placemark>
      <Placemark xmlns="http://www.opengis.net/kml/2.2">
        <styleUrl>#Parti singole_style_map</styleUrl>
        <name>T00497</name>
        <Polygon>
          <outerBoundaryIs>
            <LinearRing>
              <coordinates>8.48376680694002,39.2558661855615 8.48446257434159,39.2558444002574 8.48526905370399,39.255820361268 8.48629052049514,39.2557908052082 8.48707962621392,39.2557666409418 8.48715819243471,39.255763761355 8.48712011553934,39.2557134218971 8.48675781278399,39.2553767432035 8.48644806642803,39.2550918275841 8.48616733077929,39.2548356212139 8.48542490630146,39.2550659076057 8.48442949972032,39.2553806435145 8.48369590810042,39.255868159762 8.48376680694002,39.2558661855615</coordinates>
            </LinearRing>
          </outerBoundaryIs>
        </Polygon>
      </Placemark>
      <Placemark xmlns="http://www.opengis.net/kml/2.2">
        <styleUrl>#Parti singole_style_map</styleUrl>
        <name>T00493</name>
        <Polygon>
          <outerBoundaryIs>
            <LinearRing>
              <coordinates>8.50787530414067,39.2517480727383 8.50795631324268,39.2517696445469 8.50803326204058,39.2518299182242 8.50840361168952,39.2521200066857 8.50844065678,39.2521839140493 8.50852857787916,39.252228131576 8.50998623817724,39.2524871013028 8.51071241779886,39.2528074603996 8.51119589560467,39.2535198075632 8.51233262126224,39.2544870119802 8.51277117008939,39.2548596311462 8.51317145851682,39.2551997401036 8.51336023048765,39.2553444038513 8.51388167260158,39.2557401174852 8.51402840495817,39.2555601464625 8.51416235050864,39.255320110456 8.51424359298914,39.2552567347863 8.51435531534449,39.2552439192749 8.51460726855741,39.2552690380927 8.51477506703784,39.2552824880376 8.51477115663151,39.2550563386388 8.51363026638323,39.2541924756048 8.51273804828986,39.2535208233347 8.51286347704412,39.2513324898427 8.51286453081193,39.2513142024759 8.51312946583476,39.2498733151596 8.51179913380513,39.2504754886973 8.51073887756148,39.2509576064067 8.50946350233301,39.251146635018 8.50761273136788,39.2514275859121 8.50787530414067,39.2517480727383</coordinates>
            </LinearRing>
          </outerBoundaryIs>
          <innerBoundaryIs>
            <LinearRing>
              <coordinates>8.51021313696878,39.2514316208973 8.51035311067491,39.251443482334 8.51040659836722,39.2514480144963 8.51057325811715,39.2514621324866 8.51060118503869,39.2516275246871 8.5107069259744,39.2516858181813 8.51028048908659,39.2516254187124 8.51018288450134,39.2515770798871 8.51021313696878,39.2514316208973</coordinates>
            </LinearRing>
          </innerBoundaryIs>
          <innerBoundaryIs>
            <LinearRing>
              <coordinates>8.51184505469764,39.2513115705557 8.51200419803792,39.2512965593296 8.51229288528906,39.2513050321628 8.5122734359151,39.2514725772209 8.51226349012951,39.2517269804585 8.51212505193206,39.251963166036 8.51202087817547,39.2519844631395 8.51201058733164,39.2517337776075 8.51199776072295,39.2516414900183 8.51187826981936,39.251478552509 8.51184505469764,39.2513115705557</coordinates>
            </LinearRing>
          </innerBoundaryIs>
        </Polygon>
      </Placemark>
      <Placemark xmlns="http://www.opengis.net/kml/2.2">
        <styleUrl>#Parti singole_style_map</styleUrl>
        <name>T00494</name>
        <Polygon>
          <outerBoundaryIs>
            <LinearRing>
              <coordinates>8.51018288450134,39.2515770798871 8.51028048908659,39.2516254187124 8.5107069259744,39.2516858181813 8.51060118503869,39.2516275246871 8.51057325811715,39.2514621324866 8.51040659836722,39.2514480144963 8.51035311067491,39.251443482334 8.51021313696878,39.2514316208973 8.51018288450134,39.2515770798871</coordinates>
            </LinearRing>
          </outerBoundaryIs>
        </Polygon>
      </Placemark>
      <Placemark xmlns="http://www.opengis.net/kml/2.2">
        <styleUrl>#Parti singole_style_map</styleUrl>
        <name>T00495</name>
        <Polygon>
          <outerBoundaryIs>
            <LinearRing>
              <coordinates>8.51187826981936,39.251478552509 8.51199776072295,39.2516414900183 8.51201058733164,39.2517337776075 8.51202087817547,39.2519844631395 8.51212505193206,39.251963166036 8.51226349012951,39.2517269804585 8.5122734359151,39.2514725772209 8.51229288528906,39.2513050321628 8.51200419803792,39.2512965593296 8.51184505469764,39.2513115705557 8.51187826981936,39.251478552509</coordinates>
            </LinearRing>
          </outerBoundaryIs>
        </Polygon>
      </Placemark>
      <Placemark xmlns="http://www.opengis.net/kml/2.2">
        <styleUrl>#Parti singole_style_map</styleUrl>
        <name>T03546</name>
        <Polygon>
          <outerBoundaryIs>
            <LinearRing>
              <coordinates>8.54649436392119,39.2776643998709 8.54650053786339,39.2776382929169 8.54646963177067,39.2776397132768 8.54649436392119,39.2776643998709</coordinates>
            </LinearRing>
          </outerBoundaryIs>
        </Polygon>
      </Placemark>
      <Placemark xmlns="http://www.opengis.net/kml/2.2">
        <styleUrl>#Parti singole_style_map</styleUrl>
        <name>T03542</name>
        <Polygon>
          <outerBoundaryIs>
            <LinearRing>
              <coordinates>8.54576548332101,39.2764450043275 8.54576828620901,39.2766104606907 8.54576930112801,39.2766848299397 8.54579648380718,39.2768056343499 8.54580593012168,39.2768921108445 8.54580283220881,39.2769947486122 8.54582563245097,39.2770743299849 8.54587098778875,39.2771817433259 8.54591815402272,39.2773013822196 8.54594568932022,39.2773928040785 8.54599937227458,39.2775194876995 8.54600647914832,39.27757153418 8.54601735911812,39.2776173960231 8.54603370969486,39.2776832469125 8.54604925881475,39.2777618988708 8.54616541835126,39.2776536920444 8.54616024605029,39.2776539331791 8.54600845657733,39.2773838671133 8.54606127441975,39.2772460203142 8.5460981662426,39.2771165814127 8.54610631303448,39.2770883916921 8.54604605269689,39.2768941202415 8.54589871628535,39.276509347173 8.54577953740792,39.2762561949648 8.54577567315492,39.2763069912055 8.54576679588542,39.2764159139084 8.54576548332101,39.2764450043275</coordinates>
            </LinearRing>
          </outerBoundaryIs>
        </Polygon>
      </Placemark>
      <Placemark xmlns="http://www.opengis.net/kml/2.2">
        <styleUrl>#Parti singole_style_map</styleUrl>
        <name>T03543</name>
        <Polygon>
          <outerBoundaryIs>
            <LinearRing>
              <coordinates>8.54517015103668,39.275328839115 8.54517329973239,39.2753868893382 8.54517907708344,39.275461529523 8.54521528451855,39.2756350549263 8.54545612533713,39.2757010172698 8.54559150994151,39.2757783803266 8.54574555040235,39.27586441227 8.54577752470724,39.2758949121654 8.54580073638248,39.2759538246208 8.54579566433945,39.2760623567058 8.54578579491789,39.2761741229223 8.54577953740792,39.2762561949648 8.54589871628535,39.276509347173 8.54604605269689,39.2768941202415 8.54610631303448,39.2770883916921 8.54613756072085,39.2769801779795 8.54616716591297,39.2768426370405 8.54619933315726,39.2767015018044 8.54626221133146,39.2766267960507 8.54634030086695,39.276533984007 8.54639502837599,39.27635871404 8.54641537513127,39.2762957815507 8.54643636532972,39.2761690648315 8.54645918111778,39.276095392194 8.54647409879957,39.2759718776222 8.54649046650427,39.2758230666551 8.54649174864162,39.2757141953759 8.54622052554543,39.2757534517543 8.54607341219376,39.2757382535357 8.54601804773738,39.2755615719924 8.5459748208342,39.2754262968928 8.54587924894298,39.2751208396405 8.54581719288736,39.2749159644184 8.54574093554433,39.2746752251887 8.54573815562982,39.2746640861201 8.54563631513721,39.2742544224322 8.54551713320003,39.2737783450948 8.54550635984458,39.2738416392355 8.54549261399118,39.2739415142224 8.54551687376165,39.2740569369557 8.54551444730577,39.2741991253555 8.5455147423482,39.2742305918766 8.54545609342119,39.2743775615829 8.5454185629672,39.2744749377736 8.54539209829701,39.2745426939608 8.54534668375661,39.2746347860818 8.54531558213316,39.2746988928177 8.54526308756395,39.2748011843799 8.54523667244609,39.2748522799365 8.54518131483185,39.2749580474093 8.54518094346139,39.2749778154333 8.54517911885297,39.2751343782211 8.54517396536733,39.2751675715147 8.54516532426471,39.2752542116548 8.54517015103668,39.275328839115</coordinates>
            </LinearRing>
          </outerBoundaryIs>
        </Polygon>
      </Placemark>
      <Placemark xmlns="http://www.opengis.net/kml/2.2">
        <styleUrl>#Parti singole_style_map</styleUrl>
        <name>T03544</name>
        <Polygon>
          <outerBoundaryIs>
            <LinearRing>
              <coordinates>8.5453278072361,39.2801226678812 8.54543754664359,39.2801725203277 8.54585975255596,39.2803162947547 8.54588138831054,39.280168973294 8.54591602544667,39.2795364677543 8.54593670334981,39.2793794289973 8.5459972931914,39.2791496765013 8.54602008833866,39.2790830142294 8.54635456755774,39.2782590383641 8.54641045238655,39.2780196258151 8.54649436392119,39.2776643998709 8.54646963177067,39.2776397132768 8.54616541835126,39.2776536920444 8.54604925881475,39.2777618988708 8.54607836443403,39.2779351439354 8.54608254153611,39.2779938559029 8.5460361362545,39.2781368097457 8.5460482566894,39.2782347492292 8.5459785822433,39.2784100597639 8.54595870192503,39.2784598563795 8.54592179967171,39.2785494859157 8.54587161233267,39.2786729798389 8.5458148917144,39.2788081351041 8.54579968672684,39.2788376938993 8.54577803903558,39.2788810679661 8.54568960479761,39.279049150575 8.54563666953971,39.2791743456866 8.54558251501764,39.2793015994578 8.54554754767822,39.2793841089595 8.54553050225958,39.2794275099628 8.54549237617086,39.2794964640356 8.54543341250954,39.279603560044 8.54541074314724,39.2797205654255 8.54539469061031,39.2797968503027 8.54537774822188,39.2798780605484 8.54536449704634,39.2799496347627 8.54534944148919,39.2800187510153 8.54533818367953,39.2800743120038 8.5453278072361,39.2801226678812</coordinates>
            </LinearRing>
          </outerBoundaryIs>
        </Polygon>
      </Placemark>
      <Placemark xmlns="http://www.opengis.net/kml/2.2">
        <styleUrl>#Parti singole_style_map</styleUrl>
        <name>T03545</name>
        <Polygon>
          <outerBoundaryIs>
            <LinearRing>
              <coordinates>8.54586879918161,39.2803193756803 8.54602195169584,39.2796757899638 8.54616201447175,39.2790838742939 8.54635456755774,39.2782590383641 8.54602008833866,39.2790830142294 8.5459972931914,39.2791496765013 8.54593670334981,39.2793794289973 8.54591602544667,39.2795364677543 8.54588138831054,39.280168973294 8.54585975255596,39.2803162947547 8.54586879918161,39.2803193756803</coordinates>
            </LinearRing>
          </outerBoundaryIs>
        </Polygon>
      </Placemark>
    </Folder>
  </Document>
</kml>

