<?xml version="1.0" encoding="UTF-8"?>
<kml xmlns="http://www.opengis.net/kml/2.2">
  <Document xmlns="">
    <Folder>
      <name>Patrimonio IGEA</name>
      <Placemark xmlns="http://www.opengis.net/kml/2.2">
        <styleUrl>#Parti singole_style_map</styleUrl>
        <name>F01651</name>
        <Polygon>
          <outerBoundaryIs>
            <LinearRing>
              <coordinates>9.3679489691395,39.567352529784 9.36818658279818,39.5673823408131 9.36818314738008,39.5674085715636 9.368294698402,39.567423986425 9.36829811713711,39.5673968096461 9.36838664808817,39.5674113962703 9.36839594333062,39.5673617202627 9.36795951353156,39.5673056610628 9.3679489691395,39.567352529784</coordinates>
            </LinearRing>
          </outerBoundaryIs>
        </Polygon>
      </Placemark>
      <Placemark xmlns="http://www.opengis.net/kml/2.2">
        <styleUrl>#Parti singole_style_map</styleUrl>
        <name>T00256</name>
        <Polygon>
          <outerBoundaryIs>
            <LinearRing>
              <coordinates>9.36323417970719,39.5728313148957 9.36325246850353,39.5729582573974 9.36328523580791,39.5730418063213 9.36367008640489,39.5730198982536 9.36366317043326,39.5729886272435 9.36358671555573,39.5728663987816 9.36353471442913,39.572814103568 9.36350169222684,39.5728000065902 9.36329750858585,39.5727093885262 9.36317679732472,39.5726914025363 9.36323417970719,39.5728313148957</coordinates>
            </LinearRing>
          </outerBoundaryIs>
        </Polygon>
      </Placemark>
      <Placemark xmlns="http://www.opengis.net/kml/2.2">
        <styleUrl>#Parti singole_style_map</styleUrl>
        <name>T00257</name>
        <Polygon>
          <outerBoundaryIs>
            <LinearRing>
              <coordinates>9.36221426900639,39.5678317443216 9.3622185796347,39.5678637083398 9.36223290257411,39.5680278758674 9.36223413018578,39.5681856508342 9.36220180101889,39.5683447286458 9.36226966342914,39.5683450849837 9.362346603476,39.5681478358735 9.36241416182706,39.5680517111332 9.36243959609092,39.5679145677074 9.36244393862006,39.5678161079947 9.3624367548081,39.5677577528518 9.36219216780414,39.5677501350567 9.36221426900639,39.5678317443216</coordinates>
            </LinearRing>
          </outerBoundaryIs>
        </Polygon>
      </Placemark>
      <Placemark xmlns="http://www.opengis.net/kml/2.2">
        <styleUrl>#Parti singole_style_map</styleUrl>
        <name>T00258</name>
        <Polygon>
          <outerBoundaryIs>
            <LinearRing>
              <coordinates>9.36213536860892,39.5672082090943 9.36214129619224,39.5672981942149 9.36216853891715,39.5674888117358 9.362183316029,39.5676060073394 9.36220068728081,39.5677474505029 9.36227610403773,39.5677476932148 9.36249254874891,39.5677545245315 9.36261930225988,39.567751849903 9.36281975543709,39.5677751471636 9.36304027676136,39.5678024450839 9.36336628736392,39.567832503659 9.36341939976533,39.5678307519431 9.36354564320862,39.5678217797206 9.36409023298716,39.5678214100964 9.36418972151238,39.5678209725377 9.36430166845248,39.5678319929813 9.36443651977619,39.5678261464284 9.36456187311029,39.5678718141508 9.36477649403641,39.5679237703454 9.36494387386287,39.5679603766923 9.36521885416285,39.5679826791279 9.36541980535606,39.5680407139255 9.36531873395845,39.5678836220027 9.36528366385307,39.5678027208172 9.36520713937829,39.5676910896012 9.36515500582355,39.5676041239689 9.36510080740276,39.5674874309091 9.36505718887352,39.5674146837388 9.36502190392499,39.5672948858145 9.36497360101809,39.567210142621 9.36485808451588,39.5672665037919 9.3648158107794,39.5672771062999 9.36477093142068,39.5672658760731 9.36470092598887,39.5671694874645 9.36464020066751,39.5671334565426 9.364542211344,39.5671154097274 9.36439271705746,39.5671036151122 9.36415525496946,39.5671312813587 9.36394796147585,39.5672201225663 9.36393880192433,39.5672250528075 9.36384090277604,39.5672777807761 9.36372113798934,39.5674014337762 9.36367289860628,39.5674289577832 9.3636260580984,39.5674568468185 9.36356404369634,39.5675061556127 9.36352432619393,39.5675292649243 9.36348406069067,39.5675410590381 9.36334205862805,39.5674681500469 9.36327690079396,39.5674147424402 9.36308034243961,39.5673277222031 9.36288461624491,39.5672193266789 9.36273799711297,39.567138123878 9.36251999813192,39.5670290853696 9.36237896901299,39.5670421391359 9.36219255033704,39.5670644164061 9.36214530076536,39.567080863079 9.36212148244986,39.5670720080461 9.36213536860892,39.5672082090943</coordinates>
            </LinearRing>
          </outerBoundaryIs>
        </Polygon>
      </Placemark>
      <Placemark xmlns="http://www.opengis.net/kml/2.2">
        <styleUrl>#Parti singole_style_map</styleUrl>
        <name>T00264</name>
        <Polygon>
          <outerBoundaryIs>
            <LinearRing>
              <coordinates>9.36891326524676,39.567737520947 9.36896923861207,39.5677616441177 9.36917659382571,39.5678347893531 9.36921588724774,39.5678659933447 9.36924133411295,39.5679139282863 9.36934314289141,39.5679756407769 9.36943211317796,39.5680377813907 9.36952467001998,39.5681132277157 9.36959037074196,39.568182362004 9.36968239853211,39.5682282381902 9.3698441222613,39.568196575654 9.36997922352455,39.5682026784972 9.36992176949039,39.568092755764 9.36988430598278,39.5679677313061 9.36989498757895,39.5677956102702 9.3698879039834,39.5677419586374 9.36992100074375,39.5676672393818 9.37000386734696,39.5675752423216 9.36992975781855,39.5674769147048 9.36983123766825,39.567256097984 9.36977483452871,39.5671794827758 9.3697518206426,39.5671096002112 9.36966673042302,39.5669842855262 9.36965600088054,39.566976273452 9.3694953500037,39.5670824111922 9.36940528497942,39.5671956589459 9.36927104820339,39.5672798175444 9.36909066596924,39.5674479989796 9.36892114518747,39.5675942957902 9.36884976053596,39.5677333523385 9.36891326524676,39.567737520947</coordinates>
            </LinearRing>
          </outerBoundaryIs>
          <innerBoundaryIs>
            <LinearRing>
              <coordinates>9.36959687564352,39.5670404432233 9.36962657627086,39.5670234005446 9.36964464957518,39.5670463733615 9.36961493264614,39.5670603435954 9.36959687564352,39.5670404432233</coordinates>
            </LinearRing>
          </innerBoundaryIs>
        </Polygon>
      </Placemark>
      <Placemark xmlns="http://www.opengis.net/kml/2.2">
        <styleUrl>#Parti singole_style_map</styleUrl>
        <name>T00252</name>
        <Polygon>
          <outerBoundaryIs>
            <LinearRing>
              <coordinates>9.36988430598278,39.5679677313061 9.36992176949039,39.568092755764 9.36997922352455,39.5682026784972 9.37010892934704,39.5682845025998 9.3701876414861,39.5682584737785 9.37024858058685,39.5682660917418 9.37035561253322,39.5681931643397 9.37042666875908,39.5681745751785 9.37053282089424,39.5681420524451 9.3706699679447,39.5681366238395 9.37059942771087,39.5680508275784 9.37048147505317,39.5679658850792 9.37035712747603,39.5678539320199 9.37021125137616,39.5677282165805 9.37012295362742,39.5676634344125 9.37007889290404,39.5675873477352 9.37003608948639,39.5675572814826 9.37000386734696,39.5675752423216 9.36992100074375,39.5676672393818 9.3698879039834,39.5677419586374 9.36989498757895,39.5677956102702 9.36988430598278,39.5679677313061</coordinates>
            </LinearRing>
          </outerBoundaryIs>
        </Polygon>
      </Placemark>
      <Placemark xmlns="http://www.opengis.net/kml/2.2">
        <styleUrl>#Parti singole_style_map</styleUrl>
        <name>T00253</name>
        <Polygon>
          <outerBoundaryIs>
            <LinearRing>
              <coordinates>9.37035712747603,39.5678539320199 9.37048147505317,39.5679658850792 9.37059942771087,39.5680508275784 9.3706699679447,39.5681366238395 9.37074384862013,39.5681850438396 9.37079555927254,39.5681911411611 9.37087687466979,39.5681949545848 9.37100601876758,39.568232304806 9.37104522676134,39.5682079151107 9.37095515836753,39.5681628717114 9.37088612641776,39.5681199236387 9.37077149646528,39.5680184640352 9.37068481050173,39.567952640981 9.37060979157289,39.5678959080919 9.37052834774107,39.5677868639925 9.37049751012996,39.5677324050486 9.37047397808133,39.567648441239 9.37047127005436,39.5676427193337 9.37042439589435,39.5677711027109 9.37035712747603,39.5678539320199</coordinates>
            </LinearRing>
          </outerBoundaryIs>
        </Polygon>
      </Placemark>
      <Placemark xmlns="http://www.opengis.net/kml/2.2">
        <styleUrl>#Parti singole_style_map</styleUrl>
        <name>T00268</name>
        <Polygon>
          <outerBoundaryIs>
            <LinearRing>
              <coordinates>9.36614503022826,39.5684787923449 9.36631382843425,39.5686032243184 9.36643324576139,39.5686995734269 9.36663290963287,39.5688243401951 9.36678356650453,39.5689014076245 9.36684388990685,39.5689534679406 9.36697069929533,39.569064921413 9.36713178054206,39.5689615339591 9.36727971143884,39.5689011667642 9.36743826692635,39.5689194704877 9.36743421446251,39.5688287499187 9.36741487643027,39.5687380866367 9.3673618682747,39.5685808537174 9.36729949010607,39.5684459868029 9.36729829083019,39.5683554013771 9.36729139244239,39.5682702581239 9.36727560904646,39.5681736368108 9.36677488032925,39.5682862861581 9.36609343083457,39.5684473016746 9.36614503022826,39.5684787923449</coordinates>
            </LinearRing>
          </outerBoundaryIs>
        </Polygon>
      </Placemark>
      <Placemark xmlns="http://www.opengis.net/kml/2.2">
        <styleUrl>#Parti singole_style_map</styleUrl>
        <name>T00269</name>
        <Polygon>
          <outerBoundaryIs>
            <LinearRing>
              <coordinates>9.36995114616614,39.5650432542324 9.3700906842393,39.5651340844418 9.37018664420405,39.5651735955082 9.37028164985354,39.5652372390359 9.37039688535907,39.5653025029965 9.3704948429865,39.5653344928811 9.37059525926346,39.565331875414 9.37082141075673,39.5654577130026 9.37094335562843,39.5655060517648 9.37104790854506,39.5651980266317 9.37119048537954,39.5652252152971 9.37129411073108,39.5652568530434 9.37139918796485,39.5653228061795 9.37153064742673,39.5653433983603 9.37157808530857,39.5653214239748 9.37160541633033,39.5652946752851 9.37129415258696,39.5649784716046 9.37061092361304,39.5642867602525 9.37033795090274,39.5643221749406 9.37023017387914,39.5644728723894 9.37015689506808,39.5645676413417 9.36998547178136,39.5646476752734 9.37017088451349,39.5648102884774 9.37017630743029,39.5648406088033 9.37008047697738,39.564919663466 9.36995114616614,39.5650432542324</coordinates>
            </LinearRing>
          </outerBoundaryIs>
        </Polygon>
      </Placemark>
      <Placemark xmlns="http://www.opengis.net/kml/2.2">
        <styleUrl>#Parti singole_style_map</styleUrl>
        <name>T00273</name>
        <Polygon>
          <outerBoundaryIs>
            <LinearRing>
              <coordinates>9.36713657625502,39.5673439237514 9.36718165242045,39.5673349784539 9.36717918426375,39.5673062344806 9.3671344729077,39.5673137099522 9.36713657625502,39.5673439237514</coordinates>
            </LinearRing>
          </outerBoundaryIs>
        </Polygon>
      </Placemark>
      <Placemark xmlns="http://www.opengis.net/kml/2.2">
        <styleUrl>#Parti singole_style_map</styleUrl>
        <name>T00274</name>
        <Polygon>
          <outerBoundaryIs>
            <LinearRing>
              <coordinates>9.3679489691395,39.567352529784 9.36818658279818,39.5673823408131 9.36818314738008,39.5674085715636 9.368294698402,39.567423986425 9.36829811713711,39.5673968096461 9.36838664808817,39.5674113962703 9.36839594333062,39.5673617202627 9.36795951353156,39.5673056610628 9.3679489691395,39.567352529784</coordinates>
            </LinearRing>
          </outerBoundaryIs>
        </Polygon>
      </Placemark>
      <Placemark xmlns="http://www.opengis.net/kml/2.2">
        <styleUrl>#Parti singole_style_map</styleUrl>
        <name>T00275</name>
        <Polygon>
          <outerBoundaryIs>
            <LinearRing>
              <coordinates>9.36774936754573,39.5673522740935 9.36781431215877,39.5673602016339 9.36782331868894,39.5673099407741 9.36776084656528,39.5673020054223 9.36774936754573,39.5673522740935</coordinates>
            </LinearRing>
          </outerBoundaryIs>
        </Polygon>
      </Placemark>
      <Placemark xmlns="http://www.opengis.net/kml/2.2">
        <styleUrl>#Parti singole_style_map</styleUrl>
        <name>T00276</name>
        <Polygon>
          <outerBoundaryIs>
            <LinearRing>
              <coordinates>9.36840501138584,39.5678900535901 9.36844322240805,39.5678839407476 9.36844175970188,39.567873718728 9.36846192900965,39.56787039313 9.36845620087159,39.5678505075944 9.3684304956243,39.5678570854099 9.36842890112919,39.5678483595116 9.36839533053508,39.5678557911737 9.36840501138584,39.5678900535901</coordinates>
            </LinearRing>
          </outerBoundaryIs>
        </Polygon>
      </Placemark>
      <Placemark xmlns="http://www.opengis.net/kml/2.2">
        <styleUrl>#Parti singole_style_map</styleUrl>
        <name>T00277</name>
        <Polygon>
          <outerBoundaryIs>
            <LinearRing>
              <coordinates>9.36845495639513,39.5670250719599 9.3686530689287,39.5670504749777 9.3686376299487,39.567105090083 9.36879269111165,39.5671193574327 9.36878655677751,39.5671613106642 9.3688938300953,39.5671757924343 9.36891292441184,39.5670838001248 9.36894351621061,39.5670877216869 9.36896731712336,39.5669897856842 9.36847611865515,39.5669211615951 9.36845495639513,39.5670250719599</coordinates>
            </LinearRing>
          </outerBoundaryIs>
        </Polygon>
      </Placemark>
      <Placemark xmlns="http://www.opengis.net/kml/2.2">
        <styleUrl>#Parti singole_style_map</styleUrl>
        <name>T00278</name>
        <Polygon>
          <outerBoundaryIs>
            <LinearRing>
              <coordinates>9.36892122267804,39.5671317534833 9.36896038148813,39.5671354316257 9.3689651524622,39.567106448484 9.36893013593918,39.5671001622495 9.36892122267804,39.5671317534833</coordinates>
            </LinearRing>
          </outerBoundaryIs>
        </Polygon>
      </Placemark>
      <Placemark xmlns="http://www.opengis.net/kml/2.2">
        <styleUrl>#Parti singole_style_map</styleUrl>
        <name>T00279</name>
        <Polygon>
          <outerBoundaryIs>
            <LinearRing>
              <coordinates>9.36873374808367,39.5674029442147 9.36884932405674,39.5674309511493 9.3688836986109,39.56734232529 9.36876813822767,39.567315039161 9.36873374808367,39.5674029442147</coordinates>
            </LinearRing>
          </outerBoundaryIs>
        </Polygon>
      </Placemark>
      <Placemark xmlns="http://www.opengis.net/kml/2.2">
        <styleUrl>#Parti singole_style_map</styleUrl>
        <name>T00280</name>
        <Polygon>
          <outerBoundaryIs>
            <LinearRing>
              <coordinates>9.36862328483524,39.5673841024265 9.36863410410573,39.5673848790667 9.36864708265863,39.5673823060541 9.36865381796696,39.5673791130962 9.3686623007646,39.5673717518565 9.36866670316321,39.5673632952847 9.36866716276496,39.5673533464932 9.36866299156702,39.5673438899213 9.36865504717181,39.5673363915243 9.36864666658582,39.5673322643489 9.36863451161058,39.5673298700944 9.36862182769162,39.5673309194367 9.3686115914819,39.5673347271739 9.36860451665285,39.5673397592997 9.36859854021187,39.567347761333 9.36859688823382,39.5673523798241 9.36859670339574,39.5673614537488 9.36859955991609,39.567368869158 9.36860504299003,39.5673754382899 9.36861288214626,39.5673806484159 9.36862328483524,39.5673841024265</coordinates>
            </LinearRing>
          </outerBoundaryIs>
        </Polygon>
      </Placemark>
      <Placemark xmlns="http://www.opengis.net/kml/2.2">
        <styleUrl>#Parti singole_style_map</styleUrl>
        <name>T00281</name>
        <Polygon>
          <outerBoundaryIs>
            <LinearRing>
              <coordinates>9.36961493264614,39.5670603435954 9.36964464957518,39.5670463733615 9.36962657627086,39.5670234005446 9.36959687564352,39.5670404432233 9.36961493264614,39.5670603435954</coordinates>
            </LinearRing>
          </outerBoundaryIs>
        </Polygon>
      </Placemark>
      <Placemark xmlns="http://www.opengis.net/kml/2.2">
        <styleUrl>#Parti singole_style_map</styleUrl>
        <name>T00282</name>
        <Polygon>
          <outerBoundaryIs>
            <LinearRing>
              <coordinates>9.36694837843335,39.5668734337043 9.36705579041344,39.5669077663564 9.36710638349839,39.5668235048691 9.36699585607032,39.5667855869944 9.36694837843335,39.5668734337043</coordinates>
            </LinearRing>
          </outerBoundaryIs>
        </Polygon>
      </Placemark>
      <Placemark xmlns="http://www.opengis.net/kml/2.2">
        <styleUrl>#Parti singole_style_map</styleUrl>
        <name>T00259</name>
        <Polygon>
          <outerBoundaryIs>
            <LinearRing>
              <coordinates>9.36502190392499,39.5672948858145 9.36505718887352,39.5674146837388 9.36510080740276,39.5674874309091 9.36515500582355,39.5676041239689 9.36520713937829,39.5676910896012 9.36563220235616,39.5676109145681 9.36589735046114,39.5675678948346 9.36604248290626,39.5674959598112 9.36601988550712,39.5674448345724 9.36598333236571,39.5673587483447 9.36594262047387,39.5672521858372 9.3659223335604,39.5672286697802 9.36583522952005,39.5672152030734 9.36579239739458,39.5670306813274 9.3658012039716,39.5669696270891 9.36582608102165,39.5669516634795 9.36585915165354,39.5669355121914 9.36594220613004,39.5669249882651 9.36588558015895,39.5668915400552 9.36581760831229,39.5668124093935 9.3657674516699,39.5667938077248 9.36564574031594,39.5667697544904 9.3655948471618,39.5667683016032 9.36552930673177,39.5667864199699 9.36545921814978,39.5668474324559 9.36539450985788,39.5669376843418 9.36533692145113,39.5669626524574 9.3653169083182,39.5669713201121 9.36520735169894,39.5669985507386 9.36513287544161,39.5670443404369 9.36504526631813,39.5671477288914 9.36497360101809,39.567210142621 9.36502190392499,39.5672948858145</coordinates>
            </LinearRing>
          </outerBoundaryIs>
        </Polygon>
      </Placemark>
      <Placemark xmlns="http://www.opengis.net/kml/2.2">
        <styleUrl>#Parti singole_style_map</styleUrl>
        <name>T03515</name>
        <Polygon>
          <outerBoundaryIs>
            <LinearRing>
              <coordinates>9.36939195073835,39.5668697728807 9.36956235617463,39.5669061737594 9.36965600088054,39.566976273452 9.36966673042302,39.5669842855262 9.3697518206426,39.5671096002112 9.36977483452871,39.5671794827758 9.36983123766825,39.567256097984 9.36992975781855,39.5674769147048 9.37000386734696,39.5675752423216 9.37003608948639,39.5675572814826 9.37007889290404,39.5675873477352 9.37012295362742,39.5676634344125 9.37021125137616,39.5677282165805 9.37035712747603,39.5678539320199 9.37042439589435,39.5677711027109 9.37047127005436,39.5676427193337 9.37035846339888,39.5674043515145 9.37019875854322,39.5671165943786 9.37014426953246,39.5670409553761 9.37002726039861,39.5668657985967 9.36988570973012,39.566650858302 9.36977147501999,39.5665002904622 9.36969623677602,39.5665290560987 9.36957281663131,39.5665890601899 9.36942951015244,39.5666530287496 9.36935637077623,39.5666912753128 9.36925893456431,39.5667645407742 9.36939195073835,39.5668697728807</coordinates>
            </LinearRing>
          </outerBoundaryIs>
          <innerBoundaryIs>
            <LinearRing>
              <coordinates>9.37036394611219,39.5677393808186 9.37039584487982,39.567763525884 9.37033505107668,39.5678116450407 9.37030316399731,39.5677875089318 9.37036394611219,39.5677393808186</coordinates>
            </LinearRing>
          </innerBoundaryIs>
        </Polygon>
      </Placemark>
      <Placemark xmlns="http://www.opengis.net/kml/2.2">
        <styleUrl>#Parti singole_style_map</styleUrl>
        <name>T00260</name>
        <Polygon>
          <outerBoundaryIs>
            <LinearRing>
              <coordinates>9.36579239739458,39.5670306813274 9.36583522952005,39.5672152030734 9.3659223335604,39.5672286697802 9.36594262047387,39.5672521858372 9.36598333236571,39.5673587483447 9.36601988550712,39.5674448345724 9.36604248290626,39.5674959598112 9.36607937185145,39.5675750259631 9.36620750858095,39.5676606436874 9.36636420436947,39.5677598218858 9.36655105444552,39.5678570847871 9.36667812127351,39.5679360738017 9.36682397684262,39.5680258427822 9.36701773545778,39.5681193619021 9.36727560904646,39.5681736368108 9.36725747568824,39.5680375669564 9.36727799710528,39.5679110701097 9.36726850210542,39.5677197941038 9.36723085168594,39.5675959136691 9.36719275316498,39.5674642948142 9.36718165242045,39.5673349784539 9.36713657625502,39.5673439237514 9.3671344729077,39.5673137099522 9.36717918426375,39.5673062344806 9.36717317600274,39.5672353156077 9.36714063933503,39.5672423021414 9.36709793663791,39.5671404677023 9.3671242780914,39.5671331403209 9.3670910795318,39.5670564595823 9.36715546881545,39.5670386322976 9.36714511141291,39.5669840897929 9.36712256111486,39.5669442364617 9.36708212532746,39.5669389939424 9.36699200010568,39.5669663631598 9.36681809798168,39.5670417329017 9.36676360205508,39.5670237940861 9.36669058002385,39.5669563751882 9.36657658340427,39.5669007536634 9.36640564201836,39.5668152621501 9.36627242896197,39.5667669360937 9.36624594531586,39.5668335873376 9.36617284666951,39.5669109723763 9.36603156244869,39.5669373395434 9.36594220613004,39.5669249882651 9.36585915165354,39.5669355121914 9.36582608102165,39.5669516634795 9.3658012039716,39.5669696270891 9.36579239739458,39.5670306813274</coordinates>
            </LinearRing>
          </outerBoundaryIs>
        </Polygon>
      </Placemark>
      <Placemark xmlns="http://www.opengis.net/kml/2.2">
        <styleUrl>#Parti singole_style_map</styleUrl>
        <name>T00265</name>
        <Polygon>
          <outerBoundaryIs>
            <LinearRing>
              <coordinates>9.36343405596814,39.5628636950085 9.36343684326424,39.5628892304309 9.36351552275486,39.5628799473031 9.36363176773847,39.5629019204879 9.36368314211428,39.5629314487525 9.3638035853933,39.5630685779732 9.36389619679282,39.5631769792678 9.36397756920449,39.5632642324946 9.36406982381678,39.5633911418659 9.36414334319765,39.5634792034421 9.36428432047686,39.5636313961233 9.36441800145748,39.5637750787552 9.36448819210296,39.5638519687841 9.36452819329199,39.5639035894503 9.36468018047147,39.564119467789 9.36486501223941,39.5643093834305 9.36499238166648,39.5644833236501 9.36505599427064,39.5645953740241 9.36514484781784,39.5647167788934 9.36510892171984,39.5647454542125 9.36506922870445,39.5647706183251 9.36503351103275,39.564816872007 9.36498601974165,39.5648667667251 9.36491343004237,39.5649367339466 9.36484745952962,39.5649858125743 9.36474750778774,39.5650882574263 9.3646552098881,39.5650738870624 9.36444869402583,39.5650073896668 9.36439340820562,39.5650004897875 9.36439683246967,39.5651010066613 9.36434670515417,39.5651656411672 9.36432976587392,39.5652344606086 9.36429464728206,39.5654065946822 9.36424988744816,39.5655583056134 9.36419430677151,39.5656688194016 9.36415459851308,39.5657647499116 9.3641613620149,39.5657869931183 9.36423069324813,39.5658862134136 9.36427134504006,39.5659975251515 9.36438310747321,39.5660472902633 9.36443039761077,39.5660967166361 9.36450855750866,39.5661387749814 9.36455962033737,39.5661705293508 9.36463714932873,39.5662232487349 9.36470248910895,39.5662424790669 9.36477247255014,39.566248107315 9.3648968914276,39.5662581059652 9.3649842102437,39.5662728341435 9.3650862036648,39.566288750611 9.36519847356943,39.5663240788905 9.36523532138673,39.5662401136429 9.36536967016952,39.5662522610962 9.36543979202527,39.5661910323078 9.36549939228278,39.5660836589018 9.36543638622089,39.5660432745835 9.36533654834076,39.5659876884449 9.36528680464733,39.5659011478324 9.36531352435356,39.5657817048812 9.36541345601955,39.565719805834 9.36554188574139,39.5656934167362 9.36561948267121,39.5657102293286 9.36576297709017,39.5656640241065 9.36583924240969,39.5656378437288 9.36587477712096,39.5655855895413 9.36589417729551,39.5655777796928 9.36593172889442,39.5655260958013 9.3660091710436,39.5654713400421 9.36607607217871,39.5653933889238 9.36609361800894,39.5653361995831 9.36608975961013,39.565282041977 9.36611269033419,39.5651463382057 9.36614047492253,39.5650526430553 9.36616162542621,39.5650124177071 9.36624372163965,39.56496398136 9.36633798312586,39.5649554491795 9.36648579231528,39.5648999849361 9.36637004015152,39.5648441254369 9.36622113493391,39.5647862707991 9.3661545827485,39.564746591814 9.36608477943837,39.5646220732916 9.36606627629974,39.564479246623 9.366089444653,39.564448655926 9.36605500188091,39.5643163673671 9.36605052314445,39.564254904371 9.36603533777504,39.564216226 9.3660201185935,39.5641356409552 9.36595627309827,39.5639705843991 9.36593706313138,39.5639103300592 9.36589543473967,39.5638217007954 9.36585796402541,39.5637666577491 9.36578137061437,39.5637099716925 9.36565127927007,39.5636252876303 9.36556555957385,39.5635552858987 9.36546201343742,39.5634822766118 9.36534197730976,39.5633636189086 9.36505169248538,39.5632251502289 9.36500287988096,39.563207030552 9.36487362396852,39.5631592670925 9.36483213215844,39.5631386375468 9.36481095898695,39.5630945085481 9.36470120065293,39.5630308977515 9.3645937472269,39.5629116141493 9.36443640519185,39.5628977627892 9.36437350048205,39.5628560530394 9.36426488921773,39.5626843509737 9.36405229447865,39.5625580346299 9.36398348915269,39.562552140955 9.36390556859489,39.5625550878019 9.36382383208207,39.5625406296678 9.36367484821672,39.5624975848731 9.36342343405971,39.5625434219119 9.36343759975537,39.5626213075322 9.36344432384075,39.5627343204308 9.36342253370302,39.5627346498006 9.36343405596814,39.5628636950085</coordinates>
            </LinearRing>
          </outerBoundaryIs>
        </Polygon>
      </Placemark>
      <Placemark xmlns="http://www.opengis.net/kml/2.2">
        <styleUrl>#Parti singole_style_map</styleUrl>
        <name>T00266</name>
        <Polygon>
          <outerBoundaryIs>
            <LinearRing>
              <coordinates>9.36583924240969,39.5656378437288 9.36589342926799,39.5656348621085 9.36602968369381,39.5656465342738 9.36619848137062,39.5656636631801 9.36653848861636,39.5656938490256 9.36664449544721,39.5657203745909 9.366781846599,39.565825352773 9.36678711023269,39.5658278860838 9.36690023127738,39.5658811314649 9.366988021272,39.5658792327049 9.36710170225657,39.565888451945 9.36726234572175,39.5658580488318 9.36727046201783,39.5658584647116 9.36717536233995,39.5657898723848 9.36708087795751,39.5657408123028 9.3669009244334,39.5656037210864 9.36684224103471,39.565533148499 9.36682347479807,39.5654578998344 9.3668770333011,39.5653997228199 9.36677455142649,39.5653616081536 9.36614146205816,39.5653291651651 9.36609361800894,39.5653361995831 9.36607607217871,39.5653933889238 9.3660091710436,39.5654713400421 9.36593172889442,39.5655260958013 9.36589417729551,39.5655777796928 9.36587477712096,39.5655855895413 9.36583924240969,39.5656378437288</coordinates>
            </LinearRing>
          </outerBoundaryIs>
        </Polygon>
      </Placemark>
      <Placemark xmlns="http://www.opengis.net/kml/2.2">
        <styleUrl>#Parti singole_style_map</styleUrl>
        <name>T00267</name>
        <Polygon>
          <outerBoundaryIs>
            <LinearRing>
              <coordinates>9.36609361800894,39.5653361995831 9.36614146205816,39.5653291651651 9.36677455142649,39.5653616081536 9.3668770333011,39.5653997228199 9.36688195929877,39.565366873859 9.36690270745003,39.565228176399 9.36681720987107,39.5650926161826 9.36677757884017,39.5650343635919 9.36664449062571,39.5649029538374 9.3666304787691,39.5649059803969 9.36650966118169,39.5649251294895 9.36648579231528,39.5648999849361 9.36633798312586,39.5649554491795 9.36624372163965,39.56496398136 9.36616162542621,39.5650124177071 9.36614047492253,39.5650526430553 9.36611269033419,39.5651463382057 9.36608975961013,39.565282041977 9.36609361800894,39.5653361995831</coordinates>
            </LinearRing>
          </outerBoundaryIs>
        </Polygon>
      </Placemark>
      <Placemark xmlns="http://www.opengis.net/kml/2.2">
        <styleUrl>#Parti singole_style_map</styleUrl>
        <name>T00261</name>
        <Polygon>
          <outerBoundaryIs>
            <LinearRing>
              <coordinates>9.36727560904646,39.5681736368108 9.36729139244239,39.5682702581239 9.36729829083019,39.5683554013771 9.36729949010607,39.5684459868029 9.3673618682747,39.5685808537174 9.36741487643027,39.5687380866367 9.36743421446251,39.5688287499187 9.36743826692635,39.5689194704877 9.36757432123582,39.568969182796 9.36772283545475,39.5690304517698 9.36778820065055,39.5690891272107 9.36787003451338,39.5692130299029 9.3680692984106,39.5690938065016 9.36823030163572,39.5689781548044 9.36840669885463,39.568874239559 9.36880237064179,39.5686821213919 9.36902640929791,39.5685504376929 9.3691281643385,39.568516155169 9.36917964140252,39.5684847352056 9.36895738652822,39.568254020668 9.36892736998798,39.5681653467268 9.36893524720279,39.568098564685 9.3688684700922,39.568043678668 9.36880232219345,39.5679954762347 9.36859699902383,39.5679961810473 9.36845565714786,39.5679920696106 9.36833188490305,39.5679619257761 9.3681037334584,39.5679099739158 9.36795929352284,39.5678460435086 9.36780568899599,39.5677882058064 9.36768240735962,39.5677670790039 9.36758558642689,39.5677501483395 9.36749171685,39.5677277210186 9.36738408923918,39.5677190146564 9.36726850210542,39.5677197941038 9.36727799710528,39.5679110701097 9.36725747568824,39.5680375669564 9.36727560904646,39.5681736368108</coordinates>
            </LinearRing>
          </outerBoundaryIs>
        </Polygon>
      </Placemark>
      <Placemark xmlns="http://www.opengis.net/kml/2.2">
        <styleUrl>#Parti singole_style_map</styleUrl>
        <name>T00262</name>
        <Polygon>
          <outerBoundaryIs>
            <LinearRing>
              <coordinates>9.36833188490305,39.5679619257761 9.36845565714786,39.5679920696106 9.36859699902383,39.5679961810473 9.36880232219345,39.5679954762347 9.3688684700922,39.568043678668 9.36893524720279,39.568098564685 9.36892736998798,39.5681653467268 9.36895738652822,39.568254020668 9.36917964140252,39.5684847352056 9.36932693319537,39.5684119422762 9.36943650860571,39.5683376380853 9.36952018874501,39.5683087737256 9.36968239853211,39.5682282381902 9.36959037074196,39.568182362004 9.36952467001998,39.5681132277157 9.36943211317796,39.5680377813907 9.36934314289141,39.5679756407769 9.36924133411295,39.5679139282863 9.36921588724774,39.5678659933447 9.36917659382571,39.5678347893531 9.36896923861207,39.5677616441177 9.36891326524676,39.567737520947 9.36884976053596,39.5677333523385 9.36871463404261,39.5677244911187 9.36870235503894,39.5677228721476 9.36862461501768,39.5677125855104 9.36846901122977,39.5677236385078 9.3683956129901,39.567739656954 9.36833332830297,39.5678737917908 9.36833188490305,39.5679619257761</coordinates>
            </LinearRing>
          </outerBoundaryIs>
          <innerBoundaryIs>
            <LinearRing>
              <coordinates>9.36839533053508,39.5678557911737 9.36842890112919,39.5678483595116 9.3684304956243,39.5678570854099 9.36845620087159,39.5678505075944 9.36846192900965,39.56787039313 9.36844175970188,39.567873718728 9.36844322240805,39.5678839407476 9.36840501138584,39.5678900535901 9.36839533053508,39.5678557911737</coordinates>
            </LinearRing>
          </innerBoundaryIs>
        </Polygon>
      </Placemark>
      <Placemark xmlns="http://www.opengis.net/kml/2.2">
        <styleUrl>#Parti singole_style_map</styleUrl>
        <name>T00263</name>
        <Polygon>
          <outerBoundaryIs>
            <LinearRing>
              <coordinates>9.36833229057695,39.5671576770784 9.36836461220171,39.5672069419921 9.36841145713764,39.5672441412065 9.36846909435506,39.5672593932487 9.36857927471851,39.5673656627034 9.36861222835178,39.5674419203037 9.36871950692844,39.5675761306432 9.36870235503894,39.5677228721476 9.36871463404261,39.5677244911187 9.36884976053596,39.5677333523385 9.36892114518747,39.5675942957902 9.36909066596924,39.5674479989796 9.36927104820339,39.5672798175444 9.36940528497942,39.5671956589459 9.3694953500037,39.5670824111922 9.36965600088054,39.566976273452 9.36956235617463,39.5669061737594 9.36939195073835,39.5668697728807 9.36925893456431,39.5667645407742 9.36915186613764,39.5666743544169 9.36899479108015,39.5666269541655 9.36894456195703,39.566577205601 9.3687996666813,39.5666402323456 9.36869293899738,39.5666935149841 9.36853775737877,39.5667927682486 9.3684631733073,39.5668177106606 9.36843265870958,39.5668481809201 9.36836859880962,39.5668863800851 9.36836812925633,39.5670045692553 9.36834068757933,39.567056996792 9.36833229057695,39.5671576770784</coordinates>
            </LinearRing>
          </outerBoundaryIs>
          <innerBoundaryIs>
            <LinearRing>
              <coordinates>9.36893013593918,39.5671001622495 9.3689651524622,39.567106448484 9.36896038148813,39.5671354316257 9.36892122267804,39.5671317534833 9.36893013593918,39.5671001622495</coordinates>
            </LinearRing>
          </innerBoundaryIs>
          <innerBoundaryIs>
            <LinearRing>
              <coordinates>9.36859688823382,39.5673523798241 9.36859854021187,39.567347761333 9.36860451665285,39.5673397592997 9.3686115914819,39.5673347271739 9.36862182769162,39.5673309194367 9.36863451161058,39.5673298700944 9.36864666658582,39.5673322643489 9.36865504717181,39.5673363915243 9.36866299156702,39.5673438899213 9.36866716276496,39.5673533464932 9.36866670316321,39.5673632952847 9.3686623007646,39.5673717518565 9.36865381796696,39.5673791130962 9.36864708265863,39.5673823060541 9.36863410410573,39.5673848790667 9.36862328483524,39.5673841024265 9.36861288214626,39.5673806484159 9.36860504299003,39.5673754382899 9.36859955991609,39.567368869158 9.36859670339574,39.5673614537488 9.36859688823382,39.5673523798241</coordinates>
            </LinearRing>
          </innerBoundaryIs>
          <innerBoundaryIs>
            <LinearRing>
              <coordinates>9.36876813822767,39.567315039161 9.3688836986109,39.56734232529 9.36884932405674,39.5674309511493 9.36873374808367,39.5674029442147 9.36876813822767,39.567315039161</coordinates>
            </LinearRing>
          </innerBoundaryIs>
          <innerBoundaryIs>
            <LinearRing>
              <coordinates>9.36847611865515,39.5669211615951 9.36896731712336,39.5669897856842 9.36894351621061,39.5670877216869 9.36891292441184,39.5670838001248 9.3688938300953,39.5671757924343 9.36878655677751,39.5671613106642 9.36879269111165,39.5671193574327 9.3686376299487,39.567105090083 9.3686530689287,39.5670504749777 9.36845495639513,39.5670250719599 9.36847611865515,39.5669211615951</coordinates>
            </LinearRing>
          </innerBoundaryIs>
        </Polygon>
      </Placemark>
    </Folder>
  </Document>
</kml>

