<?xml version="1.0" encoding="UTF-8"?>
<kml xmlns="http://www.opengis.net/kml/2.2">
  <Document xmlns="">
    <Folder>
      <name>Patrimonio IGEA</name>
      <Placemark xmlns="http://www.opengis.net/kml/2.2">
        <styleUrl>#Parti singole_style_map</styleUrl>
        <name>T02160</name>
        <Polygon>
          <outerBoundaryIs>
            <LinearRing>
              <coordinates>9.66526650884764,40.6472901915031 9.66606197881041,40.6474241955222 9.66632306703371,40.6475160003556 9.66679419360754,40.6476847955844 9.6670804594572,40.6477868221965 9.6673661891675,40.6473573843077 9.6676078070329,40.6470153400524 9.66775469695933,40.6468001062975 9.66794784067685,40.6463818140318 9.66787162763828,40.6463343833095 9.66769165585899,40.6462548692786 9.66744472097609,40.6461493288261 9.66726646026282,40.646090713033 9.66710500874106,40.6460204870119 9.66692039675415,40.6459296928622 9.66672535842556,40.6458322202041 9.66661628729093,40.645726080504 9.66634827488537,40.645564058721 9.66627057500747,40.6457630637734 9.66609838455881,40.6459140215739 9.66592897755418,40.6460714221859 9.66567308579801,40.6460878149291 9.66540409785585,40.646253968212 9.6653519996631,40.6464588969276 9.66535923501957,40.6465980189746 9.66544578159084,40.6468668484322 9.66540349398731,40.6469151344531 9.66526650884764,40.6472901915031</coordinates>
            </LinearRing>
          </outerBoundaryIs>
        </Polygon>
      </Placemark>
      <Placemark xmlns="http://www.opengis.net/kml/2.2">
        <styleUrl>#Parti singole_style_map</styleUrl>
        <name>T02161</name>
        <Polygon>
          <outerBoundaryIs>
            <LinearRing>
              <coordinates>9.66526650884764,40.6472901915031 9.66606197881041,40.6474241955222 9.66632306703371,40.6475160003556 9.66679419360754,40.6476847955844 9.6670804594572,40.6477868221965 9.6673661891675,40.6473573843077 9.6676078070329,40.6470153400524 9.66775469695933,40.6468001062975 9.66794784067685,40.6463818140318 9.66787162763828,40.6463343833095 9.66769165585899,40.6462548692786 9.66744472097609,40.6461493288261 9.66726646026282,40.646090713033 9.66710500874106,40.6460204870119 9.66692039675415,40.6459296928622 9.66672535842556,40.6458322202041 9.66661628729093,40.645726080504 9.66634827488537,40.645564058721 9.66627057500747,40.6457630637734 9.66609838455881,40.6459140215739 9.66592897755418,40.6460714221859 9.66567308579801,40.6460878149291 9.66540409785585,40.646253968212 9.6653519996631,40.6464588969276 9.66535923501957,40.6465980189746 9.66544578159084,40.6468668484322 9.66540349398731,40.6469151344531 9.66526650884764,40.6472901915031</coordinates>
            </LinearRing>
          </outerBoundaryIs>
        </Polygon>
      </Placemark>
    </Folder>
  </Document>
</kml>

