<?xml version="1.0" encoding="UTF-8"?>
<kml xmlns="http://www.opengis.net/kml/2.2">
  <Document xmlns="">
    <Folder>
      <name>Patrimonio IGEA</name>
      <Placemark xmlns="http://www.opengis.net/kml/2.2">
        <styleUrl>#Parti singole_style_map</styleUrl>
        <name>T03393</name>
        <Polygon>
          <outerBoundaryIs>
            <LinearRing>
              <coordinates>8.52648110545807,39.2919830085584 8.52649907827675,39.2920244316682 8.52652668994635,39.2920689125768 8.52656692981475,39.2921082096698 8.52674361856997,39.2922509366885 8.52679173546355,39.2923259209609 8.52709887868448,39.2922432805216 8.52664832810207,39.291768279996 8.52642483215365,39.2918348062986 8.52648110545807,39.2919830085584</coordinates>
            </LinearRing>
          </outerBoundaryIs>
        </Polygon>
      </Placemark>
      <Placemark xmlns="http://www.opengis.net/kml/2.2">
        <styleUrl>#Parti singole_style_map</styleUrl>
        <name>T01266</name>
        <Polygon>
          <outerBoundaryIs>
            <LinearRing>
              <coordinates>8.52700933549976,39.2925875565573 8.5277354915169,39.2925755398275 8.5280174228646,39.2924448848968 8.52824020426974,39.2921101320625 8.528462012759,39.291721337848 8.52785302320061,39.2911634052029 8.52770583694734,39.2913290636629 8.52809077260834,39.2916812038443 8.52796364894115,39.2921502611434 8.52769612685026,39.2922903815888 8.52743383324069,39.2922754039911 8.52738109106318,39.2921673500591 8.52709887868448,39.2922432805216 8.52720178787923,39.2923491596491 8.52700933549976,39.2925875565573</coordinates>
            </LinearRing>
          </outerBoundaryIs>
        </Polygon>
      </Placemark>
      <Placemark xmlns="http://www.opengis.net/kml/2.2">
        <styleUrl>#Parti singole_style_map</styleUrl>
        <name>T03394</name>
        <Polygon>
          <outerBoundaryIs>
            <LinearRing>
              <coordinates>8.52672073557837,39.2925923299107 8.52700933549976,39.2925875565573 8.52720178787923,39.2923491596491 8.52709887868448,39.2922432805216 8.52679173546355,39.2923259209609 8.52678686947768,39.2924268386765 8.52672073557837,39.2925923299107</coordinates>
            </LinearRing>
          </outerBoundaryIs>
        </Polygon>
      </Placemark>
      <Placemark xmlns="http://www.opengis.net/kml/2.2">
        <styleUrl>#Parti singole_style_map</styleUrl>
        <name>T01267</name>
        <Polygon>
          <outerBoundaryIs>
            <LinearRing>
              <coordinates>8.52692443070586,39.2927250835698 8.52706416068821,39.2926583149514 8.52778346324161,39.2925946839875 8.52811063811987,39.2925319726914 8.52842653314233,39.2923270714517 8.52868337874165,39.2921222995752 8.52878510599538,39.2920140249537 8.52888082920725,39.2918361455354 8.52891115100104,39.2917343576429 8.52894994709112,39.2916294413072 8.5289713483949,39.2915229227172 8.52896793796025,39.2913864873591 8.52880115855646,39.2912078602595 8.52859547879168,39.2910599368504 8.52846864691852,39.2909558361942 8.52835414656033,39.290788836842 8.52836326309387,39.2906105976657 8.52828621988699,39.2907472024667 8.52807111419723,39.2909532872005 8.52785302320061,39.2911634052029 8.528462012759,39.291721337848 8.52824020426974,39.2921101320625 8.5280174228646,39.2924448848968 8.5277354915169,39.2925755398275 8.52700933549976,39.2925875565573 8.52689913305679,39.2927191778284 8.52692443070586,39.2927250835698</coordinates>
            </LinearRing>
          </outerBoundaryIs>
        </Polygon>
      </Placemark>
      <Placemark xmlns="http://www.opengis.net/kml/2.2">
        <styleUrl>#Parti singole_style_map</styleUrl>
        <name>T03395</name>
        <Polygon>
          <outerBoundaryIs>
            <LinearRing>
              <coordinates>8.52660006025636,39.2929237108382 8.5266646418993,39.2930213699155 8.52667761284555,39.292894777756 8.52677245023465,39.292797722198 8.52692443070586,39.2927250835698 8.52689913305679,39.2927191778284 8.52700933549976,39.2925875565573 8.52672073557837,39.2925923299107 8.52659488940837,39.2928650573833 8.52660006025636,39.2929237108382</coordinates>
            </LinearRing>
          </outerBoundaryIs>
        </Polygon>
      </Placemark>
      <Placemark xmlns="http://www.opengis.net/kml/2.2">
        <styleUrl>#Parti singole_style_map</styleUrl>
        <name>T02960</name>
        <Polygon>
          <outerBoundaryIs>
            <LinearRing>
              <coordinates>8.52729574117734,39.2951386400546 8.52733454752098,39.295391285546 8.52773399976761,39.2948464650511 8.5278113414564,39.2951130801732 8.52809659420597,39.2951178418664 8.52809677828375,39.2950990733988 8.52812416808983,39.2950992295508 8.52812211621595,39.2946365145724 8.52834552108531,39.2945898261743 8.52846905838155,39.2947175034813 8.52856120517412,39.2947949901994 8.528600715924,39.2949053146947 8.52851547526363,39.2951015549441 8.52926031344791,39.2946659500259 8.52919702564351,39.2945959513745 8.52929192036528,39.2945420821431 8.52935622656669,39.2946158603325 8.53024067576438,39.2941193069848 8.53060939059419,39.2939130002382 8.53029175991181,39.293387126213 8.53002003278281,39.29293555849 8.52979478849987,39.293072628706 8.52840772934753,39.2939326962151 8.52836191242691,39.2939758788192 8.52832573576405,39.2940029533759 8.52831716032782,39.294010721845 8.5282974304278,39.2939975944056 8.52822627773722,39.2940646155674 8.52797013654845,39.2940563139895 8.52806516060536,39.2942386699004 8.52796699593327,39.2943252155615 8.52745085552965,39.29441124453 8.52735815380971,39.294480250076 8.52738165597284,39.2946858878385 8.52734031540879,39.294844343632 8.52728082332624,39.2949825507741 8.52729574117734,39.2951386400546</coordinates>
            </LinearRing>
          </outerBoundaryIs>
          <innerBoundaryIs>
            <LinearRing>
              <coordinates>8.52800771783463,39.2944673888707 8.52819029622338,39.294307775654 8.52833642307621,39.2944025476583 8.52813846460917,39.2945523041286 8.52800771783463,39.2944673888707</coordinates>
            </LinearRing>
          </innerBoundaryIs>
          <innerBoundaryIs>
            <LinearRing>
              <coordinates>8.52827622759049,39.2945180636167 8.52833206849377,39.2944500612652 8.52850507653919,39.2943737574109 8.5285429399206,39.2943960230312 8.52853242151593,39.2942924388438 8.52871207537235,39.294229704642 8.52889780596221,39.2942066507112 8.52894183090486,39.2942836719389 8.52857674234705,39.2944687319115 8.52841066853494,39.2945277995445 8.52830890791814,39.2945437053173 8.52827622759049,39.2945180636167</coordinates>
            </LinearRing>
          </innerBoundaryIs>
        </Polygon>
      </Placemark>
      <Placemark xmlns="http://www.opengis.net/kml/2.2">
        <styleUrl>#Parti singole_style_map</styleUrl>
        <name>T03396</name>
        <Polygon>
          <outerBoundaryIs>
            <LinearRing>
              <coordinates>8.52734014997468,39.2941985575899 8.52734195140564,39.2943048096679 8.52735231598051,39.294429271046 8.52735815380971,39.294480250076 8.52745085552965,39.29441124453 8.52796699593327,39.2943252155615 8.52806516060536,39.2942386699004 8.52797013654845,39.2940563139895 8.52767916771516,39.2940468882948 8.52731926536926,39.2940416871515 8.52734014997468,39.2941985575899</coordinates>
            </LinearRing>
          </outerBoundaryIs>
        </Polygon>
      </Placemark>
      <Placemark xmlns="http://www.opengis.net/kml/2.2">
        <styleUrl>#Parti singole_style_map</styleUrl>
        <name>T01264</name>
        <Polygon>
          <outerBoundaryIs>
            <LinearRing>
              <coordinates>8.52787949835682,39.2964374017011 8.52798082665316,39.2965604479855 8.52826949478633,39.2965306672329 8.52836767486539,39.2965320384515 8.52824893302389,39.2963771232619 8.5279790216227,39.2960542486637 8.52789991687048,39.2962204987953 8.52787982880564,39.2962950796267 8.52787949835682,39.2964374017011</coordinates>
            </LinearRing>
          </outerBoundaryIs>
        </Polygon>
      </Placemark>
      <Placemark xmlns="http://www.opengis.net/kml/2.2">
        <styleUrl>#Parti singole_style_map</styleUrl>
        <name>T01272</name>
        <Polygon>
          <outerBoundaryIs>
            <LinearRing>
              <coordinates>8.53797315957285,39.2949484290156 8.53804954913107,39.2949848831681 8.53924729627228,39.2948281528839 8.53972837997338,39.2945653328209 8.54017012077641,39.2941703489501 8.54017947934454,39.2941578971529 8.5400398919218,39.2940290153972 8.53950824122192,39.2938868052938 8.53950570234922,39.2938920034111 8.53946037128483,39.2939611700795 8.53936387569071,39.2940641764615 8.53926948585943,39.2942120642315 8.53913100401069,39.2943443960459 8.53898814091199,39.2944056431882 8.53876709134754,39.294442701927 8.53860509577293,39.2944983401917 8.53837263955224,39.2945664487555 8.53833257807127,39.2945905374904 8.53807843609724,39.294764434751 8.53797240836757,39.2948880996139 8.53797315957285,39.2949484290156</coordinates>
            </LinearRing>
          </outerBoundaryIs>
        </Polygon>
      </Placemark>
      <Placemark xmlns="http://www.opengis.net/kml/2.2">
        <styleUrl>#Parti singole_style_map</styleUrl>
        <name>T01683</name>
        <Polygon>
          <outerBoundaryIs>
            <LinearRing>
              <coordinates>8.54192526699786,39.2947913682225 8.54195548745217,39.2948233489368 8.54200438839561,39.2948484289297 8.54210269876368,39.294849068221 8.54214489939573,39.2948168589835 8.54217408397169,39.2947693794883 8.54213304733545,39.2947546747663 8.54206411751466,39.2947298854257 8.54201303613726,39.2946941913165 8.54198961374676,39.2946778258375 8.54198204183191,39.2946866354928 8.54193578110256,39.2947403912159 8.54192526699786,39.2947913682225</coordinates>
            </LinearRing>
          </outerBoundaryIs>
        </Polygon>
      </Placemark>
      <Placemark xmlns="http://www.opengis.net/kml/2.2">
        <styleUrl>#Parti singole_style_map</styleUrl>
        <name>T01274</name>
        <Polygon>
          <outerBoundaryIs>
            <LinearRing>
              <coordinates>8.5416327212841,39.2928619325641 8.5421102717566,39.2924688213185 8.54248099991059,39.2923864896293 8.54254388662041,39.2924254377648 8.54271609601106,39.292331529763 8.54299058310078,39.2922730478133 8.54298271175905,39.292267340168 8.54276466817638,39.2920755382363 8.54259157617536,39.291938246998 8.54253828238332,39.291900670187 8.54248470364936,39.2918694627768 8.54243538210303,39.2918576180014 8.54232638480681,39.2918782832416 8.54228505294865,39.2919109194845 8.54222825280712,39.2919363223522 8.54208082561565,39.2920335890515 8.54140289161659,39.2926533398393 8.5416327212841,39.2928619325641</coordinates>
            </LinearRing>
          </outerBoundaryIs>
        </Polygon>
      </Placemark>
      <Placemark xmlns="http://www.opengis.net/kml/2.2">
        <styleUrl>#Parti singole_style_map</styleUrl>
        <name>T03402</name>
        <Polygon>
          <outerBoundaryIs>
            <LinearRing>
              <coordinates>8.53950824122192,39.2938868052938 8.5400398919218,39.2940290153972 8.54017947934454,39.2941578971529 8.54040573587349,39.2938564832566 8.54032247603315,39.2938491890559 8.54013774647407,39.2938493510476 8.53965240586788,39.2936320405029 8.53961955438702,39.2936885605848 8.53956787119211,39.2937644421412 8.53950824122192,39.2938868052938</coordinates>
            </LinearRing>
          </outerBoundaryIs>
        </Polygon>
      </Placemark>
      <Placemark xmlns="http://www.opengis.net/kml/2.2">
        <styleUrl>#Parti singole_style_map</styleUrl>
        <name>T03403</name>
        <Polygon>
          <outerBoundaryIs>
            <LinearRing>
              <coordinates>8.53965240586788,39.2936320405029 8.54013774647407,39.2938493510476 8.54032247603315,39.2938491890559 8.54040573587349,39.2938564832566 8.54078538766077,39.2933507087796 8.54140289161659,39.2926533398393 8.54208082561565,39.2920335890515 8.54195861500536,39.292069267781 8.54178735389131,39.292097742896 8.54148657186976,39.2921820961475 8.54126715513299,39.2922367459206 8.54086005963546,39.2922554590482 8.54069543837953,39.2922951500139 8.54040077982814,39.2924836249205 8.54021680234552,39.2925430532035 8.54017324784269,39.29258552857 8.54008275135009,39.292842470565 8.53994647233532,39.2930817507383 8.53983364303486,39.2932497409666 8.53973478909093,39.293431509622 8.5396772114422,39.2935893830282 8.53965240586788,39.2936320405029</coordinates>
            </LinearRing>
          </outerBoundaryIs>
        </Polygon>
      </Placemark>
      <Placemark xmlns="http://www.opengis.net/kml/2.2">
        <styleUrl>#Parti singole_style_map</styleUrl>
        <name>T02741</name>
        <Polygon>
          <outerBoundaryIs>
            <LinearRing>
              <coordinates>8.54017947934454,39.2941578971529 8.54032921311522,39.2942089576394 8.54039455609515,39.2942677941658 8.54067145318376,39.2942997402967 8.54073658116789,39.2943666853841 8.54066545378828,39.2944670537414 8.54074829491623,39.2944994858104 8.54089351007504,39.2942431828256 8.5405125201322,39.294089587584 8.54065707336518,39.2939043584243 8.54061171831417,39.2938745252215 8.54040573587349,39.2938564832566 8.54017947934454,39.2941578971529</coordinates>
            </LinearRing>
          </outerBoundaryIs>
        </Polygon>
      </Placemark>
      <Placemark xmlns="http://www.opengis.net/kml/2.2">
        <styleUrl>#Parti singole_style_map</styleUrl>
        <name>T02743</name>
        <Polygon>
          <outerBoundaryIs>
            <LinearRing>
              <coordinates>8.54015466153831,39.2950721476244 8.54025236461082,39.2950947450755 8.54036655656092,39.2949740118248 8.54031285180607,39.2949122387452 8.54015466153831,39.2950721476244</coordinates>
            </LinearRing>
          </outerBoundaryIs>
        </Polygon>
      </Placemark>
      <Placemark xmlns="http://www.opengis.net/kml/2.2">
        <styleUrl>#Parti singole_style_map</styleUrl>
        <name>T03404</name>
        <Polygon>
          <outerBoundaryIs>
            <LinearRing>
              <coordinates>8.54069684269984,39.2952104767027 8.54096840785487,39.2951982758389 8.54145055760602,39.2949403186356 8.54179438701201,39.2947189116258 8.54183049296192,39.2946308303716 8.54198204183191,39.2946866354928 8.54198961374676,39.2946778258375 8.54201303613726,39.2946941913165 8.54222014945608,39.2947686867304 8.54250574894923,39.2948216485925 8.54286148922951,39.2949165867682 8.54295280980269,39.2949827414786 8.54294990935363,39.294854634418 8.54296994279597,39.2946522614133 8.54260921103689,39.2945493745536 8.54241679887064,39.2944486805644 8.54218740270912,39.2943770352888 8.54199164456283,39.2943308149463 8.5420964566832,39.2938996705263 8.54208848239223,39.293379651371 8.54210865249526,39.2930908035939 8.54227891117329,39.2928178915849 8.54248569119916,39.2926935016805 8.54249012218014,39.2926683793312 8.5424832754605,39.2924572864206 8.54237996041086,39.2925116018822 8.5421006783907,39.2927486370106 8.54177998074872,39.2930502770432 8.54139761911416,39.2934662527936 8.54113923740318,39.2936838508396 8.54097214161623,39.2939491055287 8.54079272306106,39.2939935859663 8.54065707336518,39.2939043584243 8.5405125201322,39.294089587584 8.54089351007504,39.2942431828256 8.54074829491623,39.2944994858104 8.54044178753388,39.2950299949605 8.54069684269984,39.2952104767027</coordinates>
            </LinearRing>
          </outerBoundaryIs>
        </Polygon>
      </Placemark>
      <Placemark xmlns="http://www.opengis.net/kml/2.2">
        <styleUrl>#Parti singole_style_map</styleUrl>
        <name>T03405</name>
        <Polygon>
          <outerBoundaryIs>
            <LinearRing>
              <coordinates>8.54069684269984,39.2952104767027 8.5411487792815,39.2955302736046 8.54143687658706,39.2955420331461 8.54162353313312,39.2955617992799 8.54172113621118,39.295551911649 8.54185487200031,39.2955138997745 8.54200858549476,39.2955101348479 8.54214660133913,39.2955039651653 8.5422454935529,39.2954741866139 8.54238030579162,39.2953598850461 8.54248767565612,39.2953086041391 8.54275862997629,39.2952299249992 8.54311151865207,39.2952198769171 8.54301011069316,39.2950910315307 8.54295280980269,39.2949827414786 8.54286148922951,39.2949165867682 8.54250574894923,39.2948216485925 8.54222014945608,39.2947686867304 8.54201303613726,39.2946941913165 8.54206411751466,39.2947298854257 8.54213304733545,39.2947546747663 8.54217408397169,39.2947693794883 8.54214489939573,39.2948168589835 8.54210269876368,39.294849068221 8.54200438839561,39.2948484289297 8.54195548745217,39.2948233489368 8.54192526699786,39.2947913682225 8.54193578110256,39.2947403912159 8.54198204183191,39.2946866354928 8.54183049296192,39.2946308303716 8.54179438701201,39.2947189116258 8.54145055760602,39.2949403186356 8.54096840785487,39.2951982758389 8.54069684269984,39.2952104767027</coordinates>
            </LinearRing>
          </outerBoundaryIs>
        </Polygon>
      </Placemark>
      <Placemark xmlns="http://www.opengis.net/kml/2.2">
        <styleUrl>#Parti singole_style_map</styleUrl>
        <name>T03406</name>
        <Polygon>
          <outerBoundaryIs>
            <LinearRing>
              <coordinates>8.54031285180607,39.2949122387452 8.54044372504738,39.2947799475653 8.54066545378828,39.2944670537414 8.54032147054314,39.294332418265 8.54007188362545,39.294635073315 8.54031285180607,39.2949122387452</coordinates>
            </LinearRing>
          </outerBoundaryIs>
        </Polygon>
      </Placemark>
      <Placemark xmlns="http://www.opengis.net/kml/2.2">
        <styleUrl>#Parti singole_style_map</styleUrl>
        <name>T03407</name>
        <Polygon>
          <outerBoundaryIs>
            <LinearRing>
              <coordinates>8.54254388662041,39.2924254377648 8.54273477629223,39.2925436513418 8.54287353275169,39.2924601901462 8.5430693192896,39.2924015068741 8.54314466334461,39.2924079210211 8.5431379247029,39.2923938649411 8.54310257121001,39.2923542143012 8.54299058310078,39.2922730478133 8.54271609601106,39.292331529763 8.54254388662041,39.2924254377648</coordinates>
            </LinearRing>
          </outerBoundaryIs>
        </Polygon>
      </Placemark>
      <Placemark xmlns="http://www.opengis.net/kml/2.2">
        <styleUrl>#Parti singole_style_map</styleUrl>
        <name>T03408</name>
        <Polygon>
          <outerBoundaryIs>
            <LinearRing>
              <coordinates>8.54273477629223,39.2925436513418 8.54294036910502,39.2926709780961 8.54320148052651,39.2925564417758 8.54318771475712,39.2924977913209 8.54314466334461,39.2924079210211 8.5430693192896,39.2924015068741 8.54287353275169,39.2924601901462 8.54273477629223,39.2925436513418</coordinates>
            </LinearRing>
          </outerBoundaryIs>
        </Polygon>
      </Placemark>
      <Placemark xmlns="http://www.opengis.net/kml/2.2">
        <styleUrl>#Parti singole_style_map</styleUrl>
        <name>T02750</name>
        <Polygon>
          <outerBoundaryIs>
            <LinearRing>
              <coordinates>8.54249012218014,39.2926683793312 8.54248569119916,39.2926935016805 8.54273477629223,39.2925436513418 8.54254388662041,39.2924254377648 8.5424832754605,39.2924572864206 8.54249012218014,39.2926683793312</coordinates>
            </LinearRing>
          </outerBoundaryIs>
          <innerBoundaryIs>
            <LinearRing>
              <coordinates>8.54255781945928,39.2924458837018 8.54258094340834,39.2924652484519 8.54256418330094,39.2924783020915 8.54254139648615,39.2924605876168 8.54255781945928,39.2924458837018</coordinates>
            </LinearRing>
          </innerBoundaryIs>
        </Polygon>
      </Placemark>
      <Placemark xmlns="http://www.opengis.net/kml/2.2">
        <styleUrl>#Parti singole_style_map</styleUrl>
        <name>T03409</name>
        <Polygon>
          <outerBoundaryIs>
            <LinearRing>
              <coordinates>8.54243599298253,39.2914060054437 8.54265779388243,39.29155813076 8.54281430063227,39.2916654863484 8.54330384266134,39.291305549471 8.54403372114751,39.2907051116647 8.54431822206195,39.2904710477313 8.54378762659724,39.2905708880028 8.54302908266614,39.290832617562 8.54252864750295,39.2913164252743 8.54243599298253,39.2914060054437</coordinates>
            </LinearRing>
          </outerBoundaryIs>
          <innerBoundaryIs>
            <LinearRing>
              <coordinates>8.54304639473552,39.2911981224845 8.54316399419821,39.2911579461916 8.54317649680266,39.2911932540554 8.54306428383,39.2912324963855 8.54304639473552,39.2911981224845</coordinates>
            </LinearRing>
          </innerBoundaryIs>
        </Polygon>
      </Placemark>
      <Placemark xmlns="http://www.opengis.net/kml/2.2">
        <styleUrl>#Parti singole_style_map</styleUrl>
        <name>T03410</name>
        <Polygon>
          <outerBoundaryIs>
            <LinearRing>
              <coordinates>8.54352291753083,39.2916222424043 8.54372572492433,39.2913605570514 8.54378823433534,39.2912415188871 8.54399718070156,39.2909251803376 8.54408123116873,39.2907923139538 8.54400169158724,39.2907626003846 8.54403372114751,39.2907051116647 8.54330384266134,39.291305549471 8.54352291753083,39.2916222424043</coordinates>
            </LinearRing>
          </outerBoundaryIs>
        </Polygon>
      </Placemark>
      <Placemark xmlns="http://www.opengis.net/kml/2.2">
        <styleUrl>#Parti singole_style_map</styleUrl>
        <name>T03411</name>
        <Polygon>
          <outerBoundaryIs>
            <LinearRing>
              <coordinates>8.54411539474517,39.2907383297167 8.54413676471225,39.2907045333159 8.54428439123337,39.2905345576187 8.54432396592926,39.2904740077094 8.54432683724567,39.2904639630416 8.54431822206195,39.2904710477313 8.54403372114751,39.2907051116647 8.54411539474517,39.2907383297167</coordinates>
            </LinearRing>
          </outerBoundaryIs>
        </Polygon>
      </Placemark>
      <Placemark xmlns="http://www.opengis.net/kml/2.2">
        <styleUrl>#Parti singole_style_map</styleUrl>
        <name>T03412</name>
        <Polygon>
          <outerBoundaryIs>
            <LinearRing>
              <coordinates>8.54027432551047,39.2955416528342 8.54043248248072,39.2954986120291 8.54060733460539,39.2955305966769 8.54066494966544,39.2955336174843 8.54101444266028,39.2955128757039 8.5411487792815,39.2955302736046 8.54069684269984,39.2952104767027 8.54039557005827,39.2952240192997 8.53982434995891,39.2955355576695 8.54027432551047,39.2955416528342</coordinates>
            </LinearRing>
          </outerBoundaryIs>
        </Polygon>
      </Placemark>
      <Placemark xmlns="http://www.opengis.net/kml/2.2">
        <styleUrl>#Parti singole_style_map</styleUrl>
        <name>T02952</name>
        <Polygon>
          <outerBoundaryIs>
            <LinearRing>
              <coordinates>8.54199164456283,39.2943308149463 8.54218740270912,39.2943770352888 8.54241679887064,39.2944486805644 8.54260921103689,39.2945493745536 8.54296994279597,39.2946522614133 8.54298141271407,39.2945362490543 8.5430079012906,39.2943683311585 8.54300898106235,39.2942683169676 8.54300238352519,39.2941737330826 8.54302038337462,39.2940771193015 8.54303301675496,39.2939301868758 8.54306203075992,39.2938392570267 8.54315842106222,39.2936303177072 8.54318355308533,39.2935050419224 8.54320773899762,39.2932292301412 8.54322823268581,39.2931395643204 8.54322999099906,39.2930564117365 8.54328825312396,39.2929221652109 8.54318309855116,39.2926869522596 8.54316551198628,39.2926684023129 8.54288168188724,39.2928188018647 8.54276101291391,39.29286512008 8.54259161884556,39.2929378551176 8.54244783339271,39.2929083924745 8.54248569119916,39.2926935016805 8.54227891117329,39.2928178915849 8.54210865249526,39.2930908035939 8.54208848239223,39.293379651371 8.5420964566832,39.2938996705263 8.54199164456283,39.2943308149463</coordinates>
            </LinearRing>
          </outerBoundaryIs>
        </Polygon>
      </Placemark>
      <Placemark xmlns="http://www.opengis.net/kml/2.2">
        <styleUrl>#Parti singole_style_map</styleUrl>
        <name>T02752</name>
        <Polygon>
          <outerBoundaryIs>
            <LinearRing>
              <coordinates>8.54259161884556,39.2929378551176 8.54276101291391,39.29286512008 8.54283371144453,39.2928372151149 8.54280881870738,39.2928171921153 8.54281610786741,39.2928080915595 8.54278278914761,39.2927897022154 8.54276730253212,39.2928086019988 8.5427384109881,39.2928042749667 8.54274818303573,39.2927813476301 8.542622067252,39.2927493915965 8.54261755057161,39.2927672830575 8.54247780108998,39.2927382881135 8.54244783339271,39.2929083924745 8.54259161884556,39.2929378551176</coordinates>
            </LinearRing>
          </outerBoundaryIs>
        </Polygon>
      </Placemark>
      <Placemark xmlns="http://www.opengis.net/kml/2.2">
        <styleUrl>#Parti singole_style_map</styleUrl>
        <name>T02753</name>
        <Polygon>
          <outerBoundaryIs>
            <LinearRing>
              <coordinates>8.54252161378307,39.2926718906192 8.5426510493178,39.2926863224827 8.54265490779861,39.2926731456778 8.54283729873246,39.2927162121656 8.54280558668358,39.2927312037958 8.54290242847929,39.2928078084386 8.54316551198628,39.2926684023129 8.54318444903855,39.2926415527853 8.5432087084859,39.2925933328168 8.54320148052651,39.2925564417758 8.54294036910502,39.2926709780961 8.54273477629223,39.2925436513418 8.54252161378307,39.2926718906192</coordinates>
            </LinearRing>
          </outerBoundaryIs>
        </Polygon>
      </Placemark>
      <Placemark xmlns="http://www.opengis.net/kml/2.2">
        <styleUrl>#Parti singole_style_map</styleUrl>
        <name>T02746</name>
        <Polygon>
          <outerBoundaryIs>
            <LinearRing>
              <coordinates>8.542622067252,39.2927493915965 8.54274818303573,39.2927813476301 8.54275553475449,39.2927663736256 8.54265133452812,39.2927390914974 8.54265261432741,39.2927356763874 8.5426306393331,39.2927307040804 8.542622067252,39.2927493915965</coordinates>
            </LinearRing>
          </outerBoundaryIs>
        </Polygon>
      </Placemark>
      <Placemark xmlns="http://www.opengis.net/kml/2.2">
        <styleUrl>#Parti singole_style_map</styleUrl>
        <name>T02747</name>
        <Polygon>
          <outerBoundaryIs>
            <LinearRing>
              <coordinates>8.5426510493178,39.2926863224827 8.54280558668358,39.2927312037958 8.54283729873246,39.2927162121656 8.54265490779861,39.2926731456778 8.5426510493178,39.2926863224827</coordinates>
            </LinearRing>
          </outerBoundaryIs>
        </Polygon>
      </Placemark>
      <Placemark xmlns="http://www.opengis.net/kml/2.2">
        <styleUrl>#Parti singole_style_map</styleUrl>
        <name>T02924</name>
        <Polygon>
          <outerBoundaryIs>
            <LinearRing>
              <coordinates>8.54079272306106,39.2939935859663 8.54097214161623,39.2939491055287 8.54113923740318,39.2936838508396 8.54139761911416,39.2934662527936 8.54177998074872,39.2930502770432 8.54197863015066,39.2928634328896 8.5416327212841,39.2928619325641 8.54102307801994,39.29343537392 8.54065707336518,39.2939043584243 8.54079272306106,39.2939935859663</coordinates>
            </LinearRing>
          </outerBoundaryIs>
        </Polygon>
      </Placemark>
      <Placemark xmlns="http://www.opengis.net/kml/2.2">
        <styleUrl>#Parti singole_style_map</styleUrl>
        <name>T02925</name>
        <Polygon>
          <outerBoundaryIs>
            <LinearRing>
              <coordinates>8.54197863015066,39.2928634328896 8.54237996041086,39.2925116018822 8.5424832754605,39.2924572864206 8.54248099991059,39.2923864896293 8.5421102717566,39.2924688213185 8.5416327212841,39.2928619325641 8.54197863015066,39.2928634328896</coordinates>
            </LinearRing>
          </outerBoundaryIs>
        </Polygon>
      </Placemark>
      <Placemark xmlns="http://www.opengis.net/kml/2.2">
        <styleUrl>#Parti singole_style_map</styleUrl>
        <name>T02744</name>
        <Polygon>
          <outerBoundaryIs>
            <LinearRing>
              <coordinates>8.54040573587349,39.2938564832566 8.54061171831417,39.2938745252215 8.54065707336518,39.2939043584243 8.54102307801994,39.29343537392 8.5416327212841,39.2928619325641 8.54140803543704,39.2927224107314 8.5413721579084,39.2926880489064 8.54078538766077,39.2933507087796 8.54040573587349,39.2938564832566</coordinates>
            </LinearRing>
          </outerBoundaryIs>
        </Polygon>
      </Placemark>
      <Placemark xmlns="http://www.opengis.net/kml/2.2">
        <styleUrl>#Parti singole_style_map</styleUrl>
        <name>T02745</name>
        <Polygon>
          <outerBoundaryIs>
            <LinearRing>
              <coordinates>8.5416327212841,39.2928619325641 8.54140289161659,39.2926533398393 8.5413721579084,39.2926880489064 8.54140803543704,39.2927224107314 8.5416327212841,39.2928619325641</coordinates>
            </LinearRing>
          </outerBoundaryIs>
        </Polygon>
      </Placemark>
      <Placemark xmlns="http://www.opengis.net/kml/2.2">
        <styleUrl>#Parti singole_style_map</styleUrl>
        <name>T03397</name>
        <Polygon>
          <outerBoundaryIs>
            <LinearRing>
              <coordinates>8.53873996401203,39.2954268115702 8.53887466932982,39.2956528915847 8.5389214013952,39.2958510591713 8.53895707355863,39.2958297010981 8.5389892393812,39.2956782331178 8.53889561410243,39.295539629428 8.53873996401203,39.2954268115702</coordinates>
            </LinearRing>
          </outerBoundaryIs>
        </Polygon>
      </Placemark>
      <Placemark xmlns="http://www.opengis.net/kml/2.2">
        <styleUrl>#Parti singole_style_map</styleUrl>
        <name>T01275</name>
        <Polygon>
          <outerBoundaryIs>
            <LinearRing>
              <coordinates>8.54254139648615,39.2924605876168 8.54256418330094,39.2924783020915 8.54258094340834,39.2924652484519 8.54255781945928,39.2924458837018 8.54254139648615,39.2924605876168</coordinates>
            </LinearRing>
          </outerBoundaryIs>
        </Polygon>
      </Placemark>
      <Placemark xmlns="http://www.opengis.net/kml/2.2">
        <styleUrl>#Parti singole_style_map</styleUrl>
        <name>T03398</name>
        <Polygon>
          <outerBoundaryIs>
            <LinearRing>
              <coordinates>8.53905382961604,39.2957086747895 8.53899756560605,39.2958054606792 8.54003421360958,39.2951847823715 8.54015466153831,39.2950721476244 8.53968547216373,39.2949636508371 8.53930816093426,39.2949721230865 8.53913714916461,39.2950214459449 8.53876005092032,39.2952322968476 8.53905382961604,39.2957086747895</coordinates>
            </LinearRing>
          </outerBoundaryIs>
        </Polygon>
      </Placemark>
      <Placemark xmlns="http://www.opengis.net/kml/2.2">
        <styleUrl>#Parti singole_style_map</styleUrl>
        <name>T03399</name>
        <Polygon>
          <outerBoundaryIs>
            <LinearRing>
              <coordinates>8.53873996401203,39.2954268115702 8.53889561410243,39.295539629428 8.5389892393812,39.2956782331178 8.53895707355863,39.2958297010981 8.53899756560605,39.2958054606792 8.53905382961604,39.2957086747895 8.53876005092032,39.2952322968476 8.53865805627185,39.2952893264128 8.53873996401203,39.2954268115702</coordinates>
            </LinearRing>
          </outerBoundaryIs>
        </Polygon>
      </Placemark>
      <Placemark xmlns="http://www.opengis.net/kml/2.2">
        <styleUrl>#Parti singole_style_map</styleUrl>
        <name>T03400</name>
        <Polygon>
          <outerBoundaryIs>
            <LinearRing>
              <coordinates>8.53892144323444,39.295931245255 8.53893451034733,39.2959139244799 8.53899756560605,39.2958054606792 8.53895707355863,39.2958297010981 8.5389214013952,39.2958510591713 8.53892144323444,39.295931245255</coordinates>
            </LinearRing>
          </outerBoundaryIs>
        </Polygon>
      </Placemark>
      <Placemark xmlns="http://www.opengis.net/kml/2.2">
        <styleUrl>#Parti singole_style_map</styleUrl>
        <name>T02740</name>
        <Polygon>
          <outerBoundaryIs>
            <LinearRing>
              <coordinates>8.53839840195776,39.2950347813147 8.53848909594549,39.2950827264724 8.53855725471768,39.2951506038787 8.53873173235907,39.2951863743368 8.53876005092032,39.2952322968476 8.53913714916461,39.2950214459449 8.53930816093426,39.2949721230865 8.53968547216373,39.2949636508371 8.54015466153831,39.2950721476244 8.54031285180607,39.2949122387452 8.54007188362545,39.294635073315 8.54032147054314,39.294332418265 8.54066545378828,39.2944670537414 8.54073658116789,39.2943666853841 8.54067145318376,39.2942997402967 8.54039455609515,39.2942677941658 8.54032921311522,39.2942089576394 8.54017947934454,39.2941578971529 8.54017012077641,39.2941703489501 8.53972837997338,39.2945653328209 8.53924729627228,39.2948281528839 8.53804954913107,39.2949848831681 8.53839840195776,39.2950347813147</coordinates>
            </LinearRing>
          </outerBoundaryIs>
        </Polygon>
      </Placemark>
      <Placemark xmlns="http://www.opengis.net/kml/2.2">
        <styleUrl>#Parti singole_style_map</styleUrl>
        <name>T03401</name>
        <Polygon>
          <outerBoundaryIs>
            <LinearRing>
              <coordinates>8.53865805627185,39.2952893264128 8.53876005092032,39.2952322968476 8.53873173235907,39.2951863743368 8.53855725471768,39.2951506038787 8.53861226801657,39.295205390675 8.53865805627185,39.2952893264128</coordinates>
            </LinearRing>
          </outerBoundaryIs>
        </Polygon>
      </Placemark>
      <Placemark xmlns="http://www.opengis.net/kml/2.2">
        <styleUrl>#Parti singole_style_map</styleUrl>
        <name>T02749</name>
        <Polygon>
          <outerBoundaryIs>
            <LinearRing>
              <coordinates>8.5424832754605,39.2924572864206 8.54254388662041,39.2924254377648 8.54248099991059,39.2923864896293 8.5424832754605,39.2924572864206</coordinates>
            </LinearRing>
          </outerBoundaryIs>
        </Polygon>
      </Placemark>
      <Placemark xmlns="http://www.opengis.net/kml/2.2">
        <styleUrl>#Parti singole_style_map</styleUrl>
        <name>T01685</name>
        <Polygon>
          <outerBoundaryIs>
            <LinearRing>
              <coordinates>8.51462878946156,39.2844219409717 8.51484225793937,39.2845246069037 8.51500211840379,39.2845340948439 8.51505157766566,39.2845329674237 8.51504291563903,39.2844826787712 8.51503129453189,39.2844226642731 8.51507701067857,39.2843674751951 8.51504496486089,39.2843369576234 8.51472387609842,39.2842710573386 8.51467289550101,39.2843346763345 8.51462878946156,39.2844219409717</coordinates>
            </LinearRing>
          </outerBoundaryIs>
        </Polygon>
      </Placemark>
      <Placemark xmlns="http://www.opengis.net/kml/2.2">
        <styleUrl>#Parti singole_style_map</styleUrl>
        <name>T01278</name>
        <Polygon>
          <outerBoundaryIs>
            <LinearRing>
              <coordinates>8.51890955052315,39.2698643978831 8.52065852110635,39.2691801796679 8.52104772891192,39.269020229458 8.52225328052374,39.267181036584 8.52219122977296,39.2671400263808 8.52209311224021,39.2670178347393 8.52207553328658,39.2669555796553 8.52205970994052,39.2668448091244 8.52197544891686,39.2668499505227 8.52204862749157,39.2666658560231 8.52209905420327,39.2664096724804 8.52199142846962,39.2662488758619 8.52153290427802,39.2657586560646 8.52120334725565,39.2655315822645 8.52085138505525,39.2654441172958 8.52091192228269,39.2653054304404 8.52083902436953,39.2652678079283 8.52058288329517,39.265239297277 8.52048154446887,39.2651976196812 8.52024153662105,39.265042069704 8.52013659324427,39.2650173891645 8.519943533014,39.265011141377 8.51982789731498,39.2650228557542 8.51967302474307,39.2650124489634 8.51946049830548,39.2649491362986 8.51928058676902,39.2648999606302 8.51927244843949,39.2652341341887 8.51940557978642,39.2660562984614 8.51952910412226,39.2665290777297 8.519508750989,39.2669426752019 8.51936872750027,39.2671232841881 8.51925491016665,39.2673110206111 8.51904863670813,39.2678679488512 8.51896470981441,39.2685949459227 8.51904890545697,39.2689606419115 8.5190162955745,39.2694030587456 8.51890955052315,39.2698643978831</coordinates>
            </LinearRing>
          </outerBoundaryIs>
        </Polygon>
      </Placemark>
      <Placemark xmlns="http://www.opengis.net/kml/2.2">
        <styleUrl>#Parti singole_style_map</styleUrl>
        <name>T01279</name>
        <Polygon>
          <outerBoundaryIs>
            <LinearRing>
              <coordinates>8.51928058676902,39.2648999606302 8.51946049830548,39.2649491362986 8.51967302474307,39.2650124489634 8.51982789731498,39.2650228557542 8.519943533014,39.265011141377 8.52013659324427,39.2650173891645 8.52024153662105,39.265042069704 8.52048154446887,39.2651976196812 8.52058288329517,39.265239297277 8.52083902436953,39.2652678079283 8.52091192228269,39.2653054304404 8.52097662896286,39.2651382958846 8.52078475612275,39.265119340269 8.52069266624254,39.2650914332658 8.52056668553435,39.265005330562 8.52044781233862,39.2649342868754 8.52025761903223,39.2649903694871 8.52007352844752,39.264965768038 8.51981019596152,39.264967006421 8.51973300061103,39.264956235416 8.51940824291603,39.2648780422554 8.5193129002542,39.2648699623083 8.51928095494414,39.2648851034923 8.51928058676902,39.2648999606302</coordinates>
            </LinearRing>
          </outerBoundaryIs>
        </Polygon>
      </Placemark>
      <Placemark xmlns="http://www.opengis.net/kml/2.2">
        <styleUrl>#Parti singole_style_map</styleUrl>
        <name>T01280</name>
        <Polygon>
          <outerBoundaryIs>
            <LinearRing>
              <coordinates>8.52085138505525,39.2654441172958 8.52120334725565,39.2655315822645 8.52153290427802,39.2657586560646 8.52199142846962,39.2662488758619 8.52209905420327,39.2664096724804 8.52204862749157,39.2666658560231 8.52197544891686,39.2668499505227 8.52205970994052,39.2668448091244 8.52206518683415,39.2667791886224 8.52210124039224,39.2666815254789 8.52218965753689,39.2665338516713 8.52221470314397,39.2664491727688 8.5222218812519,39.2663276387901 8.52221263481204,39.2662844395357 8.52196639342752,39.2657625011592 8.52187462306618,39.265636271555 8.52172367996426,39.2654875962927 8.52153443991262,39.2653251571974 8.52134906455005,39.2652183477843 8.52123839812171,39.2651726767761 8.52097662896286,39.2651382958846 8.52091192228269,39.2653054304404 8.52085138505525,39.2654441172958</coordinates>
            </LinearRing>
          </outerBoundaryIs>
        </Polygon>
      </Placemark>
      <Placemark xmlns="http://www.opengis.net/kml/2.2">
        <styleUrl>#Parti singole_style_map</styleUrl>
        <name>T01281</name>
        <Polygon>
          <outerBoundaryIs>
            <LinearRing>
              <coordinates>8.5216527546367,39.2687891247769 8.5219565350878,39.2690844825542 8.52200640743717,39.26914204056 8.52192667958415,39.2698217597431 8.52274222574227,39.2706236269978 8.52355752144823,39.2692243802952 8.52385810803001,39.2687039089569 8.5235390930338,39.2685123330862 8.52320271702539,39.2683255690034 8.52302350158271,39.2681857993401 8.52290395282907,39.268059411665 8.52285987935229,39.2679963091959 8.52283889778454,39.2679245790427 8.52286184818567,39.2678018482311 8.52284648397609,39.2677496132452 8.52281787052504,39.2677109931641 8.52273169572258,39.267630768846 8.52251315012254,39.2674622010395 8.52231723538171,39.2672233160695 8.52225328052374,39.267181036584 8.52104772891192,39.269020229458 8.5216527546367,39.2687891247769</coordinates>
            </LinearRing>
          </outerBoundaryIs>
        </Polygon>
      </Placemark>
      <Placemark xmlns="http://www.opengis.net/kml/2.2">
        <styleUrl>#Parti singole_style_map</styleUrl>
        <name>T01054</name>
        <Polygon>
          <outerBoundaryIs>
            <LinearRing>
              <coordinates>8.5173282932348,39.2821715265662 8.51788274030383,39.2818731929439 8.51793593920867,39.2819655205645 8.51802196741954,39.2819369977302 8.51803400054795,39.2819186567741 8.51808629556468,39.2818892192327 8.51856675538486,39.2822423095021 8.51856060718976,39.2822478526633 8.51858581179395,39.2822649961532 8.51861154534772,39.2822421614307 8.51858609832043,39.2822248637616 8.51858097682119,39.282229474061 8.51810234447865,39.2818719581629 8.51813038161244,39.2818530437223 8.51812974727167,39.2818339564698 8.51811446583422,39.2818052392098 8.51804367040455,39.2818391685478 8.51799669215168,39.2817848197393 8.51839654702407,39.2815204080888 8.51855775983751,39.2814551170778 8.51850907486679,39.2813824787339 8.51834864995875,39.2814461690386 8.51746468634963,39.2817531496551 8.51734823357537,39.2817936652411 8.51734022193341,39.2817852250399 8.51715095883313,39.2818204104031 8.5173282932348,39.2821715265662</coordinates>
            </LinearRing>
          </outerBoundaryIs>
        </Polygon>
      </Placemark>
      <Placemark xmlns="http://www.opengis.net/kml/2.2">
        <styleUrl>#Parti singole_style_map</styleUrl>
        <name>T02052</name>
        <Polygon>
          <outerBoundaryIs>
            <LinearRing>
              <coordinates>8.51527164996367,39.2859273585684 8.51533377546748,39.2860517844854 8.51523507593382,39.286453907169 8.51528223392003,39.2865596546861 8.51545918844867,39.2866366491071 8.51561042638103,39.2866664193794 8.51603289744093,39.2866522826697 8.51614547830864,39.2866903794945 8.51636345238045,39.2869365743619 8.51679843325302,39.2872398157845 8.51670263731434,39.2870303071824 8.51663056582033,39.2865156874936 8.516567560409,39.2864159568768 8.5166600657072,39.2863872817822 8.51682192404854,39.2863867917018 8.51696890114181,39.2863701375391 8.51734528492993,39.2863738440866 8.51748803276807,39.2863466112121 8.51769814512079,39.2862251354481 8.51777459921534,39.2861310114635 8.51783350614266,39.2860729204869 8.51797733069474,39.2859934115298 8.51809097075916,39.2859210309672 8.51815901040314,39.2858922172945 8.51830472242861,39.2858112740375 8.51845779405295,39.2857493555629 8.5167309803391,39.2848633664184 8.51587488137001,39.2854219023567 8.5151907468049,39.2858810580251 8.51527164996367,39.2859273585684</coordinates>
            </LinearRing>
          </outerBoundaryIs>
        </Polygon>
      </Placemark>
      <Placemark xmlns="http://www.opengis.net/kml/2.2">
        <styleUrl>#Parti singole_style_map</styleUrl>
        <name>T01372</name>
        <Polygon>
          <outerBoundaryIs>
            <LinearRing>
              <coordinates>8.52800559595142,39.2591226855855 8.52811116925074,39.2600855937328 8.528278056786,39.2617057485828 8.52868029901537,39.2616710022472 8.52895301377231,39.2615338911448 8.52895311280593,39.261313183051 8.52960007061116,39.2615973309875 8.52947339933708,39.2617627151539 8.52961131082097,39.261984206476 8.53054710438274,39.2621171451597 8.53106569995805,39.2619900675851 8.5305129843144,39.2594688295463 8.52933187771337,39.2590759575711 8.52803409287889,39.2591215847211 8.52800559595142,39.2591226855855</coordinates>
            </LinearRing>
          </outerBoundaryIs>
        </Polygon>
      </Placemark>
      <Placemark xmlns="http://www.opengis.net/kml/2.2">
        <styleUrl>#Parti singole_style_map</styleUrl>
        <name>T01366</name>
        <Polygon>
          <outerBoundaryIs>
            <LinearRing>
              <coordinates>8.51723589208186,39.2574575665178 8.51738800722269,39.2579501286861 8.51778640075565,39.2585977766748 8.51790893629935,39.2587260924019 8.51847454202701,39.2593317918632 8.51895396973898,39.259583254446 8.51908224239145,39.2596545367823 8.51938474889087,39.2598779998543 8.51989674862459,39.2600164094607 8.52042950688452,39.2600497923606 8.52105719154992,39.2600919615476 8.52141964505128,39.2600407310616 8.52170269989394,39.2599062835389 8.52202307487609,39.2597616983814 8.52243701732783,39.25969084361 8.52268172570791,39.2597393341008 8.52284755673725,39.2598378615758 8.52310103244567,39.2601301901144 8.52341454647012,39.2602640221968 8.52419443252468,39.2604432830603 8.52433451907128,39.2604534611944 8.52433479065216,39.2604253038139 8.52416999322578,39.260409906551 8.52387592415146,39.2603380326581 8.52342015370776,39.2602284978826 8.52313364291687,39.2601105272097 8.52288174598332,39.2598229538623 8.52271838825252,39.2597169306522 8.52243546026453,39.2596606963693 8.52202636376374,39.2597297148327 8.5214260277338,39.2599952982446 8.52107014155035,39.260060855788 8.51990016565081,39.2599827775431 8.51940767360476,39.2598595775118 8.51911009217572,39.2596345579762 8.51897869620828,39.2595674617539 8.51851241311807,39.2593209464799 8.51782038546794,39.2585874109994 8.51742492919912,39.2579457674341 8.51726989300784,39.2574481471929 8.51730301647114,39.2570109492927 8.51749695979409,39.2566892418799 8.51786164427948,39.2559366731243 8.51790057854759,39.2554982014625 8.51786826046696,39.2554905255968 8.51782289525759,39.2559439644437 8.51745187836146,39.2566987685089 8.51726514036445,39.2570091702491 8.51723589208186,39.2574575665178</coordinates>
            </LinearRing>
          </outerBoundaryIs>
        </Polygon>
      </Placemark>
      <Placemark xmlns="http://www.opengis.net/kml/2.2">
        <styleUrl>#Parti singole_style_map</styleUrl>
        <name>T01371</name>
        <Polygon>
          <outerBoundaryIs>
            <LinearRing>
              <coordinates>8.52328016703718,39.2645039046337 8.52435814819089,39.2647863414181 8.52490211632699,39.2649968101845 8.52562683775825,39.2654988971577 8.52640043776036,39.2660254083445 8.5264353518324,39.266015089009 8.52664222896335,39.2658531523075 8.52731488891453,39.2651156298803 8.52768606333443,39.2647063117251 8.52796479334334,39.2644038628704 8.5284299314831,39.2634932519671 8.52851974105305,39.2633116535432 8.5283448836633,39.2627004420129 8.52833801692003,39.2626804194042 8.52685555846876,39.2629164648824 8.52565526790727,39.2627587655301 8.52442752084409,39.2626562944172 8.52441460021492,39.2626643512531 8.52334940221987,39.2633291734708 8.52333443254922,39.2633385193348 8.52328016703718,39.2645039046337</coordinates>
            </LinearRing>
          </outerBoundaryIs>
        </Polygon>
      </Placemark>
      <Placemark xmlns="http://www.opengis.net/kml/2.2">
        <styleUrl>#Parti singole_style_map</styleUrl>
        <name>T01370</name>
        <Polygon>
          <outerBoundaryIs>
            <LinearRing>
              <coordinates>8.52442752084409,39.2626562944172 8.52565526790727,39.2627587655301 8.52685555846876,39.2629164648824 8.52833801692003,39.2626804194042 8.52834956479136,39.2623567833121 8.528278056786,39.2617057485828 8.5275026152184,39.2617739493431 8.5259897218601,39.2615597029655 8.52492403976788,39.2614086716229 8.52442752084409,39.2626562944172</coordinates>
            </LinearRing>
          </outerBoundaryIs>
        </Polygon>
      </Placemark>
      <Placemark xmlns="http://www.opengis.net/kml/2.2">
        <styleUrl>#Parti singole_style_map</styleUrl>
        <name>T01369</name>
        <Polygon>
          <outerBoundaryIs>
            <LinearRing>
              <coordinates>8.52492403976788,39.2614086716229 8.5259897218601,39.2615597029655 8.5275026152184,39.2617739493431 8.528278056786,39.2617057485828 8.52811116925074,39.2600855937328 8.52800559595142,39.2591226855855 8.52668574144836,39.2589357496378 8.52599324786878,39.2588405169724 8.52492403976788,39.2614086716229</coordinates>
            </LinearRing>
          </outerBoundaryIs>
        </Polygon>
      </Placemark>
      <Placemark xmlns="http://www.opengis.net/kml/2.2">
        <styleUrl>#Parti singole_style_map</styleUrl>
        <name>T01368</name>
        <Polygon>
          <outerBoundaryIs>
            <LinearRing>
              <coordinates>8.52834956479136,39.2623567833121 8.52833801692003,39.2626804194042 8.52871225714999,39.2626755831717 8.5289916673793,39.2627611809227 8.5292264900811,39.2628671150206 8.52941826655981,39.2629657200632 8.53018504098314,39.2629438677602 8.53031739237538,39.2629537641844 8.53069640316586,39.2629290361647 8.53113786283903,39.2630126961424 8.53115397367484,39.2624130438906 8.53106569995805,39.2619900675851 8.53054710438274,39.2621171451597 8.52961131082097,39.261984206476 8.52947339933708,39.2617627151539 8.52960007061116,39.2615973309875 8.52895311280593,39.261313183051 8.52895301377231,39.2615338911448 8.52868029901537,39.2616710022472 8.528278056786,39.2617057485828 8.52834956479136,39.2623567833121</coordinates>
            </LinearRing>
          </outerBoundaryIs>
        </Polygon>
      </Placemark>
      <Placemark xmlns="http://www.opengis.net/kml/2.2">
        <styleUrl>#Parti singole_style_map</styleUrl>
        <name>T02770</name>
        <Polygon>
          <outerBoundaryIs>
            <LinearRing>
              <coordinates>8.52949799044153,39.2552178500971 8.53120161949529,39.2552671932505 8.53134291413568,39.254398857926 8.53146190631254,39.2536924093723 8.53151668302675,39.253498637911 8.52956013628153,39.2537066058596 8.5295364869168,39.2543348733872 8.52949799044153,39.2552178500971</coordinates>
            </LinearRing>
          </outerBoundaryIs>
        </Polygon>
      </Placemark>
      <Placemark xmlns="http://www.opengis.net/kml/2.2">
        <styleUrl>#Parti singole_style_map</styleUrl>
        <name>T02771</name>
        <Polygon>
          <outerBoundaryIs>
            <LinearRing>
              <coordinates>8.52956013628153,39.2537066058596 8.53151668302675,39.253498637911 8.53201189802044,39.2534460074439 8.53216957690837,39.2524645439008 8.53162792624129,39.2526413272536 8.53143668075775,39.2526703108038 8.5311132145484,39.2528239114044 8.53079974506964,39.2529763169362 8.53020020971935,39.2530366938874 8.52958756183991,39.2529780460795 8.52956013628153,39.2537066058596</coordinates>
            </LinearRing>
          </outerBoundaryIs>
        </Polygon>
      </Placemark>
    </Folder>
  </Document>
</kml>

