<?xml version="1.0" encoding="UTF-8"?>
<kml xmlns="http://www.opengis.net/kml/2.2">
  <Document xmlns="">
    <Folder>
      <name>Patrimonio IGEA</name>
      <Placemark xmlns="http://www.opengis.net/kml/2.2">
        <styleUrl>#Parti singole_style_map</styleUrl>
        <name>F02024</name>
        <Polygon>
          <outerBoundaryIs>
            <LinearRing>
              <coordinates>8.51894095285977,39.4110795029412 8.51873881481316,39.4111153119039 8.51876740496405,39.4111890188802 8.51896534617495,39.4111503812314 8.51894095285977,39.4110795029412</coordinates>
            </LinearRing>
          </outerBoundaryIs>
        </Polygon>
      </Placemark>
      <Placemark xmlns="http://www.opengis.net/kml/2.2">
        <styleUrl>#Parti singole_style_map</styleUrl>
        <name>F01665</name>
        <Polygon>
          <outerBoundaryIs>
            <LinearRing>
              <coordinates>8.47333330741339,39.3979721409175 8.47338625288149,39.3979459439618 8.47337913169789,39.3979354234946 8.47345413389575,39.3978980452765 8.47346379143233,39.3979094962959 8.47349211771641,39.3978954600834 8.47346342354251,39.3978364465756 8.4733008776722,39.3979187870584 8.47333330741339,39.3979721409175</coordinates>
            </LinearRing>
          </outerBoundaryIs>
        </Polygon>
      </Placemark>
      <Placemark xmlns="http://www.opengis.net/kml/2.2">
        <styleUrl>#Parti singole_style_map</styleUrl>
        <name>T03450</name>
        <Polygon>
          <outerBoundaryIs>
            <LinearRing>
              <coordinates>8.45960636940904,39.4491831575686 8.45959743209175,39.4491891710086 8.45934962714684,39.4491202783054 8.45928679545838,39.4490756728247 8.45926224144633,39.4490812711899 8.45924558284748,39.4490983495031 8.45919895658132,39.4491177392092 8.4590800229292,39.4491500647302 8.45910153629137,39.4491529220369 8.45921232073548,39.4491689264494 8.45939423005554,39.4491851354573 8.45954696933564,39.4491937028733 8.45967907640485,39.4492056972436 8.45975107789806,39.4492112669947 8.45960636940904,39.4491831575686</coordinates>
            </LinearRing>
          </outerBoundaryIs>
        </Polygon>
      </Placemark>
      <Placemark xmlns="http://www.opengis.net/kml/2.2">
        <styleUrl>#Parti singole_style_map</styleUrl>
        <name>T00544</name>
        <Polygon>
          <outerBoundaryIs>
            <LinearRing>
              <coordinates>8.52923644090077,39.4535719974862 8.52966335450306,39.4537912466509 8.53035547846422,39.454017576292 8.53107267916648,39.4542540225916 8.53148476440043,39.4543860294169 8.5314948777965,39.4543892688886 8.53200201146507,39.4545046814004 8.53230921053826,39.4545731268537 8.53231585818803,39.4545714866794 8.53216452476389,39.4542961228109 8.53215936908107,39.4542867222079 8.53195997554348,39.4539768348703 8.53195553253602,39.4539651574917 8.53187121942928,39.4537434138279 8.53182372527898,39.4536191129605 8.53176721168391,39.4535052728719 8.53167799130837,39.4534539414026 8.53159613026534,39.4533156529188 8.5314995926113,39.4531388757591 8.53129622340697,39.4527832523244 8.53110396950063,39.4525848601882 8.53096828974818,39.4524634198255 8.53092261221582,39.4524203007984 8.53066160298859,39.4521577194498 8.53043900922568,39.4520488033141 8.53038711149513,39.45200264045 8.53029701667493,39.4519089463801 8.53031262717462,39.4518914301366 8.53028347038181,39.4518701107663 8.53025174922242,39.4518084233364 8.53017627024334,39.4517190141375 8.5300540490968,39.4515687126559 8.52997576048445,39.4514927535358 8.52987018375894,39.4513855619696 8.52982980810589,39.4516134164138 8.52977064075222,39.4519566363426 8.52971695944258,39.4522876512771 8.52968281141101,39.4525622588842 8.52964286176434,39.4528975191666 8.52955916136509,39.4530105765234 8.52951095757207,39.4531406900927 8.52940814494294,39.4534458261936 8.52923644090077,39.4535719974862</coordinates>
            </LinearRing>
          </outerBoundaryIs>
        </Polygon>
      </Placemark>
      <Placemark xmlns="http://www.opengis.net/kml/2.2">
        <styleUrl>#Parti singole_style_map</styleUrl>
        <name>T00547</name>
        <Polygon>
          <outerBoundaryIs>
            <LinearRing>
              <coordinates>8.52267197272837,39.4428641246619 8.52271470529499,39.4428518657583 8.52269333797384,39.4428071132788 8.52265174646581,39.4428190524857 8.52267197272837,39.4428641246619</coordinates>
            </LinearRing>
          </outerBoundaryIs>
        </Polygon>
      </Placemark>
      <Placemark xmlns="http://www.opengis.net/kml/2.2">
        <styleUrl>#Parti singole_style_map</styleUrl>
        <name>T00549</name>
        <Polygon>
          <outerBoundaryIs>
            <LinearRing>
              <coordinates>8.52111209890824,39.4417495592563 8.52120320580363,39.4417766595762 8.52117500106281,39.4418361834591 8.52125759699949,39.4418571846479 8.5213505848757,39.4418845448926 8.52141742009504,39.4417532947828 8.52124355260457,39.4417037961943 8.52114420116449,39.4416758059456 8.52112010377248,39.4417311749069 8.52111209890824,39.4417495592563</coordinates>
            </LinearRing>
          </outerBoundaryIs>
        </Polygon>
      </Placemark>
      <Placemark xmlns="http://www.opengis.net/kml/2.2">
        <styleUrl>#Parti singole_style_map</styleUrl>
        <name>T00551</name>
        <Polygon>
          <outerBoundaryIs>
            <LinearRing>
              <coordinates>8.52154014793816,39.4407009304518 8.52160074423744,39.4407050543831 8.52161997723094,39.4405674270161 8.52156019014679,39.4405639371568 8.52154014793816,39.4407009304518</coordinates>
            </LinearRing>
          </outerBoundaryIs>
        </Polygon>
      </Placemark>
      <Placemark xmlns="http://www.opengis.net/kml/2.2">
        <styleUrl>#Parti singole_style_map</styleUrl>
        <name>T00552</name>
        <Polygon>
          <outerBoundaryIs>
            <LinearRing>
              <coordinates>8.52190792036631,39.4402484889686 8.52194423411646,39.4402604239961 8.52198076912498,39.4402060430892 8.5219400379472,39.4401943512058 8.52190792036631,39.4402484889686</coordinates>
            </LinearRing>
          </outerBoundaryIs>
        </Polygon>
      </Placemark>
      <Placemark xmlns="http://www.opengis.net/kml/2.2">
        <styleUrl>#Parti singole_style_map</styleUrl>
        <name>T00554</name>
        <Polygon>
          <outerBoundaryIs>
            <LinearRing>
              <coordinates>8.52201094830051,39.4405321018225 8.52205154730545,39.440529169195 8.52204808964088,39.440502916578 8.52200574731071,39.4405058870867 8.52201094830051,39.4405321018225</coordinates>
            </LinearRing>
          </outerBoundaryIs>
        </Polygon>
      </Placemark>
      <Placemark xmlns="http://www.opengis.net/kml/2.2">
        <styleUrl>#Parti singole_style_map</styleUrl>
        <name>T03451</name>
        <Polygon>
          <outerBoundaryIs>
            <LinearRing>
              <coordinates>8.50171336351909,39.4312953000981 8.50176172439493,39.4314057862768 8.50191149237799,39.4315478201055 8.50203357546998,39.4316356454203 8.50214621603005,39.4316789365738 8.5025231774457,39.431766537269 8.50254435879689,39.4317861625724 8.50255589906788,39.4317351948094 8.50262434616235,39.4316242807802 8.50263504341972,39.4315987008417 8.50266955670607,39.4315751780736 8.50267832138741,39.4315697282122 8.50247914880177,39.4312120531105 8.5022166317491,39.4312737139533 8.5021755652657,39.431138994065 8.50211472094304,39.430936115506 8.50190112023742,39.430877137029 8.50189395299055,39.4308736463028 8.50186161156448,39.4308663263762 8.50178849891235,39.4309389435879 8.50175475310721,39.4310031335399 8.50172194874876,39.4311781109756 8.50171336351909,39.4312953000981</coordinates>
            </LinearRing>
          </outerBoundaryIs>
        </Polygon>
      </Placemark>
      <Placemark xmlns="http://www.opengis.net/kml/2.2">
        <styleUrl>#Parti singole_style_map</styleUrl>
        <name>T03453</name>
        <Polygon>
          <outerBoundaryIs>
            <LinearRing>
              <coordinates>8.50267832138741,39.4315697282122 8.50273719973936,39.4315331454066 8.50278992301512,39.431553302062 8.50286861340848,39.431537726197 8.50289651318124,39.431519410145 8.50247914880177,39.4312120531105 8.50267832138741,39.4315697282122</coordinates>
            </LinearRing>
          </outerBoundaryIs>
        </Polygon>
      </Placemark>
      <Placemark xmlns="http://www.opengis.net/kml/2.2">
        <styleUrl>#Parti singole_style_map</styleUrl>
        <name>T00533</name>
        <Polygon>
          <outerBoundaryIs>
            <LinearRing>
              <coordinates>8.47106482892472,39.4062383690719 8.47117221418188,39.4063866204138 8.4712272123324,39.4065093319742 8.47125134039261,39.4066332997353 8.47124828947866,39.4068602597792 8.47130458769373,39.4070000520605 8.47142639436984,39.4071229682009 8.47155626896951,39.407201940749 8.47176856708505,39.4072420380479 8.47197973128059,39.4071969447636 8.47208878016157,39.4071605691222 8.472218823542,39.4071772432622 8.47241191245337,39.4072972111512 8.47278077559394,39.4075477538698 8.47286913694515,39.4075932519843 8.47301894605175,39.4076150967593 8.47340042437606,39.4075542746093 8.47369739162528,39.4075396888562 8.47390373803804,39.4075714566681 8.47401323550563,39.4076360346345 8.47406948058257,39.4077219066415 8.47438701107918,39.4085370156829 8.4745125694915,39.4088589418796 8.47466090018489,39.4090966598227 8.47486070707316,39.4093627678366 8.47493229161339,39.4094402658815 8.47513107152744,39.4095385306853 8.4753578995569,39.4095304089169 8.47550913621645,39.4095096824409 8.4756600451483,39.4094489838263 8.47582286223676,39.409439085699 8.47589024639973,39.409469637667 8.4759549464864,39.4095189282938 8.47610284588056,39.4103439811424 8.47616257108115,39.4105675928674 8.47629778124693,39.4107887874196 8.47645544078776,39.4109159054554 8.47677522639475,39.4111058802772 8.476861110434,39.4111620686383 8.47694278202828,39.4112891954486 8.47716960394474,39.4117379911443 8.47724960075417,39.411986805617 8.47728732288853,39.4120606628645 8.47744478015474,39.412274567484 8.47767588384283,39.412197458254 8.47739232774085,39.4120376086159 8.47737593217367,39.4116325773087 8.47724086020636,39.4111870419239 8.47713226880701,39.4111042248853 8.47698102572614,39.4110632677385 8.4768225748769,39.4109625745695 8.47649214477821,39.4106879165729 8.47633445892313,39.4103176508527 8.47621639632478,39.409595046657 8.47619672947662,39.4093191744572 8.47605086213626,39.4091829365284 8.47588412614507,39.4091609652809 8.4754411748511,39.4094074132841 8.47522235298761,39.4094352952841 8.474633192902,39.4085203597944 8.47460256996688,39.4080879888838 8.47459752220808,39.4079326795251 8.47460559204466,39.4077644453481 8.47450091146483,39.4075254739138 8.47423610202826,39.4073536362195 8.47407124402663,39.4071891071008 8.47391405951436,39.4071765921916 8.47378295236401,39.4072055531978 8.47308518728461,39.4075394567103 8.47290909257722,39.4074683947624 8.47281226152606,39.4073877714748 8.47264458567752,39.4072107390435 8.47264517221052,39.4071668246397 8.47260096903383,39.4071185982793 8.4723327878274,39.406968059747 8.4721239545449,39.4069783567868 8.4718868744946,39.4071147168696 8.47168292466582,39.4071581037493 8.4715360858003,39.4070968859633 8.47145887570674,39.4069853546962 8.47135873616211,39.4069094186247 8.47137833935848,39.4067622134933 8.47118992886165,39.405926860255 8.47165597685256,39.4056216677847 8.47161980395695,39.4053715797281 8.47153127011994,39.4052279106971 8.47147455070144,39.4050102299827 8.47142538986948,39.4049113146955 8.4714433310863,39.4048364200592 8.47157332473477,39.4047099091494 8.47178247379449,39.4046384333512 8.47220496262182,39.4046819084724 8.47235256314189,39.4047293248301 8.47255245593249,39.4046761689956 8.47271303310948,39.4044765944038 8.47266259342664,39.4041788575559 8.47259866363844,39.4039404926149 8.47265892932025,39.4038158897188 8.47281021725142,39.4037004938019 8.47307843432834,39.4035563346186 8.47337575211771,39.4033771837697 8.47356699375785,39.4032614542291 8.47388236550566,39.4032527270078 8.47392810254025,39.4030148499695 8.4739138490829,39.4029178867304 8.47380741222489,39.402686682596 8.47372278958428,39.4026312545178 8.47362669645864,39.4026524626766 8.47353253108028,39.4027385279389 8.47345034692122,39.4027526446106 8.47325083638573,39.4027218981251 8.47318562317768,39.4026138012112 8.47324067838666,39.4024513033047 8.4734921874923,39.4023397033973 8.47353869020039,39.4022548640187 8.47341545100828,39.4020111669694 8.47312901963042,39.4017648381436 8.47328053109355,39.4016205910011 8.47349325981267,39.4015226194335 8.47358089102421,39.4014326500869 8.47356851966068,39.4013295321304 8.4734195983314,39.4012532056799 8.47333073982149,39.4011667530387 8.47328479193881,39.4011162213183 8.47316758231282,39.4011241060452 8.47325972509773,39.401209312223 8.47329247814669,39.4013047735334 8.47323635124464,39.4014662935103 8.47307327006532,39.4017188212305 8.47307471066263,39.4018082207848 8.47315559035059,39.4019317516454 8.47329223984661,39.4020539492742 8.47338124810296,39.402146881151 8.47334271293853,39.4022609955836 8.47312905382914,39.4024806672541 8.47310343492478,39.4025575187076 8.47312235287662,39.4026194343844 8.47323914325483,39.4027539765314 8.47337727181494,39.4028017901943 8.47358996831709,39.4027826690767 8.4737295520761,39.4028686753413 8.47375296247883,39.4029124461141 8.47376432955818,39.4029669389088 8.47373475910852,39.4030318607506 8.47369240119678,39.4030798030084 8.47272663998359,39.403614172804 8.47259911091362,39.4037116464211 8.47249505740913,39.4038764896617 8.47256403820765,39.4043291468246 8.47252590216583,39.4043930563484 8.47240498450999,39.4044652943434 8.47181701304819,39.4045418267214 8.47167383415424,39.4045688112961 8.47150044092887,39.4046640839368 8.47137803821916,39.4047712657597 8.47133793908056,39.4048580886217 8.47134393112172,39.4049719903153 8.47140477422465,39.4050803927244 8.47143519716519,39.4052151386002 8.47140188980726,39.4053392056355 8.47133123408386,39.4054841783392 8.47117044422252,39.4057525540236 8.47101923581333,39.4060546632451 8.47106482892472,39.4062383690719</coordinates>
            </LinearRing>
          </outerBoundaryIs>
        </Polygon>
      </Placemark>
      <Placemark xmlns="http://www.opengis.net/kml/2.2">
        <styleUrl>#Parti singole_style_map</styleUrl>
        <name>T00541</name>
        <Polygon>
          <outerBoundaryIs>
            <LinearRing>
              <coordinates>8.47483151433663,39.3976021893318 8.47489572933772,39.3974142952399 8.47483784647929,39.3974067983747 8.47477499517469,39.3975893733941 8.47483151433663,39.3976021893318</coordinates>
            </LinearRing>
          </outerBoundaryIs>
        </Polygon>
      </Placemark>
      <Placemark xmlns="http://www.opengis.net/kml/2.2">
        <styleUrl>#Parti singole_style_map</styleUrl>
        <name>T00542</name>
        <Polygon>
          <outerBoundaryIs>
            <LinearRing>
              <coordinates>8.47478751104691,39.3973437588572 8.47484747817138,39.3973242066523 8.47482981627862,39.3972836967938 8.47476924397501,39.3973018766609 8.47478751104691,39.3973437588572</coordinates>
            </LinearRing>
          </outerBoundaryIs>
        </Polygon>
      </Placemark>
      <Placemark xmlns="http://www.opengis.net/kml/2.2">
        <styleUrl>#Parti singole_style_map</styleUrl>
        <name>T00543</name>
        <Polygon>
          <outerBoundaryIs>
            <LinearRing>
              <coordinates>8.4749028861982,39.397197183699 8.47497223825746,39.3971758807265 8.47494808921336,39.3971285476782 8.47488231699065,39.3971525609426 8.4749028861982,39.397197183699</coordinates>
            </LinearRing>
          </outerBoundaryIs>
        </Polygon>
      </Placemark>
    </Folder>
  </Document>
</kml>

