<?xml version="1.0" encoding="UTF-8"?>
<kml xmlns="http://www.opengis.net/kml/2.2">
  <Document xmlns="">
    <Folder>
      <name>Patrimonio IGEA</name>
      <Placemark xmlns="http://www.opengis.net/kml/2.2">
        <styleUrl>#Parti singole_style_map</styleUrl>
        <name>F01453</name>
        <Polygon>
          <outerBoundaryIs>
            <LinearRing>
              <coordinates>8.79222062146821,39.5567151595552 8.79228128519132,39.5567438594756 8.79232076079378,39.556707062424 8.79226156518256,39.5566749793417 8.79222062146821,39.5567151595552</coordinates>
            </LinearRing>
          </outerBoundaryIs>
        </Polygon>
      </Placemark>
      <Placemark xmlns="http://www.opengis.net/kml/2.2">
        <styleUrl>#Parti singole_style_map</styleUrl>
        <name>F01448</name>
        <Polygon>
          <outerBoundaryIs>
            <LinearRing>
              <coordinates>8.78559690763073,39.5511208107761 8.78618717245736,39.5507028114167 8.78609896543207,39.550625903715 8.78550578036972,39.55104540204 8.78559690763073,39.5511208107761</coordinates>
            </LinearRing>
          </outerBoundaryIs>
        </Polygon>
      </Placemark>
      <Placemark xmlns="http://www.opengis.net/kml/2.2">
        <styleUrl>#Parti singole_style_map</styleUrl>
        <name>F01450</name>
        <Polygon>
          <outerBoundaryIs>
            <LinearRing>
              <coordinates>8.78559690763073,39.5511208107761 8.78618717245736,39.5507028114167 8.78609896543207,39.550625903715 8.78550578036972,39.55104540204 8.78559690763073,39.5511208107761</coordinates>
            </LinearRing>
          </outerBoundaryIs>
        </Polygon>
      </Placemark>
      <Placemark xmlns="http://www.opengis.net/kml/2.2">
        <styleUrl>#Parti singole_style_map</styleUrl>
        <name>F01452</name>
        <Polygon>
          <outerBoundaryIs>
            <LinearRing>
              <coordinates>8.78559690763073,39.5511208107761 8.78618717245736,39.5507028114167 8.78609896543207,39.550625903715 8.78550578036972,39.55104540204 8.78559690763073,39.5511208107761</coordinates>
            </LinearRing>
          </outerBoundaryIs>
        </Polygon>
      </Placemark>
      <Placemark xmlns="http://www.opengis.net/kml/2.2">
        <styleUrl>#Parti singole_style_map</styleUrl>
        <name>F01447</name>
        <Polygon>
          <outerBoundaryIs>
            <LinearRing>
              <coordinates>8.78559690763073,39.5511208107761 8.78618717245736,39.5507028114167 8.78609896543207,39.550625903715 8.78550578036972,39.55104540204 8.78559690763073,39.5511208107761</coordinates>
            </LinearRing>
          </outerBoundaryIs>
        </Polygon>
      </Placemark>
      <Placemark xmlns="http://www.opengis.net/kml/2.2">
        <styleUrl>#Parti singole_style_map</styleUrl>
        <name>F01449</name>
        <Polygon>
          <outerBoundaryIs>
            <LinearRing>
              <coordinates>8.78559690763073,39.5511208107761 8.78618717245736,39.5507028114167 8.78609896543207,39.550625903715 8.78550578036972,39.55104540204 8.78559690763073,39.5511208107761</coordinates>
            </LinearRing>
          </outerBoundaryIs>
        </Polygon>
      </Placemark>
      <Placemark xmlns="http://www.opengis.net/kml/2.2">
        <styleUrl>#Parti singole_style_map</styleUrl>
        <name>F01451</name>
        <Polygon>
          <outerBoundaryIs>
            <LinearRing>
              <coordinates>8.78559690763073,39.5511208107761 8.78618717245736,39.5507028114167 8.78609896543207,39.550625903715 8.78550578036972,39.55104540204 8.78559690763073,39.5511208107761</coordinates>
            </LinearRing>
          </outerBoundaryIs>
        </Polygon>
      </Placemark>
      <Placemark xmlns="http://www.opengis.net/kml/2.2">
        <styleUrl>#Parti singole_style_map</styleUrl>
        <name>T02163</name>
        <Polygon>
          <outerBoundaryIs>
            <LinearRing>
              <coordinates>8.79070923223664,39.553279824476 8.7909652317468,39.5533873645436 8.79128058818752,39.5535198252431 8.79126433063519,39.553480141608 8.79072841879798,39.553258883075 8.79070923223664,39.553279824476</coordinates>
            </LinearRing>
          </outerBoundaryIs>
        </Polygon>
      </Placemark>
      <Placemark xmlns="http://www.opengis.net/kml/2.2">
        <styleUrl>#Parti singole_style_map</styleUrl>
        <name>T02164</name>
        <Polygon>
          <outerBoundaryIs>
            <LinearRing>
              <coordinates>8.71293029005417,39.5509609444366 8.71425793255188,39.5510134885075 8.71511709761966,39.5510455144759 8.71625763292251,39.5510898905638 8.71740452792219,39.551133451006 8.71853250828841,39.5511747917953 8.7196421202886,39.5512140679768 8.72124711708286,39.5512730855092 8.72235905935163,39.5513241989158 8.72335660902838,39.5513649826142 8.72421820151335,39.5514004881497 8.7251854242626,39.5514406885284 8.72628962240961,39.5514883671353 8.72680843450884,39.5515091777942 8.72681357992842,39.551399282167 8.72638442189658,39.5513850261625 8.72627169467042,39.5513620814332 8.72585865432489,39.5513455728776 8.725210085065,39.551320495343 8.72467694784526,39.5512995174287 8.72439643208464,39.5512884898624 8.72347124626574,39.5512526990108 8.72310894357843,39.5512386802691 8.72266755262852,39.5512220206594 8.72240577174529,39.5512121503281 8.72198708610119,39.5511961911743 8.72123651915051,39.5511672159747 8.72045586645259,39.5511410107349 8.71966513405926,39.5511150281979 8.71906465347648,39.5510948620274 8.71854553529208,39.5510762596307 8.71830651096226,39.5510689851605 8.71754063557647,39.5510415077284 8.71666950823253,39.551011425713 8.71629871803417,39.5509987165737 8.71572414043219,39.550977524225 8.71506064746712,39.5509548133256 8.71456910170889,39.5509368194881 8.71374161648176,39.5509055433713 8.71363420532458,39.5509014851017 8.71361657481121,39.5509008649467 8.71293748086075,39.5508768329845 8.71293029005417,39.5509609444366</coordinates>
            </LinearRing>
          </outerBoundaryIs>
        </Polygon>
      </Placemark>
      <Placemark xmlns="http://www.opengis.net/kml/2.2">
        <styleUrl>#Parti singole_style_map</styleUrl>
        <name>T02165</name>
        <Polygon>
          <outerBoundaryIs>
            <LinearRing>
              <coordinates>8.72685731643793,39.5515097523596 8.72749786192402,39.5515365678873 8.72821754618636,39.5515653312365 8.7289586193734,39.5515952123045 8.72985880502763,39.55162975699 8.73056980003961,39.5516576926448 8.73078893102075,39.55166637345 8.73079026458413,39.5515383310507 8.728901933163,39.5514647728435 8.7281960517296,39.5514364875602 8.72708959030835,39.5513929935156 8.72705979011887,39.5513999875269 8.72686980228904,39.5513978466838 8.72685731643793,39.5515097523596</coordinates>
            </LinearRing>
          </outerBoundaryIs>
        </Polygon>
      </Placemark>
      <Placemark xmlns="http://www.opengis.net/kml/2.2">
        <styleUrl>#Parti singole_style_map</styleUrl>
        <name>T02167</name>
        <Polygon>
          <outerBoundaryIs>
            <LinearRing>
              <coordinates>8.73324360048518,39.551738545939 8.73426082070481,39.5517763979668 8.73510966565657,39.5518062702668 8.73596091178519,39.5518354119954 8.73652355998098,39.5518568826971 8.7370180382952,39.5518751958037 8.73758063733359,39.5518944447414 8.73790711111404,39.5519080221149 8.73793841553836,39.5519093272129 8.73830995697124,39.5519227258838 8.73832571436591,39.5519232659879 8.73886401499463,39.5519416069605 8.74002466586197,39.5519870205057 8.74120057277673,39.5520273746665 8.74205554125647,39.5520585434231 8.74296634433144,39.5520926948352 8.74325739195341,39.5521027007414 8.74371379693803,39.5521192342281 8.74402674291691,39.5521310976338 8.74533377121391,39.5521870977138 8.74549211078931,39.5521935179912 8.74640297395531,39.5522313007925 8.74664732839731,39.5522406825867 8.74759463226359,39.5522792834481 8.74797980072026,39.5522944468664 8.7488709410673,39.5523088398069 8.74952927712776,39.5523158668749 8.75016045533991,39.5523401135282 8.7505378226246,39.5523530892017 8.75078247690476,39.552363526164 8.75076353003688,39.5523467803619 8.75074726690067,39.5523216697424 8.75073787579,39.5522984480248 8.75073543794093,39.5522836748907 8.75072406381142,39.5522811546052 8.75054261760581,39.5522753135024 8.75042055768352,39.55227189747 8.74959330149939,39.5522423547588 8.74947346878441,39.5522378252587 8.74935507760166,39.5522305506039 8.74904808317991,39.5522107673197 8.74886721515209,39.5521996177792 8.74859555799985,39.5522087157198 8.74860395698141,39.5521842078497 8.74849491510262,39.5521793673331 8.74824854498857,39.5521673360197 8.74788249437304,39.5521506201992 8.74728390612356,39.5521302164754 8.74695640689614,39.5521193662955 8.74639612198224,39.55209945598 8.7460266313206,39.552087925747 8.74462366551262,39.5520406245876 8.74379625870179,39.5520123287621 8.7433399597464,39.5519956336485 8.74330949248969,39.5519945210733 8.74316592058146,39.551988941431 8.74192451885937,39.5519393611268 8.74191182737391,39.5519281060601 8.74120987748858,39.5519040262595 8.73976987003366,39.5518539619172 8.73900817974272,39.5518262929223 8.7383259418682,39.5518009155146 8.73818895693027,39.5517957590497 8.73791084317803,39.5517855534123 8.73644293897679,39.5517331142593 8.73594271917779,39.5517160020365 8.73539143448856,39.5516969601832 8.73447518707201,39.5516644399113 8.73418039514347,39.5516543403683 8.73353447089061,39.551629982101 8.73353497639494,39.5516529775693 8.73335822497515,39.5516468501105 8.73333856909941,39.5516461742322 8.73324838958117,39.5516430476745 8.73324360048518,39.551738545939</coordinates>
            </LinearRing>
          </outerBoundaryIs>
        </Polygon>
      </Placemark>
      <Placemark xmlns="http://www.opengis.net/kml/2.2">
        <styleUrl>#Parti singole_style_map</styleUrl>
        <name>T02173</name>
        <Polygon>
          <outerBoundaryIs>
            <LinearRing>
              <coordinates>8.76536393621754,39.5530069218252 8.76560441856403,39.5530202114651 8.76560773170456,39.5530421402431 8.7657100438188,39.5530414908714 8.76571433726581,39.5530211993094 8.76607384934624,39.5530293670925 8.76607454507143,39.5530543721074 8.76620738576198,39.553057622226 8.76622939834274,39.5530360868776 8.76643208438747,39.5530504429687 8.76642846370866,39.5530818816658 8.76647352895495,39.5530929829627 8.76648183447748,39.5531152641541 8.76663969853422,39.5531258714927 8.76674641391178,39.5530339646252 8.76678254480388,39.5530055015891 8.76678328823195,39.5529851217598 8.76678709085197,39.5529653247383 8.76683955318588,39.5529051691986 8.76686073235434,39.5528474646663 8.7658856474231,39.552830391296 8.76549539746957,39.5528220707176 8.76542794257423,39.5528546237943 8.76542503636864,39.5528915061328 8.76544068076374,39.5529291287725 8.76536393621754,39.5530069218252</coordinates>
            </LinearRing>
          </outerBoundaryIs>
        </Polygon>
      </Placemark>
      <Placemark xmlns="http://www.opengis.net/kml/2.2">
        <styleUrl>#Parti singole_style_map</styleUrl>
        <name>T02170</name>
        <Polygon>
          <outerBoundaryIs>
            <LinearRing>
              <coordinates>8.76549539746957,39.5528220707176 8.7658856474231,39.552830391296 8.76686073235434,39.5528474646663 8.76690127823708,39.5527275738229 8.76686715185168,39.5527275593303 8.76559064760237,39.5527271773456 8.76552897331017,39.552805874951 8.76549539746957,39.5528220707176</coordinates>
            </LinearRing>
          </outerBoundaryIs>
        </Polygon>
      </Placemark>
      <Placemark xmlns="http://www.opengis.net/kml/2.2">
        <styleUrl>#Parti singole_style_map</styleUrl>
        <name>T02177</name>
        <Polygon>
          <outerBoundaryIs>
            <LinearRing>
              <coordinates>8.76593763937634,39.5498738068845 8.76733736661657,39.5505396546961 8.76835460363858,39.5492275621625 8.76695649544264,39.5485697489007 8.76671883493276,39.5488335169811 8.76667023520582,39.5488082534587 8.76604078134459,39.5495627985578 8.76583171025984,39.5498162785645 8.76593763937634,39.5498738068845</coordinates>
            </LinearRing>
          </outerBoundaryIs>
        </Polygon>
      </Placemark>
      <Placemark xmlns="http://www.opengis.net/kml/2.2">
        <styleUrl>#Parti singole_style_map</styleUrl>
        <name>T02176</name>
        <Polygon>
          <outerBoundaryIs>
            <LinearRing>
              <coordinates>8.76572002631702,39.5502060826736 8.76602098266759,39.5507082670555 8.76695377821901,39.552416445083 8.76700766409469,39.5523342170557 8.76702038662451,39.5522679537331 8.76704908920173,39.5521184672026 8.76707822957917,39.5519980848493 8.76712639233451,39.5518486733918 8.76717935273091,39.5517019836401 8.76723503654402,39.551583087129 8.76727911390575,39.5514961178844 8.76731345112934,39.5514225003971 8.76741029792436,39.5512560578075 8.76751657517364,39.5510955898426 8.76759823409779,39.5509912517849 8.76766052485543,39.5509114910703 8.76774536425248,39.5508096010685 8.76778048411084,39.550766259657 8.76733736661657,39.5505396546961 8.76593763937634,39.5498738068845 8.76583171025984,39.5498162785645 8.76560744720962,39.5500530043538 8.76572002631702,39.5502060826736</coordinates>
            </LinearRing>
          </outerBoundaryIs>
        </Polygon>
      </Placemark>
      <Placemark xmlns="http://www.opengis.net/kml/2.2">
        <styleUrl>#Parti singole_style_map</styleUrl>
        <name>T02179</name>
        <Polygon>
          <outerBoundaryIs>
            <LinearRing>
              <coordinates>8.76723849804993,39.5520129040163 8.76754252546008,39.5516332602081 8.76790046876253,39.551206148968 8.76812080943692,39.5509402896243 8.76790945663505,39.5508322118757 8.76777406602912,39.5509734119616 8.76766754555265,39.551126788562 8.76744969866078,39.5514676268516 8.76736799639672,39.5516264410623 8.76729031274358,39.5518120419195 8.76724110467049,39.5520026374883 8.76723849804993,39.5520129040163</coordinates>
            </LinearRing>
          </outerBoundaryIs>
        </Polygon>
      </Placemark>
      <Placemark xmlns="http://www.opengis.net/kml/2.2">
        <styleUrl>#Parti singole_style_map</styleUrl>
        <name>T02171</name>
        <Polygon>
          <outerBoundaryIs>
            <LinearRing>
              <coordinates>8.76559064760237,39.5527271773456 8.76686715185168,39.5527275593303 8.76688722907929,39.552620088627 8.76672179279476,39.5523272814592 8.76646972947671,39.5518778897316 8.76621308047998,39.5518864553641 8.76621821935371,39.5519019814751 8.7662455151861,39.5519879588011 8.76598074231796,39.5522418943985 8.76568308860966,39.5526092298451 8.76559064760237,39.5527271773456</coordinates>
            </LinearRing>
          </outerBoundaryIs>
        </Polygon>
      </Placemark>
      <Placemark xmlns="http://www.opengis.net/kml/2.2">
        <styleUrl>#Parti singole_style_map</styleUrl>
        <name>T02175</name>
        <Polygon>
          <outerBoundaryIs>
            <LinearRing>
              <coordinates>8.76576886958478,39.5507156154555 8.76594130917428,39.5511938614265 8.76599600134745,39.5513494356737 8.76605335327843,39.5514859854718 8.76608121980629,39.5515475190133 8.76614435098154,39.5516892343104 8.76616533489037,39.5517485103918 8.76639004489995,39.5517401508821 8.76572091106823,39.5505791835776 8.76576886958478,39.5507156154555</coordinates>
            </LinearRing>
          </outerBoundaryIs>
        </Polygon>
      </Placemark>
      <Placemark xmlns="http://www.opengis.net/kml/2.2">
        <styleUrl>#Parti singole_style_map</styleUrl>
        <name>T02178</name>
        <Polygon>
          <outerBoundaryIs>
            <LinearRing>
              <coordinates>8.76778048411084,39.550766259657 8.7678455337843,39.5506513641333 8.76798090010004,39.5504230161402 8.76825228942277,39.5500967723141 8.76868743070983,39.5497050970656 8.76896465069922,39.549517261617 8.76835460363858,39.5492275621625 8.76733736661657,39.5505396546961 8.76778048411084,39.550766259657</coordinates>
            </LinearRing>
          </outerBoundaryIs>
        </Polygon>
      </Placemark>
      <Placemark xmlns="http://www.opengis.net/kml/2.2">
        <styleUrl>#Parti singole_style_map</styleUrl>
        <name>T02180</name>
        <Polygon>
          <outerBoundaryIs>
            <LinearRing>
              <coordinates>8.76790945663505,39.5508322118757 8.76812080943692,39.5509402896243 8.76862009140587,39.5503374779779 8.76885647261342,39.550055295453 8.76923502385825,39.5496456559798 8.76909865768051,39.5495808978905 8.76882870774777,39.54975252056 8.76867225439687,39.5498833539396 8.76853531865604,39.5500212270518 8.76851142361375,39.5500458496329 8.76837811997917,39.550158834299 8.76823493874241,39.550322932622 8.76811591137669,39.5504684456989 8.76790945663505,39.5508322118757</coordinates>
            </LinearRing>
          </outerBoundaryIs>
        </Polygon>
      </Placemark>
      <Placemark xmlns="http://www.opengis.net/kml/2.2">
        <styleUrl>#Parti singole_style_map</styleUrl>
        <name>T02181</name>
        <Polygon>
          <outerBoundaryIs>
            <LinearRing>
              <coordinates>8.78526331095244,39.5471846832624 8.78581083086321,39.546782807675 8.78586958735039,39.5466560237424 8.78567430843103,39.5468297606656 8.78544760931097,39.5470171889132 8.78526331095244,39.5471846832624</coordinates>
            </LinearRing>
          </outerBoundaryIs>
        </Polygon>
      </Placemark>
      <Placemark xmlns="http://www.opengis.net/kml/2.2">
        <styleUrl>#Parti singole_style_map</styleUrl>
        <name>T02182</name>
        <Polygon>
          <outerBoundaryIs>
            <LinearRing>
              <coordinates>8.78681614151439,39.54528904437 8.78700560461966,39.5456553556682 8.78708003462726,39.5457984410704 8.78710640933662,39.5457899656979 8.78703379366184,39.545647262076 8.78694912477886,39.5454843981987 8.78689130371504,39.5453752310437 8.78684152473416,39.5452812520198 8.78681614151439,39.54528904437</coordinates>
            </LinearRing>
          </outerBoundaryIs>
        </Polygon>
      </Placemark>
    </Folder>
  </Document>
</kml>

